{"type":"FeatureCollection","features":[{"type":"Feature","properties":{"id":"bld-nt-tuen-mun-001","heightM":30.8,"floors":5,"simulated":true},"geometry":{"type":"Polygon","coordinates":[[[113.95871333333334,22.380419999999997],[113.96428666666667,22.380419999999997],[113.96428666666667,22.38658],[113.95871333333334,22.38658],[113.95871333333334,22.380419999999997]]]}},{"type":"Feature","properties":{"id":"bld-nt-tuen-mun-002","heightM":15.5,"floors":10,"simulated":true},"geometry":{"type":"Polygon","coordinates":[[[113.96504666666667,22.380419999999997],[113.97062,22.380419999999997],[113.97062,22.38658],[113.96504666666667,22.38658],[113.96504666666667,22.380419999999997]]]}},{"type":"Feature","properties":{"id":"bld-nt-tuen-mun-003","heightM":65.7,"floors":19,"simulated":true},"geometry":{"type":"Polygon","coordinates":[[[113.97138,22.380419999999997],[113.97695333333333,22.380419999999997],[113.97695333333333,22.38658],[113.97138,22.38658],[113.97138,22.380419999999997]]]}},{"type":"Feature","properties":{"id":"bld-nt-tuen-mun-004","heightM":23.7,"floors":10,"simulated":true},"geometry":{"type":"Polygon","coordinates":[[[113.97771333333333,22.380419999999997],[113.98328666666666,22.380419999999997],[113.98328666666666,22.38658],[113.97771333333333,22.38658],[113.97771333333333,22.380419999999997]]]}},{"type":"Feature","properties":{"id":"bld-nt-tuen-mun-005","heightM":61.2,"floors":18,"simulated":true},"geometry":{"type":"Polygon","coordinates":[[[113.98404666666666,22.380419999999997],[113.98961999999999,22.380419999999997],[113.98961999999999,22.38658],[113.98404666666666,22.38658],[113.98404666666666,22.380419999999997]]]}},{"type":"Feature","properties":{"id":"bld-nt-tuen-mun-006","heightM":18.3,"floors":7,"simulated":true},"geometry":{"type":"Polygon","coordinates":[[[113.95238,22.38742],[113.95795333333334,22.38742],[113.95795333333334,22.39358],[113.95238,22.39358],[113.95238,22.38742]]]}},{"type":"Feature","properties":{"id":"bld-nt-tuen-mun-007","heightM":81.1,"floors":28,"simulated":true},"geometry":{"type":"Polygon","coordinates":[[[113.95871333333334,22.38742],[113.96428666666667,22.38742],[113.96428666666667,22.39358],[113.95871333333334,22.39358],[113.95871333333334,22.38742]]]}},{"type":"Feature","properties":{"id":"bld-nt-tuen-mun-008","heightM":81.1,"floors":26,"simulated":true},"geometry":{"type":"Polygon","coordinates":[[[113.96504666666667,22.38742],[113.97062,22.38742],[113.97062,22.39358],[113.96504666666667,22.39358],[113.96504666666667,22.38742]]]}},{"type":"Feature","properties":{"id":"bld-nt-tuen-mun-009","heightM":29.3,"floors":8,"simulated":true},"geometry":{"type":"Polygon","coordinates":[[[113.97138,22.38742],[113.97695333333333,22.38742],[113.97695333333333,22.39358],[113.97138,22.39358],[113.97138,22.38742]]]}},{"type":"Feature","properties":{"id":"bld-nt-tuen-mun-010","heightM":78.7,"floors":24,"simulated":true},"geometry":{"type":"Polygon","coordinates":[[[113.97771333333333,22.38742],[113.98328666666666,22.38742],[113.98328666666666,22.39358],[113.97771333333333,22.39358],[113.97771333333333,22.38742]]]}},{"type":"Feature","properties":{"id":"bld-nt-tuen-mun-011","heightM":23.8,"floors":10,"simulated":true},"geometry":{"type":"Polygon","coordinates":[[[113.98404666666666,22.38742],[113.98961999999999,22.38742],[113.98961999999999,22.39358],[113.98404666666666,22.39358],[113.98404666666666,22.38742]]]}},{"type":"Feature","properties":{"id":"bld-nt-tuen-mun-012","heightM":57.3,"floors":21,"simulated":true},"geometry":{"type":"Polygon","coordinates":[[[113.95238,22.39442],[113.95795333333334,22.39442],[113.95795333333334,22.400579999999998],[113.95238,22.400579999999998],[113.95238,22.39442]]]}},{"type":"Feature","properties":{"id":"bld-nt-tuen-mun-013","heightM":16.5,"floors":5,"simulated":true},"geometry":{"type":"Polygon","coordinates":[[[113.95871333333334,22.39442],[113.96428666666667,22.39442],[113.96428666666667,22.400579999999998],[113.95871333333334,22.400579999999998],[113.95871333333334,22.39442]]]}},{"type":"Feature","properties":{"id":"bld-nt-tuen-mun-014","heightM":62.0,"floors":23,"simulated":true},"geometry":{"type":"Polygon","coordinates":[[[113.96504666666667,22.39442],[113.97062,22.39442],[113.97062,22.400579999999998],[113.96504666666667,22.400579999999998],[113.96504666666667,22.39442]]]}},{"type":"Feature","properties":{"id":"bld-nt-tuen-mun-015","heightM":17.3,"floors":5,"simulated":true},"geometry":{"type":"Polygon","coordinates":[[[113.97138,22.39442],[113.97695333333333,22.39442],[113.97695333333333,22.400579999999998],[113.97138,22.400579999999998],[113.97138,22.39442]]]}},{"type":"Feature","properties":{"id":"bld-nt-tuen-mun-016","heightM":32.3,"floors":5,"simulated":true},"geometry":{"type":"Polygon","coordinates":[[[113.97771333333333,22.39442],[113.98328666666666,22.39442],[113.98328666666666,22.400579999999998],[113.97771333333333,22.400579999999998],[113.97771333333333,22.39442]]]}},{"type":"Feature","properties":{"id":"bld-nt-tuen-mun-017","heightM":74.9,"floors":23,"simulated":true},"geometry":{"type":"Polygon","coordinates":[[[113.98404666666666,22.39442],[113.98961999999999,22.39442],[113.98961999999999,22.400579999999998],[113.98404666666666,22.400579999999998],[113.98404666666666,22.39442]]]}},{"type":"Feature","properties":{"id":"bld-nt-tuen-mun-018","heightM":28.6,"floors":6,"simulated":true},"geometry":{"type":"Polygon","coordinates":[[[113.95238,22.40842],[113.95795333333334,22.40842],[113.95795333333334,22.41458],[113.95238,22.41458],[113.95238,22.40842]]]}},{"type":"Feature","properties":{"id":"bld-nt-tuen-mun-019","heightM":15.1,"floors":7,"simulated":true},"geometry":{"type":"Polygon","coordinates":[[[113.95871333333334,22.40842],[113.96428666666667,22.40842],[113.96428666666667,22.41458],[113.95871333333334,22.41458],[113.95871333333334,22.40842]]]}},{"type":"Feature","properties":{"id":"bld-nt-tuen-mun-020","heightM":70.8,"floors":27,"simulated":true},"geometry":{"type":"Polygon","coordinates":[[[113.96504666666667,22.40842],[113.97062,22.40842],[113.97062,22.41458],[113.96504666666667,22.41458],[113.96504666666667,22.40842]]]}},{"type":"Feature","properties":{"id":"bld-nt-tuen-mun-021","heightM":55.7,"floors":24,"simulated":true},"geometry":{"type":"Polygon","coordinates":[[[113.97138,22.40842],[113.97695333333333,22.40842],[113.97695333333333,22.41458],[113.97138,22.41458],[113.97138,22.40842]]]}},{"type":"Feature","properties":{"id":"bld-nt-tuen-mun-022","heightM":25.1,"floors":10,"simulated":true},"geometry":{"type":"Polygon","coordinates":[[[113.97771333333333,22.40842],[113.98328666666666,22.40842],[113.98328666666666,22.41458],[113.97771333333333,22.41458],[113.97771333333333,22.40842]]]}},{"type":"Feature","properties":{"id":"bld-nt-tuen-mun-023","heightM":128.7,"floors":36,"simulated":true},"geometry":{"type":"Polygon","coordinates":[[[113.98404666666666,22.40842],[113.98961999999999,22.40842],[113.98961999999999,22.41458],[113.98404666666666,22.41458],[113.98404666666666,22.40842]]]}}]}