{"type":"FeatureCollection","features":[{"type":"Feature","properties":{"id":"bld-kowloon-yau-tsim-001","heightM":116.9,"floors":41,"simulated":true},"geometry":{"type":"Polygon","coordinates":[[[114.16682666666667,22.296348],[114.16917333333333,22.296348],[114.16917333333333,22.301451999999998],[114.16682666666667,22.301451999999998],[114.16682666666667,22.296348]]]}},{"type":"Feature","properties":{"id":"bld-kowloon-yau-tsim-002","heightM":68.2,"floors":20,"simulated":true},"geometry":{"type":"Polygon","coordinates":[[[114.16949333333334,22.296348],[114.17184,22.296348],[114.17184,22.301451999999998],[114.16949333333334,22.301451999999998],[114.16949333333334,22.296348]]]}},{"type":"Feature","properties":{"id":"bld-kowloon-yau-tsim-003","heightM":135.0,"floors":28,"simulated":true},"geometry":{"type":"Polygon","coordinates":[[[114.17216,22.296348],[114.17450666666667,22.296348],[114.17450666666667,22.301451999999998],[114.17216,22.301451999999998],[114.17216,22.296348]]]}},{"type":"Feature","properties":{"id":"bld-kowloon-yau-tsim-004","heightM":61.1,"floors":17,"simulated":true},"geometry":{"type":"Polygon","coordinates":[[[114.17482666666668,22.296348],[114.17717333333334,22.296348],[114.17717333333334,22.301451999999998],[114.17482666666668,22.301451999999998],[114.17482666666668,22.296348]]]}},{"type":"Feature","properties":{"id":"bld-kowloon-yau-tsim-005","heightM":75.9,"floors":20,"simulated":true},"geometry":{"type":"Polygon","coordinates":[[[114.17749333333335,22.296348],[114.17984000000001,22.296348],[114.17984000000001,22.301451999999998],[114.17749333333335,22.301451999999998],[114.17749333333335,22.296348]]]}},{"type":"Feature","properties":{"id":"bld-kowloon-yau-tsim-006","heightM":46.0,"floors":23,"simulated":true},"geometry":{"type":"Polygon","coordinates":[[[114.16682666666667,22.302148],[114.16917333333333,22.302148],[114.16917333333333,22.307252],[114.16682666666667,22.307252],[114.16682666666667,22.302148]]]}},{"type":"Feature","properties":{"id":"bld-kowloon-yau-tsim-007","heightM":138.1,"floors":33,"simulated":true},"geometry":{"type":"Polygon","coordinates":[[[114.16949333333334,22.302148],[114.17184,22.302148],[114.17184,22.307252],[114.16949333333334,22.307252],[114.16949333333334,22.302148]]]}},{"type":"Feature","properties":{"id":"bld-kowloon-yau-tsim-008","heightM":126.3,"floors":29,"simulated":true},"geometry":{"type":"Polygon","coordinates":[[[114.17216,22.302148],[114.17450666666667,22.302148],[114.17450666666667,22.307252],[114.17216,22.307252],[114.17216,22.302148]]]}},{"type":"Feature","properties":{"id":"bld-kowloon-yau-tsim-009","heightM":49.0,"floors":20,"simulated":true},"geometry":{"type":"Polygon","coordinates":[[[114.17482666666668,22.302148],[114.17717333333334,22.302148],[114.17717333333334,22.307252],[114.17482666666668,22.307252],[114.17482666666668,22.302148]]]}},{"type":"Feature","properties":{"id":"bld-kowloon-yau-tsim-010","heightM":96.2,"floors":42,"simulated":true},"geometry":{"type":"Polygon","coordinates":[[[114.17749333333335,22.302148],[114.17984000000001,22.302148],[114.17984000000001,22.307252],[114.17749333333335,22.307252],[114.17749333333335,22.302148]]]}},{"type":"Feature","properties":{"id":"bld-kowloon-yau-tsim-011","heightM":107.0,"floors":36,"simulated":true},"geometry":{"type":"Polygon","coordinates":[[[114.16416,22.307948],[114.16650666666666,22.307948],[114.16650666666666,22.313052],[114.16416,22.313052],[114.16416,22.307948]]]}},{"type":"Feature","properties":{"id":"bld-kowloon-yau-tsim-012","heightM":97.6,"floors":40,"simulated":true},"geometry":{"type":"Polygon","coordinates":[[[114.16682666666667,22.307948],[114.16917333333333,22.307948],[114.16917333333333,22.313052],[114.16682666666667,22.313052],[114.16682666666667,22.307948]]]}},{"type":"Feature","properties":{"id":"bld-kowloon-yau-tsim-013","heightM":17.0,"floors":5,"simulated":true},"geometry":{"type":"Polygon","coordinates":[[[114.17216,22.307948],[114.17450666666667,22.307948],[114.17450666666667,22.313052],[114.17216,22.313052],[114.17216,22.307948]]]}},{"type":"Feature","properties":{"id":"bld-kowloon-yau-tsim-014","heightM":99.0,"floors":36,"simulated":true},"geometry":{"type":"Polygon","coordinates":[[[114.17482666666668,22.307948],[114.17717333333334,22.307948],[114.17717333333334,22.313052],[114.17482666666668,22.313052],[114.17482666666668,22.307948]]]}},{"type":"Feature","properties":{"id":"bld-kowloon-yau-tsim-015","heightM":102.5,"floors":33,"simulated":true},"geometry":{"type":"Polygon","coordinates":[[[114.17749333333335,22.307948],[114.17984000000001,22.307948],[114.17984000000001,22.313052],[114.17749333333335,22.313052],[114.17749333333335,22.307948]]]}},{"type":"Feature","properties":{"id":"bld-kowloon-yau-tsim-016","heightM":116.9,"floors":42,"simulated":true},"geometry":{"type":"Polygon","coordinates":[[[114.16682666666667,22.319548],[114.16917333333333,22.319548],[114.16917333333333,22.324652],[114.16682666666667,22.324652],[114.16682666666667,22.319548]]]}},{"type":"Feature","properties":{"id":"bld-kowloon-yau-tsim-017","heightM":73.1,"floors":17,"simulated":true},"geometry":{"type":"Polygon","coordinates":[[[114.16949333333334,22.319548],[114.17184,22.319548],[114.17184,22.324652],[114.16949333333334,22.324652],[114.16949333333334,22.319548]]]}},{"type":"Feature","properties":{"id":"bld-kowloon-yau-tsim-018","heightM":18.6,"floors":6,"simulated":true},"geometry":{"type":"Polygon","coordinates":[[[114.17216,22.319548],[114.17450666666667,22.319548],[114.17450666666667,22.324652],[114.17216,22.324652],[114.17216,22.319548]]]}},{"type":"Feature","properties":{"id":"bld-kowloon-yau-tsim-019","heightM":95.2,"floors":37,"simulated":true},"geometry":{"type":"Polygon","coordinates":[[[114.17482666666668,22.319548],[114.17717333333334,22.319548],[114.17717333333334,22.324652],[114.17482666666668,22.324652],[114.17482666666668,22.319548]]]}},{"type":"Feature","properties":{"id":"bld-kowloon-yau-tsim-020","heightM":70.7,"floors":19,"simulated":true},"geometry":{"type":"Polygon","coordinates":[[[114.17749333333335,22.319548],[114.17984000000001,22.319548],[114.17984000000001,22.324652],[114.17749333333335,22.324652],[114.17749333333335,22.319548]]]}}]}