{"type":"FeatureCollection","features":[{"type":"Feature","properties":{"id":"bld-nt-tai-po-001","heightM":28.3,"floors":10,"simulated":true},"geometry":{"type":"Polygon","coordinates":[[[114.15535,22.438288],[114.16048333333333,22.438288],[114.16048333333333,22.442512],[114.15535,22.442512],[114.15535,22.438288]]]}},{"type":"Feature","properties":{"id":"bld-nt-tai-po-002","heightM":16.0,"floors":10,"simulated":true},"geometry":{"type":"Polygon","coordinates":[[[114.16118333333334,22.438288],[114.16631666666666,22.438288],[114.16631666666666,22.442512],[114.16118333333334,22.442512],[114.16118333333334,22.438288]]]}},{"type":"Feature","properties":{"id":"bld-nt-tai-po-003","heightM":23.3,"floors":8,"simulated":true},"geometry":{"type":"Polygon","coordinates":[[[114.16701666666667,22.438288],[114.17215,22.438288],[114.17215,22.442512],[114.16701666666667,22.442512],[114.16701666666667,22.438288]]]}},{"type":"Feature","properties":{"id":"bld-nt-tai-po-004","heightM":80.3,"floors":22,"simulated":true},"geometry":{"type":"Polygon","coordinates":[[[114.17285,22.438288],[114.17798333333333,22.438288],[114.17798333333333,22.442512],[114.17285,22.442512],[114.17285,22.438288]]]}},{"type":"Feature","properties":{"id":"bld-nt-tai-po-005","heightM":92.7,"floors":38,"simulated":true},"geometry":{"type":"Polygon","coordinates":[[[114.17868333333334,22.438288],[114.18381666666666,22.438288],[114.18381666666666,22.442512],[114.17868333333334,22.442512],[114.17868333333334,22.438288]]]}},{"type":"Feature","properties":{"id":"bld-nt-tai-po-006","heightM":18.0,"floors":9,"simulated":true},"geometry":{"type":"Polygon","coordinates":[[[114.18451666666667,22.438288],[114.18965,22.438288],[114.18965,22.442512],[114.18451666666667,22.442512],[114.18451666666667,22.438288]]]}},{"type":"Feature","properties":{"id":"bld-nt-tai-po-007","heightM":73.5,"floors":20,"simulated":true},"geometry":{"type":"Polygon","coordinates":[[[114.15535,22.443088],[114.16048333333333,22.443088],[114.16048333333333,22.447312],[114.15535,22.447312],[114.15535,22.443088]]]}},{"type":"Feature","properties":{"id":"bld-nt-tai-po-008","heightM":85.1,"floors":23,"simulated":true},"geometry":{"type":"Polygon","coordinates":[[[114.16118333333334,22.443088],[114.16631666666666,22.443088],[114.16631666666666,22.447312],[114.16118333333334,22.447312],[114.16118333333334,22.443088]]]}},{"type":"Feature","properties":{"id":"bld-nt-tai-po-009","heightM":19.3,"floors":5,"simulated":true},"geometry":{"type":"Polygon","coordinates":[[[114.16701666666667,22.443088],[114.17215,22.443088],[114.17215,22.447312],[114.16701666666667,22.447312],[114.16701666666667,22.443088]]]}},{"type":"Feature","properties":{"id":"bld-nt-tai-po-010","heightM":110.4,"floors":38,"simulated":true},"geometry":{"type":"Polygon","coordinates":[[[114.17285,22.443088],[114.17798333333333,22.443088],[114.17798333333333,22.447312],[114.17285,22.447312],[114.17285,22.443088]]]}},{"type":"Feature","properties":{"id":"bld-nt-tai-po-011","heightM":20.3,"floors":10,"simulated":true},"geometry":{"type":"Polygon","coordinates":[[[114.17868333333334,22.443088],[114.18381666666666,22.443088],[114.18381666666666,22.447312],[114.17868333333334,22.447312],[114.17868333333334,22.443088]]]}},{"type":"Feature","properties":{"id":"bld-nt-tai-po-012","heightM":24.2,"floors":6,"simulated":true},"geometry":{"type":"Polygon","coordinates":[[[114.18451666666667,22.443088],[114.18965,22.443088],[114.18965,22.447312],[114.18451666666667,22.447312],[114.18451666666667,22.443088]]]}},{"type":"Feature","properties":{"id":"bld-nt-tai-po-013","heightM":59.4,"floors":22,"simulated":true},"geometry":{"type":"Polygon","coordinates":[[[114.15535,22.447888],[114.16048333333333,22.447888],[114.16048333333333,22.452112],[114.15535,22.452112],[114.15535,22.447888]]]}},{"type":"Feature","properties":{"id":"bld-nt-tai-po-014","heightM":81.5,"floors":27,"simulated":true},"geometry":{"type":"Polygon","coordinates":[[[114.16118333333334,22.447888],[114.16631666666666,22.447888],[114.16631666666666,22.452112],[114.16118333333334,22.452112],[114.16118333333334,22.447888]]]}},{"type":"Feature","properties":{"id":"bld-nt-tai-po-015","heightM":84.4,"floors":21,"simulated":true},"geometry":{"type":"Polygon","coordinates":[[[114.16701666666667,22.447888],[114.17215,22.447888],[114.17215,22.452112],[114.16701666666667,22.452112],[114.16701666666667,22.447888]]]}},{"type":"Feature","properties":{"id":"bld-nt-tai-po-016","heightM":76.3,"floors":19,"simulated":true},"geometry":{"type":"Polygon","coordinates":[[[114.17285,22.447888],[114.17798333333333,22.447888],[114.17798333333333,22.452112],[114.17285,22.452112],[114.17285,22.447888]]]}},{"type":"Feature","properties":{"id":"bld-nt-tai-po-017","heightM":88.8,"floors":21,"simulated":true},"geometry":{"type":"Polygon","coordinates":[[[114.17868333333334,22.447888],[114.18381666666666,22.447888],[114.18381666666666,22.452112],[114.17868333333334,22.452112],[114.17868333333334,22.447888]]]}},{"type":"Feature","properties":{"id":"bld-nt-tai-po-018","heightM":27.4,"floors":10,"simulated":true},"geometry":{"type":"Polygon","coordinates":[[[114.18451666666667,22.447888],[114.18965,22.447888],[114.18965,22.452112],[114.18451666666667,22.452112],[114.18451666666667,22.447888]]]}},{"type":"Feature","properties":{"id":"bld-nt-tai-po-019","heightM":31.9,"floors":7,"simulated":true},"geometry":{"type":"Polygon","coordinates":[[[114.15535,22.457487999999998],[114.16048333333333,22.457487999999998],[114.16048333333333,22.461712],[114.15535,22.461712],[114.15535,22.457487999999998]]]}},{"type":"Feature","properties":{"id":"bld-nt-tai-po-020","heightM":21.7,"floors":6,"simulated":true},"geometry":{"type":"Polygon","coordinates":[[[114.16118333333334,22.457487999999998],[114.16631666666666,22.457487999999998],[114.16631666666666,22.461712],[114.16118333333334,22.461712],[114.16118333333334,22.457487999999998]]]}},{"type":"Feature","properties":{"id":"bld-nt-tai-po-021","heightM":87.1,"floors":24,"simulated":true},"geometry":{"type":"Polygon","coordinates":[[[114.16701666666667,22.457487999999998],[114.17215,22.457487999999998],[114.17215,22.461712],[114.16701666666667,22.461712],[114.16701666666667,22.457487999999998]]]}},{"type":"Feature","properties":{"id":"bld-nt-tai-po-022","heightM":23.9,"floors":10,"simulated":true},"geometry":{"type":"Polygon","coordinates":[[[114.17285,22.457487999999998],[114.17798333333333,22.457487999999998],[114.17798333333333,22.461712],[114.17285,22.461712],[114.17285,22.457487999999998]]]}},{"type":"Feature","properties":{"id":"bld-nt-tai-po-023","heightM":89.5,"floors":22,"simulated":true},"geometry":{"type":"Polygon","coordinates":[[[114.17868333333334,22.457487999999998],[114.18381666666666,22.457487999999998],[114.18381666666666,22.461712],[114.17868333333334,22.461712],[114.17868333333334,22.457487999999998]]]}}]}