{"type":"FeatureCollection","features":[{"type":"Feature","properties":{"id":"bld-nt-sha-tin-001","heightM":67.4,"floors":18,"simulated":true},"geometry":{"type":"Polygon","coordinates":[[[114.17833999999999,22.36836],[114.18332666666666,22.36836],[114.18332666666666,22.373639999999998],[114.17833999999999,22.373639999999998],[114.17833999999999,22.36836]]]}},{"type":"Feature","properties":{"id":"bld-nt-sha-tin-002","heightM":72.6,"floors":27,"simulated":true},"geometry":{"type":"Polygon","coordinates":[[[114.18400666666666,22.36836],[114.18899333333333,22.36836],[114.18899333333333,22.373639999999998],[114.18400666666666,22.373639999999998],[114.18400666666666,22.36836]]]}},{"type":"Feature","properties":{"id":"bld-nt-sha-tin-003","heightM":73.3,"floors":27,"simulated":true},"geometry":{"type":"Polygon","coordinates":[[[114.18967333333333,22.36836],[114.19466,22.36836],[114.19466,22.373639999999998],[114.18967333333333,22.373639999999998],[114.18967333333333,22.36836]]]}},{"type":"Feature","properties":{"id":"bld-nt-sha-tin-004","heightM":71.1,"floors":20,"simulated":true},"geometry":{"type":"Polygon","coordinates":[[[114.19534,22.36836],[114.20032666666667,22.36836],[114.20032666666667,22.373639999999998],[114.19534,22.373639999999998],[114.19534,22.36836]]]}},{"type":"Feature","properties":{"id":"bld-nt-sha-tin-005","heightM":117.9,"floors":38,"simulated":true},"geometry":{"type":"Polygon","coordinates":[[[114.20100666666667,22.36836],[114.20599333333334,22.36836],[114.20599333333334,22.373639999999998],[114.20100666666667,22.373639999999998],[114.20100666666667,22.36836]]]}},{"type":"Feature","properties":{"id":"bld-nt-sha-tin-006","heightM":80.5,"floors":21,"simulated":true},"geometry":{"type":"Polygon","coordinates":[[[114.20667333333334,22.36836],[114.21166000000001,22.36836],[114.21166000000001,22.373639999999998],[114.20667333333334,22.373639999999998],[114.20667333333334,22.36836]]]}},{"type":"Feature","properties":{"id":"bld-nt-sha-tin-007","heightM":30.3,"floors":9,"simulated":true},"geometry":{"type":"Polygon","coordinates":[[[114.17833999999999,22.37436],[114.18332666666666,22.37436],[114.18332666666666,22.37964],[114.17833999999999,22.37964],[114.17833999999999,22.37436]]]}},{"type":"Feature","properties":{"id":"bld-nt-sha-tin-008","heightM":33.2,"floors":6,"simulated":true},"geometry":{"type":"Polygon","coordinates":[[[114.18967333333333,22.37436],[114.19466,22.37436],[114.19466,22.37964],[114.18967333333333,22.37964],[114.18967333333333,22.37436]]]}},{"type":"Feature","properties":{"id":"bld-nt-sha-tin-009","heightM":68.3,"floors":19,"simulated":true},"geometry":{"type":"Polygon","coordinates":[[[114.19534,22.37436],[114.20032666666667,22.37436],[114.20032666666667,22.37964],[114.19534,22.37964],[114.19534,22.37436]]]}},{"type":"Feature","properties":{"id":"bld-nt-sha-tin-010","heightM":32.2,"floors":9,"simulated":true},"geometry":{"type":"Polygon","coordinates":[[[114.18400666666666,22.38036],[114.18899333333333,22.38036],[114.18899333333333,22.38564],[114.18400666666666,22.38564],[114.18400666666666,22.38036]]]}},{"type":"Feature","properties":{"id":"bld-nt-sha-tin-011","heightM":59.8,"floors":18,"simulated":true},"geometry":{"type":"Polygon","coordinates":[[[114.18967333333333,22.38036],[114.19466,22.38036],[114.19466,22.38564],[114.18967333333333,22.38564],[114.18967333333333,22.38036]]]}},{"type":"Feature","properties":{"id":"bld-nt-sha-tin-012","heightM":72.3,"floors":21,"simulated":true},"geometry":{"type":"Polygon","coordinates":[[[114.19534,22.38036],[114.20032666666667,22.38036],[114.20032666666667,22.38564],[114.19534,22.38564],[114.19534,22.38036]]]}},{"type":"Feature","properties":{"id":"bld-nt-sha-tin-013","heightM":28.7,"floors":10,"simulated":true},"geometry":{"type":"Polygon","coordinates":[[[114.20100666666667,22.38036],[114.20599333333334,22.38036],[114.20599333333334,22.38564],[114.20100666666667,22.38564],[114.20100666666667,22.38036]]]}},{"type":"Feature","properties":{"id":"bld-nt-sha-tin-014","heightM":17.2,"floors":7,"simulated":true},"geometry":{"type":"Polygon","coordinates":[[[114.20667333333334,22.38036],[114.21166000000001,22.38036],[114.21166000000001,22.38564],[114.20667333333334,22.38564],[114.20667333333334,22.38036]]]}},{"type":"Feature","properties":{"id":"bld-nt-sha-tin-015","heightM":31.5,"floors":5,"simulated":true},"geometry":{"type":"Polygon","coordinates":[[[114.17833999999999,22.39236],[114.18332666666666,22.39236],[114.18332666666666,22.39764],[114.17833999999999,22.39764],[114.17833999999999,22.39236]]]}},{"type":"Feature","properties":{"id":"bld-nt-sha-tin-016","heightM":60.8,"floors":17,"simulated":true},"geometry":{"type":"Polygon","coordinates":[[[114.18400666666666,22.39236],[114.18899333333333,22.39236],[114.18899333333333,22.39764],[114.18400666666666,22.39764],[114.18400666666666,22.39236]]]}},{"type":"Feature","properties":{"id":"bld-nt-sha-tin-017","heightM":28.9,"floors":7,"simulated":true},"geometry":{"type":"Polygon","coordinates":[[[114.18967333333333,22.39236],[114.19466,22.39236],[114.19466,22.39764],[114.18967333333333,22.39764],[114.18967333333333,22.39236]]]}},{"type":"Feature","properties":{"id":"bld-nt-sha-tin-018","heightM":61.2,"floors":26,"simulated":true},"geometry":{"type":"Polygon","coordinates":[[[114.19534,22.39236],[114.20032666666667,22.39236],[114.20032666666667,22.39764],[114.19534,22.39764],[114.19534,22.39236]]]}},{"type":"Feature","properties":{"id":"bld-nt-sha-tin-019","heightM":84.6,"floors":26,"simulated":true},"geometry":{"type":"Polygon","coordinates":[[[114.20100666666667,22.39236],[114.20599333333334,22.39236],[114.20599333333334,22.39764],[114.20100666666667,22.39764],[114.20100666666667,22.39236]]]}},{"type":"Feature","properties":{"id":"bld-nt-sha-tin-020","heightM":20.4,"floors":8,"simulated":true},"geometry":{"type":"Polygon","coordinates":[[[114.20667333333334,22.39236],[114.21166000000001,22.39236],[114.21166000000001,22.39764],[114.20667333333334,22.39764],[114.20667333333334,22.39236]]]}}]}