{"type":"FeatureCollection","features":[{"type":"Feature","properties":{"id":"bld-nt-yuen-long-001","heightM":89.7,"floors":27,"simulated":true},"geometry":{"type":"Polygon","coordinates":[[[114.0183,22.432312],[114.0227,22.432312],[114.0227,22.436888],[114.0183,22.436888],[114.0183,22.432312]]]}},{"type":"Feature","properties":{"id":"bld-nt-yuen-long-002","heightM":75.9,"floors":20,"simulated":true},"geometry":{"type":"Polygon","coordinates":[[[114.0233,22.432312],[114.0277,22.432312],[114.0277,22.436888],[114.0233,22.436888],[114.0233,22.432312]]]}},{"type":"Feature","properties":{"id":"bld-nt-yuen-long-003","heightM":31.2,"floors":6,"simulated":true},"geometry":{"type":"Polygon","coordinates":[[[114.0283,22.432312],[114.0327,22.432312],[114.0327,22.436888],[114.0283,22.436888],[114.0283,22.432312]]]}},{"type":"Feature","properties":{"id":"bld-nt-yuen-long-004","heightM":58.6,"floors":25,"simulated":true},"geometry":{"type":"Polygon","coordinates":[[[114.0333,22.432312],[114.0377,22.432312],[114.0377,22.436888],[114.0333,22.436888],[114.0333,22.432312]]]}},{"type":"Feature","properties":{"id":"bld-nt-yuen-long-005","heightM":89.0,"floors":22,"simulated":true},"geometry":{"type":"Polygon","coordinates":[[[114.0383,22.432312],[114.0427,22.432312],[114.0427,22.436888],[114.0383,22.436888],[114.0383,22.432312]]]}},{"type":"Feature","properties":{"id":"bld-nt-yuen-long-006","heightM":72.7,"floors":17,"simulated":true},"geometry":{"type":"Polygon","coordinates":[[[114.0183,22.437511999999998],[114.0227,22.437511999999998],[114.0227,22.442088],[114.0183,22.442088],[114.0183,22.437511999999998]]]}},{"type":"Feature","properties":{"id":"bld-nt-yuen-long-007","heightM":74.8,"floors":18,"simulated":true},"geometry":{"type":"Polygon","coordinates":[[[114.0233,22.437511999999998],[114.0277,22.437511999999998],[114.0277,22.442088],[114.0233,22.442088],[114.0233,22.437511999999998]]]}},{"type":"Feature","properties":{"id":"bld-nt-yuen-long-008","heightM":29.4,"floors":6,"simulated":true},"geometry":{"type":"Polygon","coordinates":[[[114.0283,22.437511999999998],[114.0327,22.437511999999998],[114.0327,22.442088],[114.0283,22.442088],[114.0283,22.437511999999998]]]}},{"type":"Feature","properties":{"id":"bld-nt-yuen-long-009","heightM":63.9,"floors":26,"simulated":true},"geometry":{"type":"Polygon","coordinates":[[[114.0333,22.437511999999998],[114.0377,22.437511999999998],[114.0377,22.442088],[114.0333,22.442088],[114.0333,22.437511999999998]]]}},{"type":"Feature","properties":{"id":"bld-nt-yuen-long-010","heightM":72.4,"floors":20,"simulated":true},"geometry":{"type":"Polygon","coordinates":[[[114.0383,22.437511999999998],[114.0427,22.437511999999998],[114.0427,22.442088],[114.0383,22.442088],[114.0383,22.437511999999998]]]}},{"type":"Feature","properties":{"id":"bld-nt-yuen-long-011","heightM":32.6,"floors":9,"simulated":true},"geometry":{"type":"Polygon","coordinates":[[[114.0433,22.437511999999998],[114.0477,22.437511999999998],[114.0477,22.442088],[114.0433,22.442088],[114.0433,22.437511999999998]]]}},{"type":"Feature","properties":{"id":"bld-nt-yuen-long-012","heightM":82.7,"floors":21,"simulated":true},"geometry":{"type":"Polygon","coordinates":[[[114.0183,22.442712],[114.0227,22.442712],[114.0227,22.447287999999997],[114.0183,22.447287999999997],[114.0183,22.442712]]]}},{"type":"Feature","properties":{"id":"bld-nt-yuen-long-013","heightM":89.7,"floors":23,"simulated":true},"geometry":{"type":"Polygon","coordinates":[[[114.0233,22.442712],[114.0277,22.442712],[114.0277,22.447287999999997],[114.0233,22.447287999999997],[114.0233,22.442712]]]}},{"type":"Feature","properties":{"id":"bld-nt-yuen-long-014","heightM":116.0,"floors":35,"simulated":true},"geometry":{"type":"Polygon","coordinates":[[[114.0333,22.442712],[114.0377,22.442712],[114.0377,22.447287999999997],[114.0333,22.447287999999997],[114.0333,22.442712]]]}},{"type":"Feature","properties":{"id":"bld-nt-yuen-long-015","heightM":126.7,"floors":34,"simulated":true},"geometry":{"type":"Polygon","coordinates":[[[114.0383,22.442712],[114.0427,22.442712],[114.0427,22.447287999999997],[114.0383,22.447287999999997],[114.0383,22.442712]]]}},{"type":"Feature","properties":{"id":"bld-nt-yuen-long-016","heightM":67.9,"floors":25,"simulated":true},"geometry":{"type":"Polygon","coordinates":[[[114.0183,22.453111999999997],[114.0227,22.453111999999997],[114.0227,22.457687999999997],[114.0183,22.457687999999997],[114.0183,22.453111999999997]]]}},{"type":"Feature","properties":{"id":"bld-nt-yuen-long-017","heightM":85.7,"floors":17,"simulated":true},"geometry":{"type":"Polygon","coordinates":[[[114.0283,22.453111999999997],[114.0327,22.453111999999997],[114.0327,22.457687999999997],[114.0283,22.457687999999997],[114.0283,22.453111999999997]]]}},{"type":"Feature","properties":{"id":"bld-nt-yuen-long-018","heightM":122.6,"floors":29,"simulated":true},"geometry":{"type":"Polygon","coordinates":[[[114.0333,22.453111999999997],[114.0377,22.453111999999997],[114.0377,22.457687999999997],[114.0333,22.457687999999997],[114.0333,22.453111999999997]]]}},{"type":"Feature","properties":{"id":"bld-nt-yuen-long-019","heightM":21.7,"floors":10,"simulated":true},"geometry":{"type":"Polygon","coordinates":[[[114.0383,22.453111999999997],[114.0427,22.453111999999997],[114.0427,22.457687999999997],[114.0383,22.457687999999997],[114.0383,22.453111999999997]]]}}]}