{"type":"FeatureCollection","features":[{"type":"Feature","properties":{"id":"bld-nt-islands-001","heightM":110.2,"floors":38,"simulated":true},"geometry":{"type":"Polygon","coordinates":[[[113.93973333333334,22.25572],[113.96026666666667,22.25572],[113.96026666666667,22.26628],[113.93973333333334,22.26628],[113.93973333333334,22.25572]]]}},{"type":"Feature","properties":{"id":"bld-nt-islands-002","heightM":20.3,"floors":6,"simulated":true},"geometry":{"type":"Polygon","coordinates":[[[113.96306666666668,22.25572],[113.98360000000001,22.25572],[113.98360000000001,22.26628],[113.96306666666668,22.26628],[113.96306666666668,22.25572]]]}},{"type":"Feature","properties":{"id":"bld-nt-islands-003","heightM":55.5,"floors":24,"simulated":true},"geometry":{"type":"Polygon","coordinates":[[[113.9864,22.25572],[114.00693333333334,22.25572],[114.00693333333334,22.26628],[113.9864,22.26628],[113.9864,22.25572]]]}},{"type":"Feature","properties":{"id":"bld-nt-islands-004","heightM":64.7,"floors":27,"simulated":true},"geometry":{"type":"Polygon","coordinates":[[[114.00973333333334,22.25572],[114.03026666666668,22.25572],[114.03026666666668,22.26628],[114.00973333333334,22.26628],[114.00973333333334,22.25572]]]}},{"type":"Feature","properties":{"id":"bld-nt-islands-005","heightM":28.6,"floors":6,"simulated":true},"geometry":{"type":"Polygon","coordinates":[[[114.03306666666667,22.25572],[114.0536,22.25572],[114.0536,22.26628],[114.03306666666667,22.26628],[114.03306666666667,22.25572]]]}},{"type":"Feature","properties":{"id":"bld-nt-islands-006","heightM":75.9,"floors":26,"simulated":true},"geometry":{"type":"Polygon","coordinates":[[[113.91640000000001,22.26772],[113.93693333333334,22.26772],[113.93693333333334,22.27828],[113.91640000000001,22.27828],[113.91640000000001,22.26772]]]}},{"type":"Feature","properties":{"id":"bld-nt-islands-007","heightM":59.8,"floors":25,"simulated":true},"geometry":{"type":"Polygon","coordinates":[[[113.93973333333334,22.26772],[113.96026666666667,22.26772],[113.96026666666667,22.27828],[113.93973333333334,22.27828],[113.93973333333334,22.26772]]]}},{"type":"Feature","properties":{"id":"bld-nt-islands-008","heightM":90.8,"floors":28,"simulated":true},"geometry":{"type":"Polygon","coordinates":[[[113.96306666666668,22.26772],[113.98360000000001,22.26772],[113.98360000000001,22.27828],[113.96306666666668,22.27828],[113.96306666666668,22.26772]]]}},{"type":"Feature","properties":{"id":"bld-nt-islands-009","heightM":74.2,"floors":24,"simulated":true},"geometry":{"type":"Polygon","coordinates":[[[113.9864,22.26772],[114.00693333333334,22.26772],[114.00693333333334,22.27828],[113.9864,22.27828],[113.9864,22.26772]]]}},{"type":"Feature","properties":{"id":"bld-nt-islands-010","heightM":27.0,"floors":7,"simulated":true},"geometry":{"type":"Polygon","coordinates":[[[114.00973333333334,22.26772],[114.03026666666668,22.26772],[114.03026666666668,22.27828],[114.00973333333334,22.27828],[114.00973333333334,22.26772]]]}},{"type":"Feature","properties":{"id":"bld-nt-islands-011","heightM":32.0,"floors":9,"simulated":true},"geometry":{"type":"Polygon","coordinates":[[[114.03306666666667,22.26772],[114.0536,22.26772],[114.0536,22.27828],[114.03306666666667,22.27828],[114.03306666666667,22.26772]]]}},{"type":"Feature","properties":{"id":"bld-nt-islands-012","heightM":113.1,"floors":37,"simulated":true},"geometry":{"type":"Polygon","coordinates":[[[113.91640000000001,22.27972],[113.93693333333334,22.27972],[113.93693333333334,22.29028],[113.91640000000001,22.29028],[113.91640000000001,22.27972]]]}},{"type":"Feature","properties":{"id":"bld-nt-islands-013","heightM":23.8,"floors":8,"simulated":true},"geometry":{"type":"Polygon","coordinates":[[[113.93973333333334,22.27972],[113.96026666666667,22.27972],[113.96026666666667,22.29028],[113.93973333333334,22.29028],[113.93973333333334,22.27972]]]}},{"type":"Feature","properties":{"id":"bld-nt-islands-014","heightM":33.3,"floors":10,"simulated":true},"geometry":{"type":"Polygon","coordinates":[[[113.96306666666668,22.27972],[113.98360000000001,22.27972],[113.98360000000001,22.29028],[113.96306666666668,22.29028],[113.96306666666668,22.27972]]]}},{"type":"Feature","properties":{"id":"bld-nt-islands-015","heightM":60.5,"floors":19,"simulated":true},"geometry":{"type":"Polygon","coordinates":[[[114.03306666666667,22.27972],[114.0536,22.27972],[114.0536,22.29028],[114.03306666666667,22.29028],[114.03306666666667,22.27972]]]}},{"type":"Feature","properties":{"id":"bld-nt-islands-016","heightM":81.1,"floors":18,"simulated":true},"geometry":{"type":"Polygon","coordinates":[[[113.91640000000001,22.303720000000002],[113.93693333333334,22.303720000000002],[113.93693333333334,22.31428],[113.91640000000001,22.31428],[113.91640000000001,22.303720000000002]]]}},{"type":"Feature","properties":{"id":"bld-nt-islands-017","heightM":26.6,"floors":7,"simulated":true},"geometry":{"type":"Polygon","coordinates":[[[113.96306666666668,22.303720000000002],[113.98360000000001,22.303720000000002],[113.98360000000001,22.31428],[113.96306666666668,22.31428],[113.96306666666668,22.303720000000002]]]}},{"type":"Feature","properties":{"id":"bld-nt-islands-018","heightM":63.8,"floors":27,"simulated":true},"geometry":{"type":"Polygon","coordinates":[[[114.00973333333334,22.303720000000002],[114.03026666666668,22.303720000000002],[114.03026666666668,22.31428],[114.00973333333334,22.31428],[114.00973333333334,22.303720000000002]]]}}]}