{"type":"FeatureCollection","features":[{"type":"Feature","properties":{"id":"bld-kowloon-kwun-tong-001","heightM":151.7,"floors":32,"simulated":true},"geometry":{"type":"Polygon","coordinates":[[[114.21525,22.302288],[114.21891666666667,22.302288],[114.21891666666667,22.306512],[114.21525,22.306512],[114.21525,22.302288]]]}},{"type":"Feature","properties":{"id":"bld-kowloon-kwun-tong-002","heightM":63.9,"floors":21,"simulated":true},"geometry":{"type":"Polygon","coordinates":[[[114.21941666666667,22.302288],[114.22308333333334,22.302288],[114.22308333333334,22.306512],[114.21941666666667,22.306512],[114.21941666666667,22.302288]]]}},{"type":"Feature","properties":{"id":"bld-kowloon-kwun-tong-003","heightM":107.9,"floors":37,"simulated":true},"geometry":{"type":"Polygon","coordinates":[[[114.22358333333334,22.302288],[114.22725,22.302288],[114.22725,22.306512],[114.22358333333334,22.306512],[114.22358333333334,22.302288]]]}},{"type":"Feature","properties":{"id":"bld-kowloon-kwun-tong-004","heightM":64.4,"floors":23,"simulated":true},"geometry":{"type":"Polygon","coordinates":[[[114.22775,22.302288],[114.23141666666666,22.302288],[114.23141666666666,22.306512],[114.22775,22.306512],[114.22775,22.302288]]]}},{"type":"Feature","properties":{"id":"bld-kowloon-kwun-tong-005","heightM":113.6,"floors":36,"simulated":true},"geometry":{"type":"Polygon","coordinates":[[[114.23608333333333,22.302288],[114.23975,22.302288],[114.23975,22.306512],[114.23608333333333,22.306512],[114.23608333333333,22.302288]]]}},{"type":"Feature","properties":{"id":"bld-kowloon-kwun-tong-006","heightM":18.7,"floors":5,"simulated":true},"geometry":{"type":"Polygon","coordinates":[[[114.21525,22.307088],[114.21891666666667,22.307088],[114.21891666666667,22.311312],[114.21525,22.311312],[114.21525,22.307088]]]}},{"type":"Feature","properties":{"id":"bld-kowloon-kwun-tong-007","heightM":146.5,"floors":34,"simulated":true},"geometry":{"type":"Polygon","coordinates":[[[114.21941666666667,22.307088],[114.22308333333334,22.307088],[114.22308333333334,22.311312],[114.21941666666667,22.311312],[114.21941666666667,22.307088]]]}},{"type":"Feature","properties":{"id":"bld-kowloon-kwun-tong-008","heightM":45.1,"floors":20,"simulated":true},"geometry":{"type":"Polygon","coordinates":[[[114.22358333333334,22.307088],[114.22725,22.307088],[114.22725,22.311312],[114.22358333333334,22.311312],[114.22358333333334,22.307088]]]}},{"type":"Feature","properties":{"id":"bld-kowloon-kwun-tong-009","heightM":115.2,"floors":39,"simulated":true},"geometry":{"type":"Polygon","coordinates":[[[114.22775,22.307088],[114.23141666666666,22.307088],[114.23141666666666,22.311312],[114.22775,22.311312],[114.22775,22.307088]]]}},{"type":"Feature","properties":{"id":"bld-kowloon-kwun-tong-010","heightM":74.5,"floors":23,"simulated":true},"geometry":{"type":"Polygon","coordinates":[[[114.23191666666666,22.307088],[114.23558333333332,22.307088],[114.23558333333332,22.311312],[114.23191666666666,22.311312],[114.23191666666666,22.307088]]]}},{"type":"Feature","properties":{"id":"bld-kowloon-kwun-tong-011","heightM":62.8,"floors":15,"simulated":true},"geometry":{"type":"Polygon","coordinates":[[[114.23608333333333,22.307088],[114.23975,22.307088],[114.23975,22.311312],[114.23608333333333,22.311312],[114.23608333333333,22.307088]]]}},{"type":"Feature","properties":{"id":"bld-kowloon-kwun-tong-012","heightM":106.3,"floors":32,"simulated":true},"geometry":{"type":"Polygon","coordinates":[[[114.21525,22.311888],[114.21891666666667,22.311888],[114.21891666666667,22.316112],[114.21525,22.316112],[114.21525,22.311888]]]}},{"type":"Feature","properties":{"id":"bld-kowloon-kwun-tong-013","heightM":146.8,"floors":34,"simulated":true},"geometry":{"type":"Polygon","coordinates":[[[114.21941666666667,22.311888],[114.22308333333334,22.311888],[114.22308333333334,22.316112],[114.21941666666667,22.316112],[114.21941666666667,22.311888]]]}},{"type":"Feature","properties":{"id":"bld-kowloon-kwun-tong-014","heightM":20.0,"floors":4,"simulated":true},"geometry":{"type":"Polygon","coordinates":[[[114.22358333333334,22.311888],[114.22725,22.311888],[114.22725,22.316112],[114.22358333333334,22.316112],[114.22358333333334,22.311888]]]}},{"type":"Feature","properties":{"id":"bld-kowloon-kwun-tong-015","heightM":75.1,"floors":20,"simulated":true},"geometry":{"type":"Polygon","coordinates":[[[114.23191666666666,22.311888],[114.23558333333332,22.311888],[114.23558333333332,22.316112],[114.23191666666666,22.316112],[114.23191666666666,22.311888]]]}},{"type":"Feature","properties":{"id":"bld-kowloon-kwun-tong-016","heightM":13.0,"floors":6,"simulated":true},"geometry":{"type":"Polygon","coordinates":[[[114.23608333333333,22.311888],[114.23975,22.311888],[114.23975,22.316112],[114.23608333333333,22.316112],[114.23608333333333,22.311888]]]}},{"type":"Feature","properties":{"id":"bld-kowloon-kwun-tong-017","heightM":97.4,"floors":44,"simulated":true},"geometry":{"type":"Polygon","coordinates":[[[114.21525,22.321488],[114.21891666666667,22.321488],[114.21891666666667,22.325712],[114.21525,22.325712],[114.21525,22.321488]]]}},{"type":"Feature","properties":{"id":"bld-kowloon-kwun-tong-018","heightM":124.4,"floors":42,"simulated":true},"geometry":{"type":"Polygon","coordinates":[[[114.21941666666667,22.321488],[114.22308333333334,22.321488],[114.22308333333334,22.325712],[114.21941666666667,22.325712],[114.21941666666667,22.321488]]]}},{"type":"Feature","properties":{"id":"bld-kowloon-kwun-tong-019","heightM":21.7,"floors":4,"simulated":true},"geometry":{"type":"Polygon","coordinates":[[[114.22358333333334,22.321488],[114.22725,22.321488],[114.22725,22.325712],[114.22358333333334,22.325712],[114.22358333333334,22.321488]]]}},{"type":"Feature","properties":{"id":"bld-kowloon-kwun-tong-020","heightM":124.6,"floors":30,"simulated":true},"geometry":{"type":"Polygon","coordinates":[[[114.22775,22.321488],[114.23141666666666,22.321488],[114.23141666666666,22.325712],[114.22775,22.325712],[114.22775,22.321488]]]}},{"type":"Feature","properties":{"id":"bld-kowloon-kwun-tong-021","heightM":55.8,"floors":18,"simulated":true},"geometry":{"type":"Polygon","coordinates":[[[114.23608333333333,22.321488],[114.23975,22.321488],[114.23975,22.325712],[114.23608333333333,22.325712],[114.23608333333333,22.321488]]]}}]}