{"type":"FeatureCollection","features":[{"type":"Feature","properties":{"id":"bld-kowloon-sham-shui-po-001","heightM":117.4,"floors":43,"simulated":true},"geometry":{"type":"Polygon","coordinates":[[[114.1482,22.328167999999998],[114.15113333333333,22.328167999999998],[114.15113333333333,22.330631999999998],[114.1482,22.330631999999998],[114.1482,22.328167999999998]]]}},{"type":"Feature","properties":{"id":"bld-kowloon-sham-shui-po-002","heightM":65.5,"floors":19,"simulated":true},"geometry":{"type":"Polygon","coordinates":[[[114.15153333333333,22.328167999999998],[114.15446666666666,22.328167999999998],[114.15446666666666,22.330631999999998],[114.15153333333333,22.330631999999998],[114.15153333333333,22.328167999999998]]]}},{"type":"Feature","properties":{"id":"bld-kowloon-sham-shui-po-003","heightM":115.5,"floors":41,"simulated":true},"geometry":{"type":"Polygon","coordinates":[[[114.15486666666666,22.328167999999998],[114.1578,22.328167999999998],[114.1578,22.330631999999998],[114.15486666666666,22.330631999999998],[114.15486666666666,22.328167999999998]]]}},{"type":"Feature","properties":{"id":"bld-kowloon-sham-shui-po-004","heightM":58.2,"floors":21,"simulated":true},"geometry":{"type":"Polygon","coordinates":[[[114.15820000000001,22.328167999999998],[114.16113333333334,22.328167999999998],[114.16113333333334,22.330631999999998],[114.15820000000001,22.330631999999998],[114.15820000000001,22.328167999999998]]]}},{"type":"Feature","properties":{"id":"bld-kowloon-sham-shui-po-005","heightM":17.0,"floors":6,"simulated":true},"geometry":{"type":"Polygon","coordinates":[[[114.16153333333334,22.328167999999998],[114.16446666666667,22.328167999999998],[114.16446666666667,22.330631999999998],[114.16153333333334,22.330631999999998],[114.16153333333334,22.328167999999998]]]}},{"type":"Feature","properties":{"id":"bld-kowloon-sham-shui-po-006","heightM":146.3,"floors":36,"simulated":true},"geometry":{"type":"Polygon","coordinates":[[[114.16486666666667,22.328167999999998],[114.1678,22.328167999999998],[114.1678,22.330631999999998],[114.16486666666667,22.330631999999998],[114.16486666666667,22.328167999999998]]]}},{"type":"Feature","properties":{"id":"bld-kowloon-sham-shui-po-007","heightM":18.2,"floors":4,"simulated":true},"geometry":{"type":"Polygon","coordinates":[[[114.15153333333333,22.330968],[114.15446666666666,22.330968],[114.15446666666666,22.333432],[114.15153333333333,22.333432],[114.15153333333333,22.330968]]]}},{"type":"Feature","properties":{"id":"bld-kowloon-sham-shui-po-008","heightM":98.5,"floors":35,"simulated":true},"geometry":{"type":"Polygon","coordinates":[[[114.15486666666666,22.330968],[114.1578,22.330968],[114.1578,22.333432],[114.15486666666666,22.333432],[114.15486666666666,22.330968]]]}},{"type":"Feature","properties":{"id":"bld-kowloon-sham-shui-po-009","heightM":111.0,"floors":33,"simulated":true},"geometry":{"type":"Polygon","coordinates":[[[114.16153333333334,22.330968],[114.16446666666667,22.330968],[114.16446666666667,22.333432],[114.16153333333334,22.333432],[114.16153333333334,22.330968]]]}},{"type":"Feature","properties":{"id":"bld-kowloon-sham-shui-po-010","heightM":56.8,"floors":23,"simulated":true},"geometry":{"type":"Polygon","coordinates":[[[114.16486666666667,22.330968],[114.1678,22.330968],[114.1678,22.333432],[114.16486666666667,22.333432],[114.16486666666667,22.330968]]]}},{"type":"Feature","properties":{"id":"bld-kowloon-sham-shui-po-011","heightM":56.7,"floors":21,"simulated":true},"geometry":{"type":"Polygon","coordinates":[[[114.1482,22.333768],[114.15113333333333,22.333768],[114.15113333333333,22.336232],[114.1482,22.336232],[114.1482,22.333768]]]}},{"type":"Feature","properties":{"id":"bld-kowloon-sham-shui-po-012","heightM":18.9,"floors":4,"simulated":true},"geometry":{"type":"Polygon","coordinates":[[[114.15486666666666,22.333768],[114.1578,22.333768],[114.1578,22.336232],[114.15486666666666,22.336232],[114.15486666666666,22.333768]]]}},{"type":"Feature","properties":{"id":"bld-kowloon-sham-shui-po-013","heightM":14.6,"floors":5,"simulated":true},"geometry":{"type":"Polygon","coordinates":[[[114.16153333333334,22.333768],[114.16446666666667,22.333768],[114.16446666666667,22.336232],[114.16153333333334,22.336232],[114.16153333333334,22.333768]]]}},{"type":"Feature","properties":{"id":"bld-kowloon-sham-shui-po-014","heightM":72.3,"floors":15,"simulated":true},"geometry":{"type":"Polygon","coordinates":[[[114.16486666666667,22.333768],[114.1678,22.333768],[114.1678,22.336232],[114.16486666666667,22.336232],[114.16486666666667,22.333768]]]}},{"type":"Feature","properties":{"id":"bld-kowloon-sham-shui-po-015","heightM":116.2,"floors":30,"simulated":true},"geometry":{"type":"Polygon","coordinates":[[[114.1482,22.339368],[114.15113333333333,22.339368],[114.15113333333333,22.341832],[114.1482,22.341832],[114.1482,22.339368]]]}},{"type":"Feature","properties":{"id":"bld-kowloon-sham-shui-po-016","heightM":48.3,"floors":18,"simulated":true},"geometry":{"type":"Polygon","coordinates":[[[114.15153333333333,22.339368],[114.15446666666666,22.339368],[114.15446666666666,22.341832],[114.15153333333333,22.341832],[114.15153333333333,22.339368]]]}},{"type":"Feature","properties":{"id":"bld-kowloon-sham-shui-po-017","heightM":18.6,"floors":6,"simulated":true},"geometry":{"type":"Polygon","coordinates":[[[114.15486666666666,22.339368],[114.1578,22.339368],[114.1578,22.341832],[114.15486666666666,22.341832],[114.15486666666666,22.339368]]]}},{"type":"Feature","properties":{"id":"bld-kowloon-sham-shui-po-018","heightM":119.0,"floors":33,"simulated":true},"geometry":{"type":"Polygon","coordinates":[[[114.15820000000001,22.339368],[114.16113333333334,22.339368],[114.16113333333334,22.341832],[114.15820000000001,22.341832],[114.15820000000001,22.339368]]]}},{"type":"Feature","properties":{"id":"bld-kowloon-sham-shui-po-019","heightM":71.9,"floors":22,"simulated":true},"geometry":{"type":"Polygon","coordinates":[[[114.16153333333334,22.339368],[114.16446666666667,22.339368],[114.16446666666667,22.341832],[114.16153333333334,22.341832],[114.16153333333334,22.339368]]]}},{"type":"Feature","properties":{"id":"bld-kowloon-sham-shui-po-020","heightM":48.8,"floors":16,"simulated":true},"geometry":{"type":"Polygon","coordinates":[[[114.16486666666667,22.339368],[114.1678,22.339368],[114.1678,22.341832],[114.16486666666667,22.341832],[114.16486666666667,22.339368]]]}}]}