{"type":"FeatureCollection","features":[{"type":"Feature","properties":{"id":"bld-kowloon-wong-tai-sin-001","heightM":86.8,"floors":21,"simulated":true},"geometry":{"type":"Polygon","coordinates":[[[114.18329000000001,22.336216],[114.18754333333334,22.336216],[114.18754333333334,22.339384],[114.18329000000001,22.339384],[114.18329000000001,22.336216]]]}},{"type":"Feature","properties":{"id":"bld-kowloon-wong-tai-sin-002","heightM":41.7,"floors":11,"simulated":true},"geometry":{"type":"Polygon","coordinates":[[[114.19295666666667,22.336216],[114.19721,22.336216],[114.19721,22.339384],[114.19295666666667,22.339384],[114.19295666666667,22.336216]]]}},{"type":"Feature","properties":{"id":"bld-kowloon-wong-tai-sin-003","heightM":92.4,"floors":21,"simulated":true},"geometry":{"type":"Polygon","coordinates":[[[114.19779000000001,22.336216],[114.20204333333334,22.336216],[114.20204333333334,22.339384],[114.19779000000001,22.339384],[114.19779000000001,22.336216]]]}},{"type":"Feature","properties":{"id":"bld-kowloon-wong-tai-sin-004","heightM":20.5,"floors":5,"simulated":true},"geometry":{"type":"Polygon","coordinates":[[[114.20262333333334,22.336216],[114.20687666666667,22.336216],[114.20687666666667,22.339384],[114.20262333333334,22.339384],[114.20262333333334,22.336216]]]}},{"type":"Feature","properties":{"id":"bld-kowloon-wong-tai-sin-005","heightM":12.7,"floors":3,"simulated":true},"geometry":{"type":"Polygon","coordinates":[[[114.20745666666667,22.336216],[114.21171,22.336216],[114.21171,22.339384],[114.20745666666667,22.339384],[114.20745666666667,22.336216]]]}},{"type":"Feature","properties":{"id":"bld-kowloon-wong-tai-sin-006","heightM":12.6,"floors":4,"simulated":true},"geometry":{"type":"Polygon","coordinates":[[[114.18812333333334,22.339816],[114.19237666666668,22.339816],[114.19237666666668,22.342983999999998],[114.18812333333334,22.342983999999998],[114.18812333333334,22.339816]]]}},{"type":"Feature","properties":{"id":"bld-kowloon-wong-tai-sin-007","heightM":98.8,"floors":22,"simulated":true},"geometry":{"type":"Polygon","coordinates":[[[114.19295666666667,22.339816],[114.19721,22.339816],[114.19721,22.342983999999998],[114.19295666666667,22.342983999999998],[114.19295666666667,22.339816]]]}},{"type":"Feature","properties":{"id":"bld-kowloon-wong-tai-sin-008","heightM":73.7,"floors":29,"simulated":true},"geometry":{"type":"Polygon","coordinates":[[[114.19779000000001,22.339816],[114.20204333333334,22.339816],[114.20204333333334,22.342983999999998],[114.19779000000001,22.342983999999998],[114.19779000000001,22.339816]]]}},{"type":"Feature","properties":{"id":"bld-kowloon-wong-tai-sin-009","heightM":10.8,"floors":6,"simulated":true},"geometry":{"type":"Polygon","coordinates":[[[114.20262333333334,22.339816],[114.20687666666667,22.339816],[114.20687666666667,22.342983999999998],[114.20262333333334,22.342983999999998],[114.20262333333334,22.339816]]]}},{"type":"Feature","properties":{"id":"bld-kowloon-wong-tai-sin-010","heightM":109.0,"floors":21,"simulated":true},"geometry":{"type":"Polygon","coordinates":[[[114.20745666666667,22.339816],[114.21171,22.339816],[114.21171,22.342983999999998],[114.20745666666667,22.342983999999998],[114.20745666666667,22.339816]]]}},{"type":"Feature","properties":{"id":"bld-kowloon-wong-tai-sin-011","heightM":73.0,"floors":27,"simulated":true},"geometry":{"type":"Polygon","coordinates":[[[114.18329000000001,22.343415999999998],[114.18754333333334,22.343415999999998],[114.18754333333334,22.346584],[114.18329000000001,22.346584],[114.18329000000001,22.343415999999998]]]}},{"type":"Feature","properties":{"id":"bld-kowloon-wong-tai-sin-012","heightM":111.1,"floors":29,"simulated":true},"geometry":{"type":"Polygon","coordinates":[[[114.18812333333334,22.343415999999998],[114.19237666666668,22.343415999999998],[114.19237666666668,22.346584],[114.18812333333334,22.346584],[114.18812333333334,22.343415999999998]]]}},{"type":"Feature","properties":{"id":"bld-kowloon-wong-tai-sin-013","heightM":39.0,"floors":11,"simulated":true},"geometry":{"type":"Polygon","coordinates":[[[114.19295666666667,22.343415999999998],[114.19721,22.343415999999998],[114.19721,22.346584],[114.19295666666667,22.346584],[114.19295666666667,22.343415999999998]]]}},{"type":"Feature","properties":{"id":"bld-kowloon-wong-tai-sin-014","heightM":89.9,"floors":29,"simulated":true},"geometry":{"type":"Polygon","coordinates":[[[114.19779000000001,22.343415999999998],[114.20204333333334,22.343415999999998],[114.20204333333334,22.346584],[114.19779000000001,22.346584],[114.19779000000001,22.343415999999998]]]}},{"type":"Feature","properties":{"id":"bld-kowloon-wong-tai-sin-015","heightM":57.9,"floors":12,"simulated":true},"geometry":{"type":"Polygon","coordinates":[[[114.20262333333334,22.343415999999998],[114.20687666666667,22.343415999999998],[114.20687666666667,22.346584],[114.20262333333334,22.346584],[114.20262333333334,22.343415999999998]]]}},{"type":"Feature","properties":{"id":"bld-kowloon-wong-tai-sin-016","heightM":58.6,"floors":14,"simulated":true},"geometry":{"type":"Polygon","coordinates":[[[114.20745666666667,22.343415999999998],[114.21171,22.343415999999998],[114.21171,22.346584],[114.20745666666667,22.346584],[114.20745666666667,22.343415999999998]]]}},{"type":"Feature","properties":{"id":"bld-kowloon-wong-tai-sin-017","heightM":19.2,"floors":5,"simulated":true},"geometry":{"type":"Polygon","coordinates":[[[114.18329000000001,22.350616],[114.18754333333334,22.350616],[114.18754333333334,22.353783999999997],[114.18329000000001,22.353783999999997],[114.18329000000001,22.350616]]]}},{"type":"Feature","properties":{"id":"bld-kowloon-wong-tai-sin-018","heightM":39.7,"floors":18,"simulated":true},"geometry":{"type":"Polygon","coordinates":[[[114.19295666666667,22.350616],[114.19721,22.350616],[114.19721,22.353783999999997],[114.19295666666667,22.353783999999997],[114.19295666666667,22.350616]]]}},{"type":"Feature","properties":{"id":"bld-kowloon-wong-tai-sin-019","heightM":18.2,"floors":3,"simulated":true},"geometry":{"type":"Polygon","coordinates":[[[114.19779000000001,22.350616],[114.20204333333334,22.350616],[114.20204333333334,22.353783999999997],[114.19779000000001,22.353783999999997],[114.19779000000001,22.350616]]]}},{"type":"Feature","properties":{"id":"bld-kowloon-wong-tai-sin-020","heightM":15.3,"floors":6,"simulated":true},"geometry":{"type":"Polygon","coordinates":[[[114.20262333333334,22.350616],[114.20687666666667,22.350616],[114.20687666666667,22.353783999999997],[114.20262333333334,22.353783999999997],[114.20262333333334,22.350616]]]}},{"type":"Feature","properties":{"id":"bld-kowloon-wong-tai-sin-021","heightM":51.6,"floors":12,"simulated":true},"geometry":{"type":"Polygon","coordinates":[[[114.20745666666667,22.350616],[114.21171,22.350616],[114.21171,22.353783999999997],[114.20745666666667,22.353783999999997],[114.20745666666667,22.350616]]]}}]}