{"type":"FeatureCollection","features":[{"type":"Feature","properties":{"id":"bld-nt-sai-kung-001","heightM":70.2,"floors":17,"simulated":true},"geometry":{"type":"Polygon","coordinates":[[[114.25048,22.306092],[114.25752,22.306092],[114.25752,22.322108],[114.25048,22.322108],[114.25048,22.306092]]]}},{"type":"Feature","properties":{"id":"bld-nt-sai-kung-002","heightM":73.5,"floors":23,"simulated":true},"geometry":{"type":"Polygon","coordinates":[[[114.25848,22.306092],[114.26552,22.306092],[114.26552,22.322108],[114.25848,22.322108],[114.25848,22.306092]]]}},{"type":"Feature","properties":{"id":"bld-nt-sai-kung-003","heightM":34.5,"floors":6,"simulated":true},"geometry":{"type":"Polygon","coordinates":[[[114.26648,22.306092],[114.27352,22.306092],[114.27352,22.322108],[114.26648,22.322108],[114.26648,22.306092]]]}},{"type":"Feature","properties":{"id":"bld-nt-sai-kung-004","heightM":79.3,"floors":18,"simulated":true},"geometry":{"type":"Polygon","coordinates":[[[114.27448,22.306092],[114.28152,22.306092],[114.28152,22.322108],[114.27448,22.322108],[114.27448,22.306092]]]}},{"type":"Feature","properties":{"id":"bld-nt-sai-kung-005","heightM":58.2,"floors":17,"simulated":true},"geometry":{"type":"Polygon","coordinates":[[[114.28248,22.306092],[114.28952,22.306092],[114.28952,22.322108],[114.28248,22.322108],[114.28248,22.306092]]]}},{"type":"Feature","properties":{"id":"bld-nt-sai-kung-006","heightM":17.2,"floors":10,"simulated":true},"geometry":{"type":"Polygon","coordinates":[[[114.29048,22.306092],[114.29752,22.306092],[114.29752,22.322108],[114.29048,22.322108],[114.29048,22.306092]]]}},{"type":"Feature","properties":{"id":"bld-nt-sai-kung-007","heightM":84.5,"floors":25,"simulated":true},"geometry":{"type":"Polygon","coordinates":[[[114.25048,22.324292],[114.25752,22.324292],[114.25752,22.340308],[114.25048,22.340308],[114.25048,22.324292]]]}},{"type":"Feature","properties":{"id":"bld-nt-sai-kung-008","heightM":66.0,"floors":26,"simulated":true},"geometry":{"type":"Polygon","coordinates":[[[114.26648,22.324292],[114.27352,22.324292],[114.27352,22.340308],[114.26648,22.340308],[114.26648,22.324292]]]}},{"type":"Feature","properties":{"id":"bld-nt-sai-kung-009","heightM":59.9,"floors":18,"simulated":true},"geometry":{"type":"Polygon","coordinates":[[[114.27448,22.324292],[114.28152,22.324292],[114.28152,22.340308],[114.27448,22.340308],[114.27448,22.324292]]]}},{"type":"Feature","properties":{"id":"bld-nt-sai-kung-010","heightM":18.6,"floors":8,"simulated":true},"geometry":{"type":"Polygon","coordinates":[[[114.28248,22.324292],[114.28952,22.324292],[114.28952,22.340308],[114.28248,22.340308],[114.28248,22.324292]]]}},{"type":"Feature","properties":{"id":"bld-nt-sai-kung-011","heightM":63.8,"floors":21,"simulated":true},"geometry":{"type":"Polygon","coordinates":[[[114.29048,22.324292],[114.29752,22.324292],[114.29752,22.340308],[114.29048,22.340308],[114.29048,22.324292]]]}},{"type":"Feature","properties":{"id":"bld-nt-sai-kung-012","heightM":28.1,"floors":9,"simulated":true},"geometry":{"type":"Polygon","coordinates":[[[114.25048,22.342492],[114.25752,22.342492],[114.25752,22.358508],[114.25048,22.358508],[114.25048,22.342492]]]}},{"type":"Feature","properties":{"id":"bld-nt-sai-kung-013","heightM":87.7,"floors":24,"simulated":true},"geometry":{"type":"Polygon","coordinates":[[[114.25848,22.342492],[114.26552,22.342492],[114.26552,22.358508],[114.25848,22.358508],[114.25848,22.342492]]]}},{"type":"Feature","properties":{"id":"bld-nt-sai-kung-014","heightM":17.5,"floors":8,"simulated":true},"geometry":{"type":"Polygon","coordinates":[[[114.26648,22.342492],[114.27352,22.342492],[114.27352,22.358508],[114.26648,22.358508],[114.26648,22.342492]]]}},{"type":"Feature","properties":{"id":"bld-nt-sai-kung-015","heightM":22.4,"floors":8,"simulated":true},"geometry":{"type":"Polygon","coordinates":[[[114.27448,22.342492],[114.28152,22.342492],[114.28152,22.358508],[114.27448,22.358508],[114.27448,22.342492]]]}},{"type":"Feature","properties":{"id":"bld-nt-sai-kung-016","heightM":128.4,"floors":34,"simulated":true},"geometry":{"type":"Polygon","coordinates":[[[114.28248,22.342492],[114.28952,22.342492],[114.28952,22.358508],[114.28248,22.358508],[114.28248,22.342492]]]}},{"type":"Feature","properties":{"id":"bld-nt-sai-kung-017","heightM":73.9,"floors":18,"simulated":true},"geometry":{"type":"Polygon","coordinates":[[[114.29048,22.342492],[114.29752,22.342492],[114.29752,22.358508],[114.29048,22.358508],[114.29048,22.342492]]]}},{"type":"Feature","properties":{"id":"bld-nt-sai-kung-018","heightM":26.1,"floors":9,"simulated":true},"geometry":{"type":"Polygon","coordinates":[[[114.25048,22.378892],[114.25752,22.378892],[114.25752,22.394908],[114.25048,22.394908],[114.25048,22.378892]]]}},{"type":"Feature","properties":{"id":"bld-nt-sai-kung-019","heightM":83.5,"floors":26,"simulated":true},"geometry":{"type":"Polygon","coordinates":[[[114.25848,22.378892],[114.26552,22.378892],[114.26552,22.394908],[114.25848,22.394908],[114.25848,22.378892]]]}},{"type":"Feature","properties":{"id":"bld-nt-sai-kung-020","heightM":111.5,"floors":34,"simulated":true},"geometry":{"type":"Polygon","coordinates":[[[114.26648,22.378892],[114.27352,22.378892],[114.27352,22.394908],[114.26648,22.394908],[114.26648,22.378892]]]}},{"type":"Feature","properties":{"id":"bld-nt-sai-kung-021","heightM":55.5,"floors":22,"simulated":true},"geometry":{"type":"Polygon","coordinates":[[[114.28248,22.378892],[114.28952,22.378892],[114.28952,22.394908],[114.28248,22.394908],[114.28248,22.378892]]]}}]}