{"type":"FeatureCollection","features":[{"type":"Feature","properties":{"id":"bld-kowloon-kowloon-city-001","heightM":95.9,"floors":39,"simulated":true},"geometry":{"type":"Polygon","coordinates":[[[114.18022,22.318216],[114.18344666666667,22.318216],[114.18344666666667,22.321384000000002],[114.18022,22.321384000000002],[114.18022,22.318216]]]}},{"type":"Feature","properties":{"id":"bld-kowloon-kowloon-city-002","heightM":53.0,"floors":20,"simulated":true},"geometry":{"type":"Polygon","coordinates":[[[114.18388666666667,22.318216],[114.18711333333334,22.318216],[114.18711333333334,22.321384000000002],[114.18388666666667,22.321384000000002],[114.18388666666667,22.318216]]]}},{"type":"Feature","properties":{"id":"bld-kowloon-kowloon-city-003","heightM":97.6,"floors":34,"simulated":true},"geometry":{"type":"Polygon","coordinates":[[[114.19122,22.318216],[114.19444666666666,22.318216],[114.19444666666666,22.321384000000002],[114.19122,22.321384000000002],[114.19122,22.318216]]]}},{"type":"Feature","properties":{"id":"bld-kowloon-kowloon-city-004","heightM":48.2,"floors":21,"simulated":true},"geometry":{"type":"Polygon","coordinates":[[[114.19488666666666,22.318216],[114.19811333333334,22.318216],[114.19811333333334,22.321384000000002],[114.19488666666666,22.321384000000002],[114.19488666666666,22.318216]]]}},{"type":"Feature","properties":{"id":"bld-kowloon-kowloon-city-005","heightM":127.2,"floors":33,"simulated":true},"geometry":{"type":"Polygon","coordinates":[[[114.19855333333334,22.318216],[114.20178,22.318216],[114.20178,22.321384000000002],[114.19855333333334,22.321384000000002],[114.19855333333334,22.318216]]]}},{"type":"Feature","properties":{"id":"bld-kowloon-kowloon-city-006","heightM":45.8,"floors":16,"simulated":true},"geometry":{"type":"Polygon","coordinates":[[[114.18022,22.321816000000002],[114.18344666666667,22.321816000000002],[114.18344666666667,22.324984],[114.18022,22.324984],[114.18022,22.321816000000002]]]}},{"type":"Feature","properties":{"id":"bld-kowloon-kowloon-city-007","heightM":47.3,"floors":19,"simulated":true},"geometry":{"type":"Polygon","coordinates":[[[114.18388666666667,22.321816000000002],[114.18711333333334,22.321816000000002],[114.18711333333334,22.324984],[114.18388666666667,22.324984],[114.18388666666667,22.321816000000002]]]}},{"type":"Feature","properties":{"id":"bld-kowloon-kowloon-city-008","heightM":114.3,"floors":44,"simulated":true},"geometry":{"type":"Polygon","coordinates":[[[114.18755333333334,22.321816000000002],[114.19078,22.321816000000002],[114.19078,22.324984],[114.18755333333334,22.324984],[114.18755333333334,22.321816000000002]]]}},{"type":"Feature","properties":{"id":"bld-kowloon-kowloon-city-009","heightM":77.4,"floors":19,"simulated":true},"geometry":{"type":"Polygon","coordinates":[[[114.19122,22.321816000000002],[114.19444666666666,22.321816000000002],[114.19444666666666,22.324984],[114.19122,22.324984],[114.19122,22.321816000000002]]]}},{"type":"Feature","properties":{"id":"bld-kowloon-kowloon-city-010","heightM":107.2,"floors":43,"simulated":true},"geometry":{"type":"Polygon","coordinates":[[[114.19488666666666,22.321816000000002],[114.19811333333334,22.321816000000002],[114.19811333333334,22.324984],[114.19488666666666,22.324984],[114.19488666666666,22.321816000000002]]]}},{"type":"Feature","properties":{"id":"bld-kowloon-kowloon-city-011","heightM":130.3,"floors":29,"simulated":true},"geometry":{"type":"Polygon","coordinates":[[[114.19855333333334,22.321816000000002],[114.20178,22.321816000000002],[114.20178,22.324984],[114.19855333333334,22.324984],[114.19855333333334,22.321816000000002]]]}},{"type":"Feature","properties":{"id":"bld-kowloon-kowloon-city-012","heightM":76.3,"floors":23,"simulated":true},"geometry":{"type":"Polygon","coordinates":[[[114.18022,22.325416],[114.18344666666667,22.325416],[114.18344666666667,22.328584],[114.18022,22.328584],[114.18022,22.325416]]]}},{"type":"Feature","properties":{"id":"bld-kowloon-kowloon-city-013","heightM":70.0,"floors":23,"simulated":true},"geometry":{"type":"Polygon","coordinates":[[[114.18388666666667,22.325416],[114.18711333333334,22.325416],[114.18711333333334,22.328584],[114.18388666666667,22.328584],[114.18388666666667,22.325416]]]}},{"type":"Feature","properties":{"id":"bld-kowloon-kowloon-city-014","heightM":47.9,"floors":23,"simulated":true},"geometry":{"type":"Polygon","coordinates":[[[114.19855333333334,22.325416],[114.20178,22.325416],[114.20178,22.328584],[114.19855333333334,22.328584],[114.19855333333334,22.325416]]]}},{"type":"Feature","properties":{"id":"bld-kowloon-kowloon-city-015","heightM":55.0,"floors":21,"simulated":true},"geometry":{"type":"Polygon","coordinates":[[[114.18022,22.332615999999998],[114.18344666666667,22.332615999999998],[114.18344666666667,22.335784],[114.18022,22.335784],[114.18022,22.332615999999998]]]}},{"type":"Feature","properties":{"id":"bld-kowloon-kowloon-city-016","heightM":154.8,"floors":35,"simulated":true},"geometry":{"type":"Polygon","coordinates":[[[114.18388666666667,22.332615999999998],[114.18711333333334,22.332615999999998],[114.18711333333334,22.335784],[114.18388666666667,22.335784],[114.18388666666667,22.332615999999998]]]}},{"type":"Feature","properties":{"id":"bld-kowloon-kowloon-city-017","heightM":46.5,"floors":18,"simulated":true},"geometry":{"type":"Polygon","coordinates":[[[114.18755333333334,22.332615999999998],[114.19078,22.332615999999998],[114.19078,22.335784],[114.18755333333334,22.335784],[114.18755333333334,22.332615999999998]]]}},{"type":"Feature","properties":{"id":"bld-kowloon-kowloon-city-018","heightM":53.1,"floors":14,"simulated":true},"geometry":{"type":"Polygon","coordinates":[[[114.19122,22.332615999999998],[114.19444666666666,22.332615999999998],[114.19444666666666,22.335784],[114.19122,22.335784],[114.19122,22.332615999999998]]]}},{"type":"Feature","properties":{"id":"bld-kowloon-kowloon-city-019","heightM":16.7,"floors":6,"simulated":true},"geometry":{"type":"Polygon","coordinates":[[[114.19855333333334,22.332615999999998],[114.20178,22.332615999999998],[114.20178,22.335784],[114.19855333333334,22.335784],[114.19855333333334,22.332615999999998]]]}}]}