{"type":"FeatureCollection","features":[{"type":"Feature","properties":{"id":"bld-kowloon-kwai-tsing-001","heightM":63.5,"floors":14,"simulated":true},"geometry":{"type":"Polygon","coordinates":[[[114.09837,22.352240000000002],[114.10379666666667,22.352240000000002],[114.10379666666667,22.35576],[114.09837,22.35576],[114.09837,22.352240000000002]]]}},{"type":"Feature","properties":{"id":"bld-kowloon-kwai-tsing-002","heightM":20.2,"floors":4,"simulated":true},"geometry":{"type":"Polygon","coordinates":[[[114.11070333333333,22.352240000000002],[114.11613,22.352240000000002],[114.11613,22.35576],[114.11070333333333,22.35576],[114.11070333333333,22.352240000000002]]]}},{"type":"Feature","properties":{"id":"bld-kowloon-kwai-tsing-003","heightM":58.1,"floors":12,"simulated":true},"geometry":{"type":"Polygon","coordinates":[[[114.11687,22.352240000000002],[114.12229666666667,22.352240000000002],[114.12229666666667,22.35576],[114.11687,22.35576],[114.11687,22.352240000000002]]]}},{"type":"Feature","properties":{"id":"bld-kowloon-kwai-tsing-004","heightM":59.1,"floors":11,"simulated":true},"geometry":{"type":"Polygon","coordinates":[[[114.12303666666666,22.352240000000002],[114.12846333333334,22.352240000000002],[114.12846333333334,22.35576],[114.12303666666666,22.35576],[114.12303666666666,22.352240000000002]]]}},{"type":"Feature","properties":{"id":"bld-kowloon-kwai-tsing-005","heightM":21.3,"floors":6,"simulated":true},"geometry":{"type":"Polygon","coordinates":[[[114.09837,22.35624],[114.10379666666667,22.35624],[114.10379666666667,22.35976],[114.09837,22.35976],[114.09837,22.35624]]]}},{"type":"Feature","properties":{"id":"bld-kowloon-kwai-tsing-006","heightM":11.7,"floors":3,"simulated":true},"geometry":{"type":"Polygon","coordinates":[[[114.10453666666666,22.35624],[114.10996333333334,22.35624],[114.10996333333334,22.35976],[114.10453666666666,22.35976],[114.10453666666666,22.35624]]]}},{"type":"Feature","properties":{"id":"bld-kowloon-kwai-tsing-007","heightM":17.6,"floors":6,"simulated":true},"geometry":{"type":"Polygon","coordinates":[[[114.11070333333333,22.35624],[114.11613,22.35624],[114.11613,22.35976],[114.11070333333333,22.35976],[114.11070333333333,22.35624]]]}},{"type":"Feature","properties":{"id":"bld-kowloon-kwai-tsing-008","heightM":63.1,"floors":19,"simulated":true},"geometry":{"type":"Polygon","coordinates":[[[114.11687,22.35624],[114.12229666666667,22.35624],[114.12229666666667,22.35976],[114.11687,22.35976],[114.11687,22.35624]]]}},{"type":"Feature","properties":{"id":"bld-kowloon-kwai-tsing-009","heightM":58.9,"floors":12,"simulated":true},"geometry":{"type":"Polygon","coordinates":[[[114.12303666666666,22.35624],[114.12846333333334,22.35624],[114.12846333333334,22.35976],[114.12303666666666,22.35976],[114.12303666666666,22.35624]]]}},{"type":"Feature","properties":{"id":"bld-kowloon-kwai-tsing-010","heightM":61.4,"floors":12,"simulated":true},"geometry":{"type":"Polygon","coordinates":[[[114.12920333333334,22.35624],[114.13463,22.35624],[114.13463,22.35976],[114.12920333333334,22.35976],[114.12920333333334,22.35624]]]}},{"type":"Feature","properties":{"id":"bld-kowloon-kwai-tsing-011","heightM":17.4,"floors":3,"simulated":true},"geometry":{"type":"Polygon","coordinates":[[[114.09837,22.36024],[114.10379666666667,22.36024],[114.10379666666667,22.36376],[114.09837,22.36376],[114.09837,22.36024]]]}},{"type":"Feature","properties":{"id":"bld-kowloon-kwai-tsing-012","heightM":48.9,"floors":15,"simulated":true},"geometry":{"type":"Polygon","coordinates":[[[114.10453666666666,22.36024],[114.10996333333334,22.36024],[114.10996333333334,22.36376],[114.10453666666666,22.36376],[114.10453666666666,22.36024]]]}},{"type":"Feature","properties":{"id":"bld-kowloon-kwai-tsing-013","heightM":86.4,"floors":21,"simulated":true},"geometry":{"type":"Polygon","coordinates":[[[114.11070333333333,22.36024],[114.11613,22.36024],[114.11613,22.36376],[114.11070333333333,22.36376],[114.11070333333333,22.36024]]]}},{"type":"Feature","properties":{"id":"bld-kowloon-kwai-tsing-014","heightM":72.5,"floors":23,"simulated":true},"geometry":{"type":"Polygon","coordinates":[[[114.11687,22.36024],[114.12229666666667,22.36024],[114.12229666666667,22.36376],[114.11687,22.36376],[114.11687,22.36024]]]}},{"type":"Feature","properties":{"id":"bld-kowloon-kwai-tsing-015","heightM":78.8,"floors":25,"simulated":true},"geometry":{"type":"Polygon","coordinates":[[[114.12303666666666,22.36024],[114.12846333333334,22.36024],[114.12846333333334,22.36376],[114.12303666666666,22.36376],[114.12303666666666,22.36024]]]}},{"type":"Feature","properties":{"id":"bld-kowloon-kwai-tsing-016","heightM":19.8,"floors":6,"simulated":true},"geometry":{"type":"Polygon","coordinates":[[[114.12920333333334,22.36024],[114.13463,22.36024],[114.13463,22.36376],[114.12920333333334,22.36376],[114.12920333333334,22.36024]]]}},{"type":"Feature","properties":{"id":"bld-kowloon-kwai-tsing-017","heightM":39.1,"floors":16,"simulated":true},"geometry":{"type":"Polygon","coordinates":[[[114.09837,22.36824],[114.10379666666667,22.36824],[114.10379666666667,22.37176],[114.09837,22.37176],[114.09837,22.36824]]]}},{"type":"Feature","properties":{"id":"bld-kowloon-kwai-tsing-018","heightM":73.5,"floors":29,"simulated":true},"geometry":{"type":"Polygon","coordinates":[[[114.11070333333333,22.36824],[114.11613,22.36824],[114.11613,22.37176],[114.11070333333333,22.37176],[114.11070333333333,22.36824]]]}},{"type":"Feature","properties":{"id":"bld-kowloon-kwai-tsing-019","heightM":55.0,"floors":17,"simulated":true},"geometry":{"type":"Polygon","coordinates":[[[114.11687,22.36824],[114.12229666666667,22.36824],[114.12229666666667,22.37176],[114.11687,22.37176],[114.11687,22.36824]]]}},{"type":"Feature","properties":{"id":"bld-kowloon-kwai-tsing-020","heightM":58.6,"floors":15,"simulated":true},"geometry":{"type":"Polygon","coordinates":[[[114.12920333333334,22.36824],[114.13463,22.36824],[114.13463,22.37176],[114.12920333333334,22.37176],[114.12920333333334,22.36824]]]}}]}