{"type":"FeatureCollection","features":[{"type":"Feature","properties":{"id":"bld-southern-001","heightM":48.6,"floors":16,"simulated":true},"geometry":{"type":"Polygon","coordinates":[[[114.15115,22.21066],[114.16801666666667,22.21066],[114.16801666666667,22.22034],[114.15115,22.22034],[114.15115,22.21066]]]}},{"type":"Feature","properties":{"id":"bld-southern-002","heightM":55.4,"floors":15,"simulated":true},"geometry":{"type":"Polygon","coordinates":[[[114.17031666666666,22.21066],[114.18718333333334,22.21066],[114.18718333333334,22.22034],[114.17031666666666,22.22034],[114.17031666666666,22.21066]]]}},{"type":"Feature","properties":{"id":"bld-southern-003","heightM":17.6,"floors":5,"simulated":true},"geometry":{"type":"Polygon","coordinates":[[[114.18948333333334,22.21066],[114.20635,22.21066],[114.20635,22.22034],[114.18948333333334,22.22034],[114.18948333333334,22.21066]]]}},{"type":"Feature","properties":{"id":"bld-southern-004","heightM":109.4,"floors":29,"simulated":true},"geometry":{"type":"Polygon","coordinates":[[[114.20865,22.21066],[114.22551666666666,22.21066],[114.22551666666666,22.22034],[114.20865,22.22034],[114.20865,22.21066]]]}},{"type":"Feature","properties":{"id":"bld-southern-005","heightM":39.8,"floors":18,"simulated":true},"geometry":{"type":"Polygon","coordinates":[[[114.22781666666667,22.21066],[114.24468333333334,22.21066],[114.24468333333334,22.22034],[114.22781666666667,22.22034],[114.22781666666667,22.21066]]]}},{"type":"Feature","properties":{"id":"bld-southern-006","heightM":47.0,"floors":18,"simulated":true},"geometry":{"type":"Polygon","coordinates":[[[114.24698333333333,22.21066],[114.26385,22.21066],[114.26385,22.22034],[114.24698333333333,22.22034],[114.24698333333333,22.21066]]]}},{"type":"Feature","properties":{"id":"bld-southern-007","heightM":57.2,"floors":16,"simulated":true},"geometry":{"type":"Polygon","coordinates":[[[114.15115,22.22166],[114.16801666666667,22.22166],[114.16801666666667,22.23134],[114.15115,22.23134],[114.15115,22.22166]]]}},{"type":"Feature","properties":{"id":"bld-southern-008","heightM":61.8,"floors":15,"simulated":true},"geometry":{"type":"Polygon","coordinates":[[[114.17031666666666,22.22166],[114.18718333333334,22.22166],[114.18718333333334,22.23134],[114.17031666666666,22.23134],[114.17031666666666,22.22166]]]}},{"type":"Feature","properties":{"id":"bld-southern-009","heightM":11.9,"floors":6,"simulated":true},"geometry":{"type":"Polygon","coordinates":[[[114.18948333333334,22.22166],[114.20635,22.22166],[114.20635,22.23134],[114.18948333333334,22.23134],[114.18948333333334,22.22166]]]}},{"type":"Feature","properties":{"id":"bld-southern-010","heightM":35.1,"floors":15,"simulated":true},"geometry":{"type":"Polygon","coordinates":[[[114.20865,22.22166],[114.22551666666666,22.22166],[114.22551666666666,22.23134],[114.20865,22.23134],[114.20865,22.22166]]]}},{"type":"Feature","properties":{"id":"bld-southern-011","heightM":21.8,"floors":3,"simulated":true},"geometry":{"type":"Polygon","coordinates":[[[114.24698333333333,22.22166],[114.26385,22.22166],[114.26385,22.23134],[114.24698333333333,22.23134],[114.24698333333333,22.22166]]]}},{"type":"Feature","properties":{"id":"bld-southern-012","heightM":17.3,"floors":6,"simulated":true},"geometry":{"type":"Polygon","coordinates":[[[114.15115,22.23266],[114.16801666666667,22.23266],[114.16801666666667,22.242340000000002],[114.15115,22.242340000000002],[114.15115,22.23266]]]}},{"type":"Feature","properties":{"id":"bld-southern-013","heightM":76.4,"floors":30,"simulated":true},"geometry":{"type":"Polygon","coordinates":[[[114.17031666666666,22.23266],[114.18718333333334,22.23266],[114.18718333333334,22.242340000000002],[114.17031666666666,22.242340000000002],[114.17031666666666,22.23266]]]}},{"type":"Feature","properties":{"id":"bld-southern-014","heightM":114.3,"floors":26,"simulated":true},"geometry":{"type":"Polygon","coordinates":[[[114.18948333333334,22.23266],[114.20635,22.23266],[114.20635,22.242340000000002],[114.18948333333334,22.242340000000002],[114.18948333333334,22.23266]]]}},{"type":"Feature","properties":{"id":"bld-southern-015","heightM":60.3,"floors":14,"simulated":true},"geometry":{"type":"Polygon","coordinates":[[[114.20865,22.23266],[114.22551666666666,22.23266],[114.22551666666666,22.242340000000002],[114.20865,22.242340000000002],[114.20865,22.23266]]]}},{"type":"Feature","properties":{"id":"bld-southern-016","heightM":88.9,"floors":32,"simulated":true},"geometry":{"type":"Polygon","coordinates":[[[114.22781666666667,22.23266],[114.24468333333334,22.23266],[114.24468333333334,22.242340000000002],[114.22781666666667,22.242340000000002],[114.22781666666667,22.23266]]]}},{"type":"Feature","properties":{"id":"bld-southern-017","heightM":36.1,"floors":17,"simulated":true},"geometry":{"type":"Polygon","coordinates":[[[114.24698333333333,22.23266],[114.26385,22.23266],[114.26385,22.242340000000002],[114.24698333333333,22.242340000000002],[114.24698333333333,22.23266]]]}},{"type":"Feature","properties":{"id":"bld-southern-018","heightM":16.8,"floors":5,"simulated":true},"geometry":{"type":"Polygon","coordinates":[[[114.15115,22.25466],[114.16801666666667,22.25466],[114.16801666666667,22.26434],[114.15115,22.26434],[114.15115,22.25466]]]}},{"type":"Feature","properties":{"id":"bld-southern-019","heightM":45.9,"floors":19,"simulated":true},"geometry":{"type":"Polygon","coordinates":[[[114.17031666666666,22.25466],[114.18718333333334,22.25466],[114.18718333333334,22.26434],[114.17031666666666,22.26434],[114.17031666666666,22.25466]]]}},{"type":"Feature","properties":{"id":"bld-southern-020","heightM":54.6,"floors":11,"simulated":true},"geometry":{"type":"Polygon","coordinates":[[[114.18948333333334,22.25466],[114.20635,22.25466],[114.20635,22.26434],[114.18948333333334,22.26434],[114.18948333333334,22.25466]]]}},{"type":"Feature","properties":{"id":"bld-southern-021","heightM":94.0,"floors":26,"simulated":true},"geometry":{"type":"Polygon","coordinates":[[[114.20865,22.25466],[114.22551666666666,22.25466],[114.22551666666666,22.26434],[114.20865,22.26434],[114.20865,22.25466]]]}},{"type":"Feature","properties":{"id":"bld-southern-022","heightM":21.2,"floors":5,"simulated":true},"geometry":{"type":"Polygon","coordinates":[[[114.22781666666667,22.25466],[114.24468333333334,22.25466],[114.24468333333334,22.26434],[114.22781666666667,22.26434],[114.22781666666667,22.25466]]]}},{"type":"Feature","properties":{"id":"bld-southern-023","heightM":35.5,"floors":12,"simulated":true},"geometry":{"type":"Polygon","coordinates":[[[114.24698333333333,22.25466],[114.26385,22.25466],[114.26385,22.26434],[114.24698333333333,22.26434],[114.24698333333333,22.25466]]]}}]}