{"type":"FeatureCollection","features":[{"type":"Feature","properties":{"id":"bld-eastern-001","heightM":79.6,"floors":16,"simulated":true},"geometry":{"type":"Polygon","coordinates":[[[114.20032,22.28018],[114.20501333333334,22.28018],[114.20501333333334,22.28282],[114.20032,22.28282],[114.20032,22.28018]]]}},{"type":"Feature","properties":{"id":"bld-eastern-002","heightM":132.4,"floors":32,"simulated":true},"geometry":{"type":"Polygon","coordinates":[[[114.20565333333333,22.28018],[114.21034666666667,22.28018],[114.21034666666667,22.28282],[114.20565333333333,22.28282],[114.20565333333333,22.28018]]]}},{"type":"Feature","properties":{"id":"bld-eastern-003","heightM":135.0,"floors":36,"simulated":true},"geometry":{"type":"Polygon","coordinates":[[[114.21098666666667,22.28018],[114.21568,22.28018],[114.21568,22.28282],[114.21098666666667,22.28282],[114.21098666666667,22.28018]]]}},{"type":"Feature","properties":{"id":"bld-eastern-004","heightM":123.2,"floors":33,"simulated":true},"geometry":{"type":"Polygon","coordinates":[[[114.21632,22.28018],[114.22101333333333,22.28018],[114.22101333333333,22.28282],[114.21632,22.28282],[114.21632,22.28018]]]}},{"type":"Feature","properties":{"id":"bld-eastern-005","heightM":76.6,"floors":22,"simulated":true},"geometry":{"type":"Polygon","coordinates":[[[114.22698666666666,22.28018],[114.23168,22.28018],[114.23168,22.28282],[114.22698666666666,22.28282],[114.22698666666666,22.28018]]]}},{"type":"Feature","properties":{"id":"bld-eastern-006","heightM":73.5,"floors":16,"simulated":true},"geometry":{"type":"Polygon","coordinates":[[[114.20032,22.28318],[114.20501333333334,22.28318],[114.20501333333334,22.28582],[114.20032,22.28582],[114.20032,22.28318]]]}},{"type":"Feature","properties":{"id":"bld-eastern-007","heightM":144.6,"floors":28,"simulated":true},"geometry":{"type":"Polygon","coordinates":[[[114.20565333333333,22.28318],[114.21034666666667,22.28318],[114.21034666666667,22.28582],[114.20565333333333,22.28582],[114.20565333333333,22.28318]]]}},{"type":"Feature","properties":{"id":"bld-eastern-008","heightM":17.0,"floors":4,"simulated":true},"geometry":{"type":"Polygon","coordinates":[[[114.21098666666667,22.28318],[114.21568,22.28318],[114.21568,22.28582],[114.21098666666667,22.28582],[114.21098666666667,22.28318]]]}},{"type":"Feature","properties":{"id":"bld-eastern-009","heightM":149.6,"floors":33,"simulated":true},"geometry":{"type":"Polygon","coordinates":[[[114.21632,22.28318],[114.22101333333333,22.28318],[114.22101333333333,22.28582],[114.21632,22.28582],[114.21632,22.28318]]]}},{"type":"Feature","properties":{"id":"bld-eastern-010","heightM":111.2,"floors":35,"simulated":true},"geometry":{"type":"Polygon","coordinates":[[[114.22698666666666,22.28318],[114.23168,22.28318],[114.23168,22.28582],[114.22698666666666,22.28582],[114.22698666666666,22.28318]]]}},{"type":"Feature","properties":{"id":"bld-eastern-011","heightM":73.3,"floors":17,"simulated":true},"geometry":{"type":"Polygon","coordinates":[[[114.20032,22.28618],[114.20501333333334,22.28618],[114.20501333333334,22.28882],[114.20032,22.28882],[114.20032,22.28618]]]}},{"type":"Feature","properties":{"id":"bld-eastern-012","heightM":119.9,"floors":29,"simulated":true},"geometry":{"type":"Polygon","coordinates":[[[114.20565333333333,22.28618],[114.21034666666667,22.28618],[114.21034666666667,22.28882],[114.20565333333333,22.28882],[114.20565333333333,22.28618]]]}},{"type":"Feature","properties":{"id":"bld-eastern-013","heightM":45.7,"floors":15,"simulated":true},"geometry":{"type":"Polygon","coordinates":[[[114.21098666666667,22.28618],[114.21568,22.28618],[114.21568,22.28882],[114.21098666666667,22.28882],[114.21098666666667,22.28618]]]}},{"type":"Feature","properties":{"id":"bld-eastern-014","heightM":53.4,"floors":20,"simulated":true},"geometry":{"type":"Polygon","coordinates":[[[114.21632,22.28618],[114.22101333333333,22.28618],[114.22101333333333,22.28882],[114.21632,22.28882],[114.21632,22.28618]]]}},{"type":"Feature","properties":{"id":"bld-eastern-015","heightM":67.8,"floors":17,"simulated":true},"geometry":{"type":"Polygon","coordinates":[[[114.22165333333334,22.28618],[114.22634666666667,22.28618],[114.22634666666667,22.28882],[114.22165333333334,22.28882],[114.22165333333334,22.28618]]]}},{"type":"Feature","properties":{"id":"bld-eastern-016","heightM":66.5,"floors":16,"simulated":true},"geometry":{"type":"Polygon","coordinates":[[[114.22698666666666,22.28618],[114.23168,22.28618],[114.23168,22.28882],[114.22698666666666,22.28882],[114.22698666666666,22.28618]]]}},{"type":"Feature","properties":{"id":"bld-eastern-017","heightM":72.0,"floors":19,"simulated":true},"geometry":{"type":"Polygon","coordinates":[[[114.20565333333333,22.292180000000002],[114.21034666666667,22.292180000000002],[114.21034666666667,22.29482],[114.20565333333333,22.29482],[114.20565333333333,22.292180000000002]]]}},{"type":"Feature","properties":{"id":"bld-eastern-018","heightM":60.4,"floors":22,"simulated":true},"geometry":{"type":"Polygon","coordinates":[[[114.21098666666667,22.292180000000002],[114.21568,22.292180000000002],[114.21568,22.29482],[114.21098666666667,22.29482],[114.21098666666667,22.292180000000002]]]}},{"type":"Feature","properties":{"id":"bld-eastern-019","heightM":16.9,"floors":6,"simulated":true},"geometry":{"type":"Polygon","coordinates":[[[114.21632,22.292180000000002],[114.22101333333333,22.292180000000002],[114.22101333333333,22.29482],[114.21632,22.29482],[114.21632,22.292180000000002]]]}},{"type":"Feature","properties":{"id":"bld-eastern-020","heightM":48.2,"floors":23,"simulated":true},"geometry":{"type":"Polygon","coordinates":[[[114.22165333333334,22.292180000000002],[114.22634666666667,22.292180000000002],[114.22634666666667,22.29482],[114.22165333333334,22.29482],[114.22165333333334,22.292180000000002]]]}},{"type":"Feature","properties":{"id":"bld-eastern-021","heightM":147.2,"floors":38,"simulated":true},"geometry":{"type":"Polygon","coordinates":[[[114.22698666666666,22.292180000000002],[114.23168,22.292180000000002],[114.23168,22.29482],[114.22698666666666,22.29482],[114.22698666666666,22.292180000000002]]]}}]}