{"type":"FeatureCollection","features":[{"type":"Feature","properties":{"id":"bld-central-western-001","heightM":15.5,"floors":6,"simulated":true},"geometry":{"type":"Polygon","coordinates":[[[114.1282,22.278167999999997],[114.13113333333334,22.278167999999997],[114.13113333333334,22.280632],[114.1282,22.280632],[114.1282,22.278167999999997]]]}},{"type":"Feature","properties":{"id":"bld-central-western-002","heightM":67.2,"floors":16,"simulated":true},"geometry":{"type":"Polygon","coordinates":[[[114.13153333333334,22.278167999999997],[114.13446666666667,22.278167999999997],[114.13446666666667,22.280632],[114.13153333333334,22.280632],[114.13153333333334,22.278167999999997]]]}},{"type":"Feature","properties":{"id":"bld-central-western-003","heightM":112.2,"floors":31,"simulated":true},"geometry":{"type":"Polygon","coordinates":[[[114.13486666666667,22.278167999999997],[114.1378,22.278167999999997],[114.1378,22.280632],[114.13486666666667,22.280632],[114.13486666666667,22.278167999999997]]]}},{"type":"Feature","properties":{"id":"bld-central-western-004","heightM":123.9,"floors":42,"simulated":true},"geometry":{"type":"Polygon","coordinates":[[[114.14153333333333,22.278167999999997],[114.14446666666666,22.278167999999997],[114.14446666666666,22.280632],[114.14153333333333,22.280632],[114.14153333333333,22.278167999999997]]]}},{"type":"Feature","properties":{"id":"bld-central-western-005","heightM":71.6,"floors":17,"simulated":true},"geometry":{"type":"Polygon","coordinates":[[[114.14486666666666,22.278167999999997],[114.14779999999999,22.278167999999997],[114.14779999999999,22.280632],[114.14486666666666,22.280632],[114.14486666666666,22.278167999999997]]]}},{"type":"Feature","properties":{"id":"bld-central-western-006","heightM":79.3,"floors":23,"simulated":true},"geometry":{"type":"Polygon","coordinates":[[[114.1282,22.280967999999998],[114.13113333333334,22.280967999999998],[114.13113333333334,22.283432],[114.1282,22.283432],[114.1282,22.280967999999998]]]}},{"type":"Feature","properties":{"id":"bld-central-western-007","heightM":57.8,"floors":20,"simulated":true},"geometry":{"type":"Polygon","coordinates":[[[114.13153333333334,22.280967999999998],[114.13446666666667,22.280967999999998],[114.13446666666667,22.283432],[114.13153333333334,22.283432],[114.13153333333334,22.280967999999998]]]}},{"type":"Feature","properties":{"id":"bld-central-western-008","heightM":97.6,"floors":37,"simulated":true},"geometry":{"type":"Polygon","coordinates":[[[114.13486666666667,22.280967999999998],[114.1378,22.280967999999998],[114.1378,22.283432],[114.13486666666667,22.283432],[114.13486666666667,22.280967999999998]]]}},{"type":"Feature","properties":{"id":"bld-central-western-009","heightM":50.8,"floors":17,"simulated":true},"geometry":{"type":"Polygon","coordinates":[[[114.1382,22.280967999999998],[114.14113333333333,22.280967999999998],[114.14113333333333,22.283432],[114.1382,22.283432],[114.1382,22.280967999999998]]]}},{"type":"Feature","properties":{"id":"bld-central-western-010","heightM":14.7,"floors":5,"simulated":true},"geometry":{"type":"Polygon","coordinates":[[[114.14153333333333,22.280967999999998],[114.14446666666666,22.280967999999998],[114.14446666666666,22.283432],[114.14153333333333,22.283432],[114.14153333333333,22.280967999999998]]]}},{"type":"Feature","properties":{"id":"bld-central-western-011","heightM":108.9,"floors":31,"simulated":true},"geometry":{"type":"Polygon","coordinates":[[[114.14486666666666,22.280967999999998],[114.14779999999999,22.280967999999998],[114.14779999999999,22.283432],[114.14486666666666,22.283432],[114.14486666666666,22.280967999999998]]]}},{"type":"Feature","properties":{"id":"bld-central-western-012","heightM":115.0,"floors":42,"simulated":true},"geometry":{"type":"Polygon","coordinates":[[[114.1282,22.283768],[114.13113333333334,22.283768],[114.13113333333334,22.286232000000002],[114.1282,22.286232000000002],[114.1282,22.283768]]]}},{"type":"Feature","properties":{"id":"bld-central-western-013","heightM":17.1,"floors":4,"simulated":true},"geometry":{"type":"Polygon","coordinates":[[[114.13153333333334,22.283768],[114.13446666666667,22.283768],[114.13446666666667,22.286232000000002],[114.13153333333334,22.286232000000002],[114.13153333333334,22.283768]]]}},{"type":"Feature","properties":{"id":"bld-central-western-014","heightM":65.9,"floors":16,"simulated":true},"geometry":{"type":"Polygon","coordinates":[[[114.13486666666667,22.283768],[114.1378,22.283768],[114.1378,22.286232000000002],[114.13486666666667,22.286232000000002],[114.13486666666667,22.283768]]]}},{"type":"Feature","properties":{"id":"bld-central-western-015","heightM":51.9,"floors":21,"simulated":true},"geometry":{"type":"Polygon","coordinates":[[[114.1382,22.283768],[114.14113333333333,22.283768],[114.14113333333333,22.286232000000002],[114.1382,22.286232000000002],[114.1382,22.283768]]]}},{"type":"Feature","properties":{"id":"bld-central-western-016","heightM":139.2,"floors":40,"simulated":true},"geometry":{"type":"Polygon","coordinates":[[[114.14153333333333,22.283768],[114.14446666666666,22.283768],[114.14446666666666,22.286232000000002],[114.14153333333333,22.286232000000002],[114.14153333333333,22.283768]]]}},{"type":"Feature","properties":{"id":"bld-central-western-017","heightM":64.5,"floors":19,"simulated":true},"geometry":{"type":"Polygon","coordinates":[[[114.13153333333334,22.289368],[114.13446666666667,22.289368],[114.13446666666667,22.291832000000003],[114.13153333333334,22.291832000000003],[114.13153333333334,22.289368]]]}},{"type":"Feature","properties":{"id":"bld-central-western-018","heightM":51.6,"floors":17,"simulated":true},"geometry":{"type":"Polygon","coordinates":[[[114.1382,22.289368],[114.14113333333333,22.289368],[114.14113333333333,22.291832000000003],[114.1382,22.291832000000003],[114.1382,22.289368]]]}},{"type":"Feature","properties":{"id":"bld-central-western-019","heightM":13.4,"floors":6,"simulated":true},"geometry":{"type":"Polygon","coordinates":[[[114.14153333333333,22.289368],[114.14446666666666,22.289368],[114.14446666666666,22.291832000000003],[114.14153333333333,22.291832000000003],[114.14153333333333,22.289368]]]}},{"type":"Feature","properties":{"id":"bld-central-western-020","heightM":153.6,"floors":34,"simulated":true},"geometry":{"type":"Polygon","coordinates":[[[114.14486666666666,22.289368],[114.14779999999999,22.289368],[114.14779999999999,22.291832000000003],[114.14486666666666,22.291832000000003],[114.14486666666666,22.289368]]]}}]}