{"type":"FeatureCollection","features":[{"type":"Feature","properties":{"id":"bld-kowloon-tsuen-wan-001","heightM":61.7,"floors":19,"simulated":true},"geometry":{"type":"Polygon","coordinates":[[[114.10834,22.360264],[114.11332666666667,22.360264],[114.11332666666667,22.364136],[114.10834,22.364136],[114.10834,22.360264]]]}},{"type":"Feature","properties":{"id":"bld-kowloon-tsuen-wan-002","heightM":108.1,"floors":30,"simulated":true},"geometry":{"type":"Polygon","coordinates":[[[114.11400666666667,22.360264],[114.11899333333334,22.360264],[114.11899333333334,22.364136],[114.11400666666667,22.364136],[114.11400666666667,22.360264]]]}},{"type":"Feature","properties":{"id":"bld-kowloon-tsuen-wan-003","heightM":21.3,"floors":3,"simulated":true},"geometry":{"type":"Polygon","coordinates":[[[114.11967333333334,22.360264],[114.12466,22.360264],[114.12466,22.364136],[114.11967333333334,22.364136],[114.11967333333334,22.360264]]]}},{"type":"Feature","properties":{"id":"bld-kowloon-tsuen-wan-004","heightM":17.2,"floors":3,"simulated":true},"geometry":{"type":"Polygon","coordinates":[[[114.12534,22.360264],[114.13032666666666,22.360264],[114.13032666666666,22.364136],[114.12534,22.364136],[114.12534,22.360264]]]}},{"type":"Feature","properties":{"id":"bld-kowloon-tsuen-wan-005","heightM":14.6,"floors":3,"simulated":true},"geometry":{"type":"Polygon","coordinates":[[[114.13100666666666,22.360264],[114.13599333333333,22.360264],[114.13599333333333,22.364136],[114.13100666666666,22.364136],[114.13100666666666,22.360264]]]}},{"type":"Feature","properties":{"id":"bld-kowloon-tsuen-wan-006","heightM":93.6,"floors":21,"simulated":true},"geometry":{"type":"Polygon","coordinates":[[[114.13667333333333,22.360264],[114.14166,22.360264],[114.14166,22.364136],[114.13667333333333,22.364136],[114.13667333333333,22.360264]]]}},{"type":"Feature","properties":{"id":"bld-kowloon-tsuen-wan-007","heightM":10.6,"floors":4,"simulated":true},"geometry":{"type":"Polygon","coordinates":[[[114.10834,22.364664],[114.11332666666667,22.364664],[114.11332666666667,22.368536],[114.10834,22.368536],[114.10834,22.364664]]]}},{"type":"Feature","properties":{"id":"bld-kowloon-tsuen-wan-008","heightM":13.2,"floors":4,"simulated":true},"geometry":{"type":"Polygon","coordinates":[[[114.11400666666667,22.364664],[114.11899333333334,22.364664],[114.11899333333334,22.368536],[114.11400666666667,22.368536],[114.11400666666667,22.364664]]]}},{"type":"Feature","properties":{"id":"bld-kowloon-tsuen-wan-009","heightM":90.6,"floors":21,"simulated":true},"geometry":{"type":"Polygon","coordinates":[[[114.12534,22.364664],[114.13032666666666,22.364664],[114.13032666666666,22.368536],[114.12534,22.368536],[114.12534,22.364664]]]}},{"type":"Feature","properties":{"id":"bld-kowloon-tsuen-wan-010","heightM":14.7,"floors":6,"simulated":true},"geometry":{"type":"Polygon","coordinates":[[[114.13100666666666,22.364664],[114.13599333333333,22.364664],[114.13599333333333,22.368536],[114.13100666666666,22.368536],[114.13100666666666,22.364664]]]}},{"type":"Feature","properties":{"id":"bld-kowloon-tsuen-wan-011","heightM":16.4,"floors":4,"simulated":true},"geometry":{"type":"Polygon","coordinates":[[[114.13667333333333,22.364664],[114.14166,22.364664],[114.14166,22.368536],[114.13667333333333,22.368536],[114.13667333333333,22.364664]]]}},{"type":"Feature","properties":{"id":"bld-kowloon-tsuen-wan-012","heightM":16.3,"floors":6,"simulated":true},"geometry":{"type":"Polygon","coordinates":[[[114.10834,22.369064],[114.11332666666667,22.369064],[114.11332666666667,22.372936],[114.10834,22.372936],[114.10834,22.369064]]]}},{"type":"Feature","properties":{"id":"bld-kowloon-tsuen-wan-013","heightM":20.0,"floors":5,"simulated":true},"geometry":{"type":"Polygon","coordinates":[[[114.11400666666667,22.369064],[114.11899333333334,22.369064],[114.11899333333334,22.372936],[114.11400666666667,22.372936],[114.11400666666667,22.369064]]]}},{"type":"Feature","properties":{"id":"bld-kowloon-tsuen-wan-014","heightM":56.8,"floors":17,"simulated":true},"geometry":{"type":"Polygon","coordinates":[[[114.11967333333334,22.369064],[114.12466,22.369064],[114.12466,22.372936],[114.11967333333334,22.372936],[114.11967333333334,22.369064]]]}},{"type":"Feature","properties":{"id":"bld-kowloon-tsuen-wan-015","heightM":64.9,"floors":15,"simulated":true},"geometry":{"type":"Polygon","coordinates":[[[114.12534,22.369064],[114.13032666666666,22.369064],[114.13032666666666,22.372936],[114.12534,22.372936],[114.12534,22.369064]]]}},{"type":"Feature","properties":{"id":"bld-kowloon-tsuen-wan-016","heightM":104.1,"floors":22,"simulated":true},"geometry":{"type":"Polygon","coordinates":[[[114.13667333333333,22.369064],[114.14166,22.369064],[114.14166,22.372936],[114.13667333333333,22.372936],[114.13667333333333,22.369064]]]}},{"type":"Feature","properties":{"id":"bld-kowloon-tsuen-wan-017","heightM":14.1,"floors":3,"simulated":true},"geometry":{"type":"Polygon","coordinates":[[[114.11400666666667,22.377864000000002],[114.11899333333334,22.377864000000002],[114.11899333333334,22.381736],[114.11400666666667,22.381736],[114.11400666666667,22.377864000000002]]]}},{"type":"Feature","properties":{"id":"bld-kowloon-tsuen-wan-018","heightM":47.9,"floors":12,"simulated":true},"geometry":{"type":"Polygon","coordinates":[[[114.11967333333334,22.377864000000002],[114.12466,22.377864000000002],[114.12466,22.381736],[114.11967333333334,22.381736],[114.11967333333334,22.377864000000002]]]}},{"type":"Feature","properties":{"id":"bld-kowloon-tsuen-wan-019","heightM":12.1,"floors":4,"simulated":true},"geometry":{"type":"Polygon","coordinates":[[[114.12534,22.377864000000002],[114.13032666666666,22.377864000000002],[114.13032666666666,22.381736],[114.12534,22.381736],[114.12534,22.377864000000002]]]}},{"type":"Feature","properties":{"id":"bld-kowloon-tsuen-wan-020","heightM":49.9,"floors":12,"simulated":true},"geometry":{"type":"Polygon","coordinates":[[[114.13100666666666,22.377864000000002],[114.13599333333333,22.377864000000002],[114.13599333333333,22.381736],[114.13100666666666,22.381736],[114.13100666666666,22.377864000000002]]]}}]}