{"type":"FeatureCollection","features":[{"type":"Feature","properties":{"id":"bld-northern-metropolis-001","heightM":73.6,"floors":26,"simulated":true},"geometry":{"type":"Polygon","coordinates":[[[114.1203,22.50524],[114.1247,22.50524],[114.1247,22.50876],[114.1203,22.50876],[114.1203,22.50524]]]}},{"type":"Feature","properties":{"id":"bld-northern-metropolis-002","heightM":90.1,"floors":29,"simulated":true},"geometry":{"type":"Polygon","coordinates":[[[114.12530000000001,22.50524],[114.1297,22.50524],[114.1297,22.50876],[114.12530000000001,22.50876],[114.12530000000001,22.50524]]]}},{"type":"Feature","properties":{"id":"bld-northern-metropolis-003","heightM":52.1,"floors":17,"simulated":true},"geometry":{"type":"Polygon","coordinates":[[[114.1303,22.50524],[114.13470000000001,22.50524],[114.13470000000001,22.50876],[114.1303,22.50876],[114.1303,22.50524]]]}},{"type":"Feature","properties":{"id":"bld-northern-metropolis-004","heightM":35.9,"floors":12,"simulated":true},"geometry":{"type":"Polygon","coordinates":[[[114.1353,22.50524],[114.1397,22.50524],[114.1397,22.50876],[114.1353,22.50876],[114.1353,22.50524]]]}},{"type":"Feature","properties":{"id":"bld-northern-metropolis-005","heightM":55.1,"floors":13,"simulated":true},"geometry":{"type":"Polygon","coordinates":[[[114.14030000000001,22.50524],[114.1447,22.50524],[114.1447,22.50876],[114.14030000000001,22.50876],[114.14030000000001,22.50524]]]}},{"type":"Feature","properties":{"id":"bld-northern-metropolis-006","heightM":47.8,"floors":13,"simulated":true},"geometry":{"type":"Polygon","coordinates":[[[114.1453,22.50524],[114.14970000000001,22.50524],[114.14970000000001,22.50876],[114.1453,22.50876],[114.1453,22.50524]]]}},{"type":"Feature","properties":{"id":"bld-northern-metropolis-007","heightM":73.6,"floors":29,"simulated":true},"geometry":{"type":"Polygon","coordinates":[[[114.1203,22.50924],[114.1247,22.50924],[114.1247,22.51276],[114.1203,22.51276],[114.1203,22.50924]]]}},{"type":"Feature","properties":{"id":"bld-northern-metropolis-008","heightM":50.7,"floors":15,"simulated":true},"geometry":{"type":"Polygon","coordinates":[[[114.12530000000001,22.50924],[114.1297,22.50924],[114.1297,22.51276],[114.12530000000001,22.51276],[114.12530000000001,22.50924]]]}},{"type":"Feature","properties":{"id":"bld-northern-metropolis-009","heightM":42.8,"floors":14,"simulated":true},"geometry":{"type":"Polygon","coordinates":[[[114.1303,22.50924],[114.13470000000001,22.50924],[114.13470000000001,22.51276],[114.1303,22.51276],[114.1303,22.50924]]]}},{"type":"Feature","properties":{"id":"bld-northern-metropolis-010","heightM":17.4,"floors":6,"simulated":true},"geometry":{"type":"Polygon","coordinates":[[[114.1353,22.50924],[114.1397,22.50924],[114.1397,22.51276],[114.1353,22.51276],[114.1353,22.50924]]]}},{"type":"Feature","properties":{"id":"bld-northern-metropolis-011","heightM":35.6,"floors":11,"simulated":true},"geometry":{"type":"Polygon","coordinates":[[[114.14030000000001,22.50924],[114.1447,22.50924],[114.1447,22.51276],[114.14030000000001,22.51276],[114.14030000000001,22.50924]]]}},{"type":"Feature","properties":{"id":"bld-northern-metropolis-012","heightM":14.4,"floors":6,"simulated":true},"geometry":{"type":"Polygon","coordinates":[[[114.1453,22.50924],[114.14970000000001,22.50924],[114.14970000000001,22.51276],[114.1453,22.51276],[114.1453,22.50924]]]}},{"type":"Feature","properties":{"id":"bld-northern-metropolis-013","heightM":26.6,"floors":8,"simulated":true},"geometry":{"type":"Polygon","coordinates":[[[114.1203,22.51324],[114.1247,22.51324],[114.1247,22.516759999999998],[114.1203,22.516759999999998],[114.1203,22.51324]]]}},{"type":"Feature","properties":{"id":"bld-northern-metropolis-014","heightM":52.9,"floors":13,"simulated":true},"geometry":{"type":"Polygon","coordinates":[[[114.12530000000001,22.51324],[114.1297,22.51324],[114.1297,22.516759999999998],[114.12530000000001,22.516759999999998],[114.12530000000001,22.51324]]]}},{"type":"Feature","properties":{"id":"bld-northern-metropolis-015","heightM":52.3,"floors":12,"simulated":true},"geometry":{"type":"Polygon","coordinates":[[[114.1303,22.51324],[114.13470000000001,22.51324],[114.13470000000001,22.516759999999998],[114.1303,22.516759999999998],[114.1303,22.51324]]]}},{"type":"Feature","properties":{"id":"bld-northern-metropolis-016","heightM":25.5,"floors":8,"simulated":true},"geometry":{"type":"Polygon","coordinates":[[[114.1353,22.51324],[114.1397,22.51324],[114.1397,22.516759999999998],[114.1353,22.516759999999998],[114.1353,22.51324]]]}},{"type":"Feature","properties":{"id":"bld-northern-metropolis-017","heightM":45.9,"floors":11,"simulated":true},"geometry":{"type":"Polygon","coordinates":[[[114.14030000000001,22.51324],[114.1447,22.51324],[114.1447,22.516759999999998],[114.14030000000001,22.516759999999998],[114.14030000000001,22.51324]]]}},{"type":"Feature","properties":{"id":"bld-northern-metropolis-018","heightM":50.5,"floors":17,"simulated":true},"geometry":{"type":"Polygon","coordinates":[[[114.1453,22.51324],[114.14970000000001,22.51324],[114.14970000000001,22.516759999999998],[114.1453,22.516759999999998],[114.1453,22.51324]]]}},{"type":"Feature","properties":{"id":"bld-northern-metropolis-019","heightM":15.3,"floors":4,"simulated":true},"geometry":{"type":"Polygon","coordinates":[[[114.12530000000001,22.52124],[114.1297,22.52124],[114.1297,22.524759999999997],[114.12530000000001,22.524759999999997],[114.12530000000001,22.52124]]]}},{"type":"Feature","properties":{"id":"bld-northern-metropolis-020","heightM":110.6,"floors":29,"simulated":true},"geometry":{"type":"Polygon","coordinates":[[[114.1303,22.52124],[114.13470000000001,22.52124],[114.13470000000001,22.524759999999997],[114.1303,22.524759999999997],[114.1303,22.52124]]]}},{"type":"Feature","properties":{"id":"bld-northern-metropolis-021","heightM":14.8,"floors":5,"simulated":true},"geometry":{"type":"Polygon","coordinates":[[[114.1353,22.52124],[114.1397,22.52124],[114.1397,22.524759999999997],[114.1353,22.524759999999997],[114.1353,22.52124]]]}},{"type":"Feature","properties":{"id":"bld-northern-metropolis-022","heightM":26.0,"floors":4,"simulated":true},"geometry":{"type":"Polygon","coordinates":[[[114.14030000000001,22.52124],[114.1447,22.52124],[114.1447,22.524759999999997],[114.14030000000001,22.524759999999997],[114.14030000000001,22.52124]]]}},{"type":"Feature","properties":{"id":"bld-northern-metropolis-023","heightM":40.5,"floors":17,"simulated":true},"geometry":{"type":"Polygon","coordinates":[[[114.1453,22.52124],[114.14970000000001,22.52124],[114.14970000000001,22.524759999999997],[114.1453,22.524759999999997],[114.1453,22.52124]]]}}]}