{"type":"FeatureCollection","features":[{"type":"Feature","properties":{"id":"bld-nt-north-001","heightM":70.0,"floors":21,"simulated":true},"geometry":{"type":"Polygon","coordinates":[[[114.1284,22.490503999999998],[114.13426666666666,22.490503999999998],[114.13426666666666,22.497895999999997],[114.1284,22.497895999999997],[114.1284,22.490503999999998]]]}},{"type":"Feature","properties":{"id":"bld-nt-north-002","heightM":30.0,"floors":5,"simulated":true},"geometry":{"type":"Polygon","coordinates":[[[114.13506666666667,22.490503999999998],[114.14093333333334,22.490503999999998],[114.14093333333334,22.497895999999997],[114.13506666666667,22.497895999999997],[114.13506666666667,22.490503999999998]]]}},{"type":"Feature","properties":{"id":"bld-nt-north-003","heightM":22.1,"floors":10,"simulated":true},"geometry":{"type":"Polygon","coordinates":[[[114.14173333333333,22.490503999999998],[114.1476,22.490503999999998],[114.1476,22.497895999999997],[114.14173333333333,22.497895999999997],[114.14173333333333,22.490503999999998]]]}},{"type":"Feature","properties":{"id":"bld-nt-north-004","heightM":17.9,"floors":8,"simulated":true},"geometry":{"type":"Polygon","coordinates":[[[114.15506666666667,22.490503999999998],[114.16093333333333,22.490503999999998],[114.16093333333333,22.497895999999997],[114.15506666666667,22.497895999999997],[114.15506666666667,22.490503999999998]]]}},{"type":"Feature","properties":{"id":"bld-nt-north-005","heightM":21.3,"floors":5,"simulated":true},"geometry":{"type":"Polygon","coordinates":[[[114.16173333333334,22.490503999999998],[114.16760000000001,22.490503999999998],[114.16760000000001,22.497895999999997],[114.16173333333334,22.497895999999997],[114.16173333333334,22.490503999999998]]]}},{"type":"Feature","properties":{"id":"bld-nt-north-006","heightM":18.8,"floors":10,"simulated":true},"geometry":{"type":"Polygon","coordinates":[[[114.1284,22.498904],[114.13426666666666,22.498904],[114.13426666666666,22.506296],[114.1284,22.506296],[114.1284,22.498904]]]}},{"type":"Feature","properties":{"id":"bld-nt-north-007","heightM":23.5,"floors":7,"simulated":true},"geometry":{"type":"Polygon","coordinates":[[[114.13506666666667,22.498904],[114.14093333333334,22.498904],[114.14093333333334,22.506296],[114.13506666666667,22.506296],[114.13506666666667,22.498904]]]}},{"type":"Feature","properties":{"id":"bld-nt-north-008","heightM":24.9,"floors":7,"simulated":true},"geometry":{"type":"Polygon","coordinates":[[[114.14173333333333,22.498904],[114.1476,22.498904],[114.1476,22.506296],[114.14173333333333,22.506296],[114.14173333333333,22.498904]]]}},{"type":"Feature","properties":{"id":"bld-nt-north-009","heightM":32.6,"floors":10,"simulated":true},"geometry":{"type":"Polygon","coordinates":[[[114.14840000000001,22.498904],[114.15426666666667,22.498904],[114.15426666666667,22.506296],[114.14840000000001,22.506296],[114.14840000000001,22.498904]]]}},{"type":"Feature","properties":{"id":"bld-nt-north-010","heightM":66.9,"floors":22,"simulated":true},"geometry":{"type":"Polygon","coordinates":[[[114.15506666666667,22.498904],[114.16093333333333,22.498904],[114.16093333333333,22.506296],[114.15506666666667,22.506296],[114.15506666666667,22.498904]]]}},{"type":"Feature","properties":{"id":"bld-nt-north-011","heightM":18.7,"floors":6,"simulated":true},"geometry":{"type":"Polygon","coordinates":[[[114.16173333333334,22.498904],[114.16760000000001,22.498904],[114.16760000000001,22.506296],[114.16173333333334,22.506296],[114.16173333333334,22.498904]]]}},{"type":"Feature","properties":{"id":"bld-nt-north-012","heightM":21.3,"floors":6,"simulated":true},"geometry":{"type":"Polygon","coordinates":[[[114.1284,22.507303999999998],[114.13426666666666,22.507303999999998],[114.13426666666666,22.514696],[114.1284,22.514696],[114.1284,22.507303999999998]]]}},{"type":"Feature","properties":{"id":"bld-nt-north-013","heightM":17.2,"floors":8,"simulated":true},"geometry":{"type":"Polygon","coordinates":[[[114.13506666666667,22.507303999999998],[114.14093333333334,22.507303999999998],[114.14093333333334,22.514696],[114.13506666666667,22.514696],[114.13506666666667,22.507303999999998]]]}},{"type":"Feature","properties":{"id":"bld-nt-north-014","heightM":26.4,"floors":6,"simulated":true},"geometry":{"type":"Polygon","coordinates":[[[114.14173333333333,22.507303999999998],[114.1476,22.507303999999998],[114.1476,22.514696],[114.14173333333333,22.514696],[114.14173333333333,22.507303999999998]]]}},{"type":"Feature","properties":{"id":"bld-nt-north-015","heightM":112.6,"floors":34,"simulated":true},"geometry":{"type":"Polygon","coordinates":[[[114.14840000000001,22.507303999999998],[114.15426666666667,22.507303999999998],[114.15426666666667,22.514696],[114.14840000000001,22.514696],[114.14840000000001,22.507303999999998]]]}},{"type":"Feature","properties":{"id":"bld-nt-north-016","heightM":83.7,"floors":18,"simulated":true},"geometry":{"type":"Polygon","coordinates":[[[114.15506666666667,22.507303999999998],[114.16093333333333,22.507303999999998],[114.16093333333333,22.514696],[114.15506666666667,22.514696],[114.15506666666667,22.507303999999998]]]}},{"type":"Feature","properties":{"id":"bld-nt-north-017","heightM":65.6,"floors":24,"simulated":true},"geometry":{"type":"Polygon","coordinates":[[[114.16173333333334,22.507303999999998],[114.16760000000001,22.507303999999998],[114.16760000000001,22.514696],[114.16173333333334,22.514696],[114.16173333333334,22.507303999999998]]]}},{"type":"Feature","properties":{"id":"bld-nt-north-018","heightM":89.5,"floors":26,"simulated":true},"geometry":{"type":"Polygon","coordinates":[[[114.1284,22.524104],[114.13426666666666,22.524104],[114.13426666666666,22.531496],[114.1284,22.531496],[114.1284,22.524104]]]}},{"type":"Feature","properties":{"id":"bld-nt-north-019","heightM":17.4,"floors":9,"simulated":true},"geometry":{"type":"Polygon","coordinates":[[[114.13506666666667,22.524104],[114.14093333333334,22.524104],[114.14093333333334,22.531496],[114.13506666666667,22.531496],[114.13506666666667,22.524104]]]}},{"type":"Feature","properties":{"id":"bld-nt-north-020","heightM":57.7,"floors":17,"simulated":true},"geometry":{"type":"Polygon","coordinates":[[[114.14173333333333,22.524104],[114.1476,22.524104],[114.1476,22.531496],[114.14173333333333,22.531496],[114.14173333333333,22.524104]]]}},{"type":"Feature","properties":{"id":"bld-nt-north-021","heightM":17.7,"floors":6,"simulated":true},"geometry":{"type":"Polygon","coordinates":[[[114.15506666666667,22.524104],[114.16093333333333,22.524104],[114.16093333333333,22.531496],[114.15506666666667,22.531496],[114.15506666666667,22.524104]]]}},{"type":"Feature","properties":{"id":"bld-nt-north-022","heightM":128.4,"floors":34,"simulated":true},"geometry":{"type":"Polygon","coordinates":[[[114.16173333333334,22.524104],[114.16760000000001,22.524104],[114.16760000000001,22.531496],[114.16173333333334,22.531496],[114.16173333333334,22.524104]]]}}]}