{"type":"FeatureCollection","features":[{"type":"Feature","properties":{"id":"bld-wan-chai-001","heightM":66.3,"floors":23,"simulated":true},"geometry":{"type":"Polygon","coordinates":[[[114.16517,22.271144],[114.16766333333334,22.271144],[114.16766333333334,22.273256],[114.16517,22.273256],[114.16517,22.271144]]]}},{"type":"Feature","properties":{"id":"bld-wan-chai-002","heightM":112.2,"floors":29,"simulated":true},"geometry":{"type":"Polygon","coordinates":[[[114.16800333333335,22.271144],[114.17049666666666,22.271144],[114.17049666666666,22.273256],[114.16800333333335,22.273256],[114.16800333333335,22.271144]]]}},{"type":"Feature","properties":{"id":"bld-wan-chai-003","heightM":62.2,"floors":19,"simulated":true},"geometry":{"type":"Polygon","coordinates":[[[114.17367,22.271144],[114.17616333333334,22.271144],[114.17616333333334,22.273256],[114.17367,22.273256],[114.17367,22.271144]]]}},{"type":"Feature","properties":{"id":"bld-wan-chai-004","heightM":53.4,"floors":14,"simulated":true},"geometry":{"type":"Polygon","coordinates":[[[114.17933666666667,22.271144],[114.18183,22.271144],[114.18183,22.273256],[114.17933666666667,22.273256],[114.17933666666667,22.271144]]]}},{"type":"Feature","properties":{"id":"bld-wan-chai-005","heightM":15.4,"floors":6,"simulated":true},"geometry":{"type":"Polygon","coordinates":[[[114.16517,22.273544],[114.16766333333334,22.273544],[114.16766333333334,22.275656],[114.16517,22.275656],[114.16517,22.273544]]]}},{"type":"Feature","properties":{"id":"bld-wan-chai-006","heightM":148.6,"floors":39,"simulated":true},"geometry":{"type":"Polygon","coordinates":[[[114.16800333333335,22.273544],[114.17049666666666,22.273544],[114.17049666666666,22.275656],[114.16800333333335,22.275656],[114.16800333333335,22.273544]]]}},{"type":"Feature","properties":{"id":"bld-wan-chai-007","heightM":16.6,"floors":4,"simulated":true},"geometry":{"type":"Polygon","coordinates":[[[114.17083666666667,22.273544],[114.17333,22.273544],[114.17333,22.275656],[114.17083666666667,22.275656],[114.17083666666667,22.273544]]]}},{"type":"Feature","properties":{"id":"bld-wan-chai-008","heightM":50.9,"floors":23,"simulated":true},"geometry":{"type":"Polygon","coordinates":[[[114.17650333333334,22.273544],[114.17899666666666,22.273544],[114.17899666666666,22.275656],[114.17650333333334,22.275656],[114.17650333333334,22.273544]]]}},{"type":"Feature","properties":{"id":"bld-wan-chai-009","heightM":60.1,"floors":22,"simulated":true},"geometry":{"type":"Polygon","coordinates":[[[114.17933666666667,22.273544],[114.18183,22.273544],[114.18183,22.275656],[114.17933666666667,22.275656],[114.17933666666667,22.273544]]]}},{"type":"Feature","properties":{"id":"bld-wan-chai-010","heightM":52.0,"floors":23,"simulated":true},"geometry":{"type":"Polygon","coordinates":[[[114.16517,22.275944000000003],[114.16766333333334,22.275944000000003],[114.16766333333334,22.278056],[114.16517,22.278056],[114.16517,22.275944000000003]]]}},{"type":"Feature","properties":{"id":"bld-wan-chai-011","heightM":14.0,"floors":5,"simulated":true},"geometry":{"type":"Polygon","coordinates":[[[114.16800333333335,22.275944000000003],[114.17049666666666,22.275944000000003],[114.17049666666666,22.278056],[114.16800333333335,22.278056],[114.16800333333335,22.275944000000003]]]}},{"type":"Feature","properties":{"id":"bld-wan-chai-012","heightM":99.2,"floors":30,"simulated":true},"geometry":{"type":"Polygon","coordinates":[[[114.17083666666667,22.275944000000003],[114.17333,22.275944000000003],[114.17333,22.278056],[114.17083666666667,22.278056],[114.17083666666667,22.275944000000003]]]}},{"type":"Feature","properties":{"id":"bld-wan-chai-013","heightM":52.5,"floors":18,"simulated":true},"geometry":{"type":"Polygon","coordinates":[[[114.17367,22.275944000000003],[114.17616333333334,22.275944000000003],[114.17616333333334,22.278056],[114.17367,22.278056],[114.17367,22.275944000000003]]]}},{"type":"Feature","properties":{"id":"bld-wan-chai-014","heightM":145.8,"floors":37,"simulated":true},"geometry":{"type":"Polygon","coordinates":[[[114.17650333333334,22.275944000000003],[114.17899666666666,22.275944000000003],[114.17899666666666,22.278056],[114.17650333333334,22.278056],[114.17650333333334,22.275944000000003]]]}},{"type":"Feature","properties":{"id":"bld-wan-chai-015","heightM":69.3,"floors":23,"simulated":true},"geometry":{"type":"Polygon","coordinates":[[[114.17933666666667,22.275944000000003],[114.18183,22.275944000000003],[114.18183,22.278056],[114.17933666666667,22.278056],[114.17933666666667,22.275944000000003]]]}},{"type":"Feature","properties":{"id":"bld-wan-chai-016","heightM":50.2,"floors":17,"simulated":true},"geometry":{"type":"Polygon","coordinates":[[[114.16800333333335,22.280744000000002],[114.17049666666666,22.280744000000002],[114.17049666666666,22.282856000000002],[114.16800333333335,22.282856000000002],[114.16800333333335,22.280744000000002]]]}},{"type":"Feature","properties":{"id":"bld-wan-chai-017","heightM":103.0,"floors":34,"simulated":true},"geometry":{"type":"Polygon","coordinates":[[[114.17083666666667,22.280744000000002],[114.17333,22.280744000000002],[114.17333,22.282856000000002],[114.17083666666667,22.282856000000002],[114.17083666666667,22.280744000000002]]]}},{"type":"Feature","properties":{"id":"bld-wan-chai-018","heightM":151.5,"floors":29,"simulated":true},"geometry":{"type":"Polygon","coordinates":[[[114.17367,22.280744000000002],[114.17616333333334,22.280744000000002],[114.17616333333334,22.282856000000002],[114.17367,22.282856000000002],[114.17367,22.280744000000002]]]}},{"type":"Feature","properties":{"id":"bld-wan-chai-019","heightM":17.4,"floors":6,"simulated":true},"geometry":{"type":"Polygon","coordinates":[[[114.17650333333334,22.280744000000002],[114.17899666666666,22.280744000000002],[114.17899666666666,22.282856000000002],[114.17650333333334,22.282856000000002],[114.17650333333334,22.280744000000002]]]}},{"type":"Feature","properties":{"id":"bld-wan-chai-020","heightM":72.2,"floors":14,"simulated":true},"geometry":{"type":"Polygon","coordinates":[[[114.17933666666667,22.280744000000002],[114.18183,22.280744000000002],[114.18183,22.282856000000002],[114.17933666666667,22.282856000000002],[114.17933666666667,22.280744000000002]]]}}]}