{"type":"FeatureCollection","features":[{"type":"Feature","properties":{"id":"cool-central-western-00","districtId":"central-western","name":"Hong Kong City Hall","type":"library","coolingLevel":3,"openingHours":"08:00-22:00","capacityEstimate":600,"accessibility":true,"simulated":true},"geometry":{"type":"Point","coordinates":[114.13506274509804,22.28644117647059]}},{"type":"Feature","properties":{"id":"cool-central-western-01","districtId":"central-western","name":"Sheung Wan Sports Centre","type":"sports_centre","coolingLevel":3,"openingHours":"06:30-22:30","capacityEstimate":800,"accessibility":true,"simulated":true},"geometry":{"type":"Point","coordinates":[114.13308627450981,22.287363529411767]}},{"type":"Feature","properties":{"id":"cool-central-western-02","districtId":"central-western","name":"Blake Garden","type":"park","coolingLevel":2,"openingHours":"24 hours","capacityEstimate":300,"accessibility":true,"simulated":true},"geometry":{"type":"Point","coordinates":[114.13121960784314,22.289054509803922]}},{"type":"Feature","properties":{"id":"cool-central-western-03","districtId":"central-western","name":"Hollywood Road Park","type":"park","coolingLevel":2,"openingHours":"24 hours","capacityEstimate":200,"accessibility":true,"simulated":true},"geometry":{"type":"Point","coordinates":[114.1390156862745,22.28909294117647]}},{"type":"Feature","properties":{"id":"cool-central-western-04","districtId":"central-western","name":"Tai Kwun Centre","type":"cultural_venue","coolingLevel":3,"openingHours":"11:00-19:00","capacityEstimate":500,"accessibility":true,"simulated":true},"geometry":{"type":"Point","coordinates":[114.14362745098039,22.282329019607843]}},{"type":"Feature","properties":{"id":"cool-central-western-05","districtId":"central-western","name":"MTR Hong Kong Station concourse","type":"mtr_station","coolingLevel":2,"openingHours":"06:00-01:00","capacityEstimate":1500,"accessibility":true,"simulated":true},"geometry":{"type":"Point","coordinates":[114.14143137254902,22.288516470588235]}},{"type":"Feature","properties":{"id":"cool-central-western-06","districtId":"central-western","name":"MTR Central Station concourse","type":"mtr_station","coolingLevel":2,"openingHours":"05:30-01:30","capacityEstimate":2000,"accessibility":true,"simulated":true},"geometry":{"type":"Point","coordinates":[114.13654509803922,22.289823137254903]}},{"type":"Feature","properties":{"id":"cool-central-western-07","districtId":"central-western","name":"Sai Ying Pun Community Hall","type":"community_centre","coolingLevel":2,"openingHours":"09:00-21:00","capacityEstimate":250,"accessibility":true,"simulated":true},"geometry":{"type":"Point","coordinates":[114.14022352941176,22.288093725490196]}},{"type":"Feature","properties":{"id":"cool-kowloon-yau-tsim-00","districtId":"kowloon-yau-tsim","name":"Kowloon Park","type":"park","coolingLevel":3,"openingHours":"05:00-23:00","capacityEstimate":1200,"accessibility":true,"simulated":true},"geometry":{"type":"Point","coordinates":[114.16938666666667,22.306132156862745]}},{"type":"Feature","properties":{"id":"cool-kowloon-yau-tsim-01","districtId":"kowloon-yau-tsim","name":"Hong Kong Cultural Centre","type":"cultural_venue","coolingLevel":3,"openingHours":"10:00-21:30","capacityEstimate":700,"accessibility":true,"simulated":true},"geometry":{"type":"Point","coordinates":[114.17465725490196,22.303326666666667]}},{"type":"Feature","properties":{"id":"cool-kowloon-yau-tsim-02","districtId":"kowloon-yau-tsim","name":"Kowloon Public Library","type":"library","coolingLevel":3,"openingHours":"08:00-21:00","capacityEstimate":600,"accessibility":true,"simulated":true},"geometry":{"type":"Point","coordinates":[114.17377882352942,22.306132156862745]}},{"type":"Feature","properties":{"id":"cool-kowloon-yau-tsim-03","districtId":"kowloon-yau-tsim","name":"MTR Tsim Sha Tsui Station concourse","type":"mtr_station","coolingLevel":2,"openingHours":"05:45-01:15","capacityEstimate":2200,"accessibility":true,"simulated":true},"geometry":{"type":"Point","coordinates":[114.1763262745098,22.30117450980392]}},{"type":"Feature","properties":{"id":"cool-kowloon-yau-tsim-04","districtId":"kowloon-yau-tsim","name":"MTR Jordan Station concourse","type":"mtr_station","coolingLevel":2,"openingHours":"05:45-01:15","capacityEstimate":1500,"accessibility":true,"simulated":true},"geometry":{"type":"Point","coordinates":[114.17588705882353,22.298369019607843]}},{"type":"Feature","properties":{"id":"cool-kowloon-yau-tsim-05","districtId":"kowloon-yau-tsim","name":"King's Park","type":"park","coolingLevel":2,"openingHours":"24 hours","capacityEstimate":400,"accessibility":true,"simulated":true},"geometry":{"type":"Point","coordinates":[114.16833254901961,22.29844588235294]}},{"type":"Feature","properties":{"id":"cool-kowloon-yau-tsim-06","districtId":"kowloon-yau-tsim","name":"Temple Street Market (covered)","type":"market","coolingLevel":1,"openingHours":"18:00-23:30","capacityEstimate":350,"accessibility":false,"simulated":true},"geometry":{"type":"Point","coordinates":[114.17290039215686,22.30359568627451]}},{"type":"Feature","properties":{"id":"cool-kowloon-yau-tsim-07","districtId":"kowloon-yau-tsim","name":"Yau Ma Tei Community Centre","type":"community_centre","coolingLevel":2,"openingHours":"09:00-21:00","capacityEstimate":300,"accessibility":true,"simulated":true},"geometry":{"type":"Point","coordinates":[114.17610666666667,22.30778470588235]}},{"type":"Feature","properties":{"id":"cool-northern-metropolis-00","districtId":"northern-metropolis","name":"Conceptual District Library","type":"library","coolingLevel":3,"openingHours":"08:00-21:00","capacityEstimate":400,"accessibility":true,"simulated":true},"geometry":{"type":"Point","coordinates":[114.14451176470588,22.515960784313723]}},{"type":"Feature","properties":{"id":"cool-northern-metropolis-01","districtId":"northern-metropolis","name":"Conceptual Central Park","type":"park","coolingLevel":3,"openingHours":"24 hours","capacityEstimate":900,"accessibility":true,"simulated":true},"geometry":{"type":"Point","coordinates":[114.13932352941177,22.51513725490196]}},{"type":"Feature","properties":{"id":"cool-northern-metropolis-02","districtId":"northern-metropolis","name":"Conceptual Community Centre","type":"community_centre","coolingLevel":2,"openingHours":"09:00-21:00","capacityEstimate":300,"accessibility":true,"simulated":true},"geometry":{"type":"Point","coordinates":[114.14261764705883,22.508274509803922]}},{"type":"Feature","properties":{"id":"cool-northern-metropolis-03","districtId":"northern-metropolis","name":"Conceptual MTR Station concourse","type":"mtr_station","coolingLevel":2,"openingHours":"05:30-01:30","capacityEstimate":1200,"accessibility":true,"simulated":true},"geometry":{"type":"Point","coordinates":[114.1269705882353,22.519803921568627]}}]}