{"type":"FeatureCollection","features":[{"type":"Feature","properties":{"id":"cr-0001","districtId":"central-western","message":"Very hot","sentiment":"hot","anonymised":true,"simulated":true},"geometry":{"type":"Point","coordinates":[114.14580392156863,22.280854901960783]}},{"type":"Feature","properties":{"id":"cr-0002","districtId":"central-western","message":"Good place to cool down","sentiment":"cool","anonymised":true,"simulated":true},"geometry":{"type":"Point","coordinates":[114.13380392156863,22.2808]}},{"type":"Feature","properties":{"id":"cr-0003","districtId":"central-western","message":"Feels breezy here","sentiment":"hot","anonymised":true,"simulated":true},"geometry":{"type":"Point","coordinates":[114.14713725490196,22.284807843137255]}},{"type":"Feature","properties":{"id":"cr-0004","districtId":"central-western","message":"Very sunny here","sentiment":"cool","anonymised":true,"simulated":true},"geometry":{"type":"Point","coordinates":[114.13341176470588,22.27816470588235]}},{"type":"Feature","properties":{"id":"cr-0005","districtId":"central-western","message":"Shady walkway","sentiment":"hot","anonymised":true,"simulated":true},"geometry":{"type":"Point","coordinates":[114.13733333333333,22.28486274509804]}},{"type":"Feature","properties":{"id":"cr-0006","districtId":"central-western","message":"Feels breezy here","sentiment":"cool","anonymised":true,"simulated":true},"geometry":{"type":"Point","coordinates":[114.12839215686274,22.291396078431372]}},{"type":"Feature","properties":{"id":"cr-0007","districtId":"wan-chai","message":"Shady walkway","sentiment":"hot","anonymised":true,"simulated":true},"geometry":{"type":"Point","coordinates":[114.17540000000001,22.272364705882353]}},{"type":"Feature","properties":{"id":"cr-0008","districtId":"wan-chai","message":"Feels breezy here","sentiment":"cool","anonymised":true,"simulated":true},"geometry":{"type":"Point","coordinates":[114.1712,22.27895294117647]}},{"type":"Feature","properties":{"id":"cr-0009","districtId":"wan-chai","message":"Shady walkway","sentiment":"hot","anonymised":true,"simulated":true},"geometry":{"type":"Point","coordinates":[114.16980000000001,22.27749411764706]}},{"type":"Feature","properties":{"id":"cr-0010","districtId":"wan-chai","message":"Feels breezy here","sentiment":"cool","anonymised":true,"simulated":true},"geometry":{"type":"Point","coordinates":[114.16513333333334,22.27730588235294]}},{"type":"Feature","properties":{"id":"cr-0011","districtId":"wan-chai","message":"Feels breezy here","sentiment":"hot","anonymised":true,"simulated":true},"geometry":{"type":"Point","coordinates":[114.16873333333334,22.278811764705882]}},{"type":"Feature","properties":{"id":"cr-0012","districtId":"wan-chai","message":"Very sunny here","sentiment":"cool","anonymised":true,"simulated":true},"geometry":{"type":"Point","coordinates":[114.17273333333334,22.280364705882356]}},{"type":"Feature","properties":{"id":"cr-0013","districtId":"eastern","message":"Shady walkway","sentiment":"hot","anonymised":true,"simulated":true},"geometry":{"type":"Point","coordinates":[114.22660392156862,22.293352941176472]}},{"type":"Feature","properties":{"id":"cr-0014","districtId":"eastern","message":"Feels breezy here","sentiment":"cool","anonymised":true,"simulated":true},"geometry":{"type":"Point","coordinates":[114.2099137254902,22.29329411764706]}},{"type":"Feature","properties":{"id":"cr-0015","districtId":"eastern","message":"Wind tunnel effect","sentiment":"hot","anonymised":true,"simulated":true},"geometry":{"type":"Point","coordinates":[114.21380392156863,22.282176470588237]}},{"type":"Feature","properties":{"id":"cr-0016","districtId":"eastern","message":"Very hot","sentiment":"cool","anonymised":true,"simulated":true},"geometry":{"type":"Point","coordinates":[114.21305098039215,22.285705882352943]}},{"type":"Feature","properties":{"id":"cr-0017","districtId":"eastern","message":"No shade","sentiment":"hot","anonymised":true,"simulated":true},"geometry":{"type":"Point","coordinates":[114.2302431372549,22.291470588235295]}},{"type":"Feature","properties":{"id":"cr-0018","districtId":"eastern","message":"Wind tunnel effect","sentiment":"cool","anonymised":true,"simulated":true},"geometry":{"type":"Point","coordinates":[114.21204705882353,22.290470588235294]}},{"type":"Feature","properties":{"id":"cr-0019","districtId":"southern","message":"Feels breezy here","sentiment":"hot","anonymised":true,"simulated":true},"geometry":{"type":"Point","coordinates":[114.24245098039216,22.23243137254902]}},{"type":"Feature","properties":{"id":"cr-0020","districtId":"southern","message":"Shady walkway","sentiment":"cool","anonymised":true,"simulated":true},"geometry":{"type":"Point","coordinates":[114.18292156862745,22.215607843137256]}},{"type":"Feature","properties":{"id":"cr-0021","districtId":"southern","message":"Shady walkway","sentiment":"hot","anonymised":true,"simulated":true},"geometry":{"type":"Point","coordinates":[114.17525490196078,22.226823529411764]}},{"type":"Feature","properties":{"id":"cr-0022","districtId":"southern","message":"Feels breezy here","sentiment":"cool","anonymised":true,"simulated":true},"geometry":{"type":"Point","coordinates":[114.2388431372549,22.25486274509804]}},{"type":"Feature","properties":{"id":"cr-0023","districtId":"southern","message":"Very hot","sentiment":"hot","anonymised":true,"simulated":true},"geometry":{"type":"Point","coordinates":[114.24786274509805,22.259823529411765]}},{"type":"Feature","properties":{"id":"cr-0024","districtId":"southern","message":"Wind tunnel effect","sentiment":"cool","anonymised":true,"simulated":true},"geometry":{"type":"Point","coordinates":[114.22982352941176,22.224666666666668]}},{"type":"Feature","properties":{"id":"cr-0025","districtId":"kowloon-yau-tsim","message":"Very sunny here","sentiment":"hot","anonymised":true,"simulated":true},"geometry":{"type":"Point","coordinates":[114.17290980392157,22.29861568627451]}},{"type":"Feature","properties":{"id":"cr-0026","districtId":"kowloon-yau-tsim","message":"Very sunny here","sentiment":"cool","anonymised":true,"simulated":true},"geometry":{"type":"Point","coordinates":[114.17058823529412,22.29998039215686]}},{"type":"Feature","properties":{"id":"cr-0027","districtId":"kowloon-yau-tsim","message":"Wind tunnel effect","sentiment":"hot","anonymised":true,"simulated":true},"geometry":{"type":"Point","coordinates":[114.16876862745099,22.30350588235294]}},{"type":"Feature","properties":{"id":"cr-0028","districtId":"kowloon-yau-tsim","message":"Very sunny here","sentiment":"cool","anonymised":true,"simulated":true},"geometry":{"type":"Point","coordinates":[114.17861960784315,22.32386274509804]}},{"type":"Feature","properties":{"id":"cr-0029","districtId":"kowloon-yau-tsim","message":"Very hot","sentiment":"hot","anonymised":true,"simulated":true},"geometry":{"type":"Point","coordinates":[114.16506666666668,22.303392156862746]}},{"type":"Feature","properties":{"id":"cr-0030","districtId":"kowloon-yau-tsim","message":"Very sunny here","sentiment":"cool","anonymised":true,"simulated":true},"geometry":{"type":"Point","coordinates":[114.16644705882354,22.324772549019606]}},{"type":"Feature","properties":{"id":"cr-0031","districtId":"kowloon-sham-shui-po","message":"Very hot","sentiment":"hot","anonymised":true,"simulated":true},"geometry":{"type":"Point","coordinates":[114.14980392156862,22.337113725490195]}},{"type":"Feature","properties":{"id":"cr-0032","districtId":"kowloon-sham-shui-po","message":"Feels breezy here","sentiment":"cool","anonymised":true,"simulated":true},"geometry":{"type":"Point","coordinates":[114.1676862745098,22.33563137254902]}},{"type":"Feature","properties":{"id":"cr-0033","districtId":"kowloon-sham-shui-po","message":"Shady walkway","sentiment":"hot","anonymised":true,"simulated":true},"geometry":{"type":"Point","coordinates":[114.152,22.33283137254902]}},{"type":"Feature","properties":{"id":"cr-0034","districtId":"kowloon-sham-shui-po","message":"Very hot","sentiment":"cool","anonymised":true,"simulated":true},"geometry":{"type":"Point","coordinates":[114.15984313725491,22.330525490196077]}},{"type":"Feature","properties":{"id":"cr-0035","districtId":"kowloon-sham-shui-po","message":"Good place to cool down","sentiment":"hot","anonymised":true,"simulated":true},"geometry":{"type":"Point","coordinates":[114.16133333333333,22.34189019607843]}},{"type":"Feature","properties":{"id":"cr-0036","districtId":"kowloon-sham-shui-po","message":"Wind tunnel effect","sentiment":"cool","anonymised":true,"simulated":true},"geometry":{"type":"Point","coordinates":[114.15419607843137,22.32953725490196]}},{"type":"Feature","properties":{"id":"cr-0037","districtId":"kowloon-kowloon-city","message":"Feels breezy here","sentiment":"hot","anonymised":true,"simulated":true},"geometry":{"type":"Point","coordinates":[114.18603921568628,22.328517647058824]}},{"type":"Feature","properties":{"id":"cr-0038","districtId":"kowloon-kowloon-city","message":"Shady walkway","sentiment":"cool","anonymised":true,"simulated":true},"geometry":{"type":"Point","coordinates":[114.19975686274509,22.322658823529412]}},{"type":"Feature","properties":{"id":"cr-0039","districtId":"kowloon-kowloon-city","message":"Very sunny here","sentiment":"hot","anonymised":true,"simulated":true},"geometry":{"type":"Point","coordinates":[114.18448627450981,22.32294117647059]}},{"type":"Feature","properties":{"id":"cr-0040","districtId":"kowloon-kowloon-city","message":"Good place to cool down","sentiment":"cool","anonymised":true,"simulated":true},"geometry":{"type":"Point","coordinates":[114.20096470588236,22.31835294117647]}},{"type":"Feature","properties":{"id":"cr-0041","districtId":"kowloon-kowloon-city","message":"Very hot","sentiment":"hot","anonymised":true,"simulated":true},"geometry":{"type":"Point","coordinates":[114.19242352941177,22.333388235294116]}},{"type":"Feature","properties":{"id":"cr-0042","districtId":"kowloon-kowloon-city","message":"Very sunny here","sentiment":"cool","anonymised":true,"simulated":true},"geometry":{"type":"Point","coordinates":[114.19613333333334,22.329223529411763]}},{"type":"Feature","properties":{"id":"cr-0043","districtId":"kowloon-wong-tai-sin","message":"Shady walkway","sentiment":"hot","anonymised":true,"simulated":true},"geometry":{"type":"Point","coordinates":[114.20722352941176,22.348141176470588]}},{"type":"Feature","properties":{"id":"cr-0044","districtId":"kowloon-wong-tai-sin","message":"Feels breezy here","sentiment":"cool","anonymised":true,"simulated":true},"geometry":{"type":"Point","coordinates":[114.20221960784315,22.34595294117647]}},{"type":"Feature","properties":{"id":"cr-0045","districtId":"kowloon-wong-tai-sin","message":"Good place to cool down","sentiment":"hot","anonymised":true,"simulated":true},"geometry":{"type":"Point","coordinates":[114.20267450980393,22.34644705882353]}},{"type":"Feature","properties":{"id":"cr-0046","districtId":"kowloon-wong-tai-sin","message":"Shady walkway","sentiment":"cool","anonymised":true,"simulated":true},"geometry":{"type":"Point","coordinates":[114.19221176470589,22.34454117647059]}},{"type":"Feature","properties":{"id":"cr-0047","districtId":"kowloon-wong-tai-sin","message":"Very sunny here","sentiment":"hot","anonymised":true,"simulated":true},"geometry":{"type":"Point","coordinates":[114.1976705882353,22.344188235294116]}},{"type":"Feature","properties":{"id":"cr-0048","districtId":"kowloon-wong-tai-sin","message":"Feels breezy here","sentiment":"cool","anonymised":true,"simulated":true},"geometry":{"type":"Point","coordinates":[114.18345490196079,22.336282352941176]}},{"type":"Feature","properties":{"id":"cr-0049","districtId":"kowloon-kwun-tong","message":"Wind tunnel effect","sentiment":"hot","anonymised":true,"simulated":true},"geometry":{"type":"Point","coordinates":[114.22088235294117,22.323082352941178]}},{"type":"Feature","properties":{"id":"cr-0050","districtId":"kowloon-kwun-tong","message":"Feels breezy here","sentiment":"cool","anonymised":true,"simulated":true},"geometry":{"type":"Point","coordinates":[114.21696078431373,22.30774117647059]}},{"type":"Feature","properties":{"id":"cr-0051","districtId":"kowloon-kwun-tong","message":"Shady walkway","sentiment":"hot","anonymised":true,"simulated":true},"geometry":{"type":"Point","coordinates":[114.23264705882353,22.324023529411765]}},{"type":"Feature","properties":{"id":"cr-0052","districtId":"kowloon-kwun-tong","message":"Very sunny here","sentiment":"cool","anonymised":true,"simulated":true},"geometry":{"type":"Point","coordinates":[114.23823529411764,22.319035294117647]}},{"type":"Feature","properties":{"id":"cr-0053","districtId":"kowloon-kwun-tong","message":"Wind tunnel effect","sentiment":"hot","anonymised":true,"simulated":true},"geometry":{"type":"Point","coordinates":[114.22470588235294,22.30661176470588]}},{"type":"Feature","properties":{"id":"cr-0054","districtId":"kowloon-kwun-tong","message":"Very hot","sentiment":"cool","anonymised":true,"simulated":true},"geometry":{"type":"Point","coordinates":[114.22588235294117,22.30604705882353]}},{"type":"Feature","properties":{"id":"cr-0055","districtId":"kowloon-kwai-tsing","message":"Feels breezy here","sentiment":"hot","anonymised":true,"simulated":true},"geometry":{"type":"Point","coordinates":[114.12310196078431,22.354274509803922]}},{"type":"Feature","properties":{"id":"cr-0056","districtId":"kowloon-kwai-tsing","message":"Wind tunnel effect","sentiment":"cool","anonymised":true,"simulated":true},"geometry":{"type":"Point","coordinates":[114.12368235294117,22.37192156862745]}},{"type":"Feature","properties":{"id":"cr-0057","districtId":"kowloon-kwai-tsing","message":"Good place to cool down","sentiment":"hot","anonymised":true,"simulated":true},"geometry":{"type":"Point","coordinates":[114.12513333333334,22.358745098039215]}},{"type":"Feature","properties":{"id":"cr-0058","districtId":"kowloon-kwai-tsing","message":"Shady walkway","sentiment":"cool","anonymised":true,"simulated":true},"geometry":{"type":"Point","coordinates":[114.12542352941176,22.36305882352941]}},{"type":"Feature","properties":{"id":"cr-0059","districtId":"kowloon-kwai-tsing","message":"Very sunny here","sentiment":"hot","anonymised":true,"simulated":true},"geometry":{"type":"Point","coordinates":[114.10554509803922,22.368549019607844]}},{"type":"Feature","properties":{"id":"cr-0060","districtId":"kowloon-kwai-tsing","message":"Feels breezy here","sentiment":"cool","anonymised":true,"simulated":true},"geometry":{"type":"Point","coordinates":[114.10859215686274,22.364941176470587]}},{"type":"Feature","properties":{"id":"cr-0061","districtId":"kowloon-tsuen-wan","message":"Wind tunnel effect","sentiment":"hot","anonymised":true,"simulated":true},"geometry":{"type":"Point","coordinates":[114.13253333333333,22.380360784313726]}},{"type":"Feature","properties":{"id":"cr-0062","districtId":"kowloon-tsuen-wan","message":"Wind tunnel effect","sentiment":"cool","anonymised":true,"simulated":true},"geometry":{"type":"Point","coordinates":[114.1324,22.378203921568627]}},{"type":"Feature","properties":{"id":"cr-0063","districtId":"kowloon-tsuen-wan","message":"Feels breezy here","sentiment":"hot","anonymised":true,"simulated":true},"geometry":{"type":"Point","coordinates":[114.11426666666667,22.36258823529412]}},{"type":"Feature","properties":{"id":"cr-0064","districtId":"kowloon-tsuen-wan","message":"Good place to cool down","sentiment":"cool","anonymised":true,"simulated":true},"geometry":{"type":"Point","coordinates":[114.11746666666667,22.368713725490196]}},{"type":"Feature","properties":{"id":"cr-0065","districtId":"kowloon-tsuen-wan","message":"Feels breezy here","sentiment":"hot","anonymised":true,"simulated":true},"geometry":{"type":"Point","coordinates":[114.124,22.37777254901961]}},{"type":"Feature","properties":{"id":"cr-0066","districtId":"kowloon-tsuen-wan","message":"Feels breezy here","sentiment":"cool","anonymised":true,"simulated":true},"geometry":{"type":"Point","coordinates":[114.11466666666666,22.36465882352941]}},{"type":"Feature","properties":{"id":"cr-0067","districtId":"nt-tuen-mun","message":"Feels breezy here","sentiment":"hot","anonymised":true,"simulated":true},"geometry":{"type":"Point","coordinates":[113.95498039215686,22.38549019607843]}},{"type":"Feature","properties":{"id":"cr-0068","districtId":"nt-tuen-mun","message":"No shade","sentiment":"cool","anonymised":true,"simulated":true},"geometry":{"type":"Point","coordinates":[113.98031372549019,22.386176470588236]}},{"type":"Feature","properties":{"id":"cr-0069","districtId":"nt-tuen-mun","message":"Wind tunnel effect","sentiment":"hot","anonymised":true,"simulated":true},"geometry":{"type":"Point","coordinates":[113.98254901960784,22.394549019607844]}},{"type":"Feature","properties":{"id":"cr-0070","districtId":"nt-tuen-mun","message":"Very hot","sentiment":"cool","anonymised":true,"simulated":true},"geometry":{"type":"Point","coordinates":[113.98284705882352,22.409235294117646]}},{"type":"Feature","properties":{"id":"cr-0071","districtId":"nt-tuen-mun","message":"Very sunny here","sentiment":"hot","anonymised":true,"simulated":true},"geometry":{"type":"Point","coordinates":[113.9758431372549,22.39962745098039]}},{"type":"Feature","properties":{"id":"cr-0072","districtId":"nt-tuen-mun","message":"No shade","sentiment":"cool","anonymised":true,"simulated":true},"geometry":{"type":"Point","coordinates":[113.95915294117647,22.410607843137253]}},{"type":"Feature","properties":{"id":"cr-0073","districtId":"nt-yuen-long","message":"Wind tunnel effect","sentiment":"hot","anonymised":true,"simulated":true},"geometry":{"type":"Point","coordinates":[114.02082352941177,22.452494117647056]}},{"type":"Feature","properties":{"id":"cr-0074","districtId":"nt-yuen-long","message":"Feels breezy here","sentiment":"cool","anonymised":true,"simulated":true},"geometry":{"type":"Point","coordinates":[114.04129411764706,22.449435294117645]}},{"type":"Feature","properties":{"id":"cr-0075","districtId":"nt-yuen-long","message":"Wind tunnel effect","sentiment":"hot","anonymised":true,"simulated":true},"geometry":{"type":"Point","coordinates":[114.02129411764706,22.436078431372547]}},{"type":"Feature","properties":{"id":"cr-0076","districtId":"nt-yuen-long","message":"No shade","sentiment":"cool","anonymised":true,"simulated":true},"geometry":{"type":"Point","coordinates":[114.03482352941177,22.43536470588235]}},{"type":"Feature","properties":{"id":"cr-0077","districtId":"nt-yuen-long","message":"Shady walkway","sentiment":"hot","anonymised":true,"simulated":true},"geometry":{"type":"Point","coordinates":[114.03435294117646,22.45004705882353]}},{"type":"Feature","properties":{"id":"cr-0078","districtId":"nt-yuen-long","message":"Very sunny here","sentiment":"cool","anonymised":true,"simulated":true},"geometry":{"type":"Point","coordinates":[114.04623529411765,22.43505882352941]}},{"type":"Feature","properties":{"id":"cr-0079","districtId":"nt-tai-po","message":"Feels breezy here","sentiment":"hot","anonymised":true,"simulated":true},"geometry":{"type":"Point","coordinates":[114.15554901960785,22.45155294117647]}},{"type":"Feature","properties":{"id":"cr-0080","districtId":"nt-tai-po","message":"No shade","sentiment":"cool","anonymised":true,"simulated":true},"geometry":{"type":"Point","coordinates":[114.18588235294118,22.460964705882354]}},{"type":"Feature","properties":{"id":"cr-0081","districtId":"nt-tai-po","message":"Feels breezy here","sentiment":"hot","anonymised":true,"simulated":true},"geometry":{"type":"Point","coordinates":[114.17339215686275,22.449199999999998]}},{"type":"Feature","properties":{"id":"cr-0082","districtId":"nt-tai-po","message":"Wind tunnel effect","sentiment":"cool","anonymised":true,"simulated":true},"geometry":{"type":"Point","coordinates":[114.15843137254902,22.4412]}},{"type":"Feature","properties":{"id":"cr-0083","districtId":"nt-tai-po","message":"Wind tunnel effect","sentiment":"hot","anonymised":true,"simulated":true},"geometry":{"type":"Point","coordinates":[114.18299999999999,22.449576470588234]}},{"type":"Feature","properties":{"id":"cr-0084","districtId":"nt-tai-po","message":"Very sunny here","sentiment":"cool","anonymised":true,"simulated":true},"geometry":{"type":"Point","coordinates":[114.18149019607843,22.453341176470587]}},{"type":"Feature","properties":{"id":"cr-0085","districtId":"nt-sha-tin","message":"Very sunny here","sentiment":"hot","anonymised":true,"simulated":true},"geometry":{"type":"Point","coordinates":[114.18826666666666,22.38835294117647]}},{"type":"Feature","properties":{"id":"cr-0086","districtId":"nt-sha-tin","message":"Good place to cool down","sentiment":"cool","anonymised":true,"simulated":true},"geometry":{"type":"Point","coordinates":[114.18186666666666,22.37105882352941]}},{"type":"Feature","properties":{"id":"cr-0087","districtId":"nt-sha-tin","message":"Good place to cool down","sentiment":"hot","anonymised":true,"simulated":true},"geometry":{"type":"Point","coordinates":[114.19453333333334,22.374588235294116]}},{"type":"Feature","properties":{"id":"cr-0088","districtId":"nt-sha-tin","message":"Very hot","sentiment":"cool","anonymised":true,"simulated":true},"geometry":{"type":"Point","coordinates":[114.2076,22.39635294117647]}},{"type":"Feature","properties":{"id":"cr-0089","districtId":"nt-sha-tin","message":"Very hot","sentiment":"hot","anonymised":true,"simulated":true},"geometry":{"type":"Point","coordinates":[114.20973333333333,22.38176470588235]}},{"type":"Feature","properties":{"id":"cr-0090","districtId":"nt-sha-tin","message":"Good place to cool down","sentiment":"cool","anonymised":true,"simulated":true},"geometry":{"type":"Point","coordinates":[114.21186666666667,22.388117647058824]}},{"type":"Feature","properties":{"id":"cr-0091","districtId":"nt-sai-kung","message":"Good place to cool down","sentiment":"hot","anonymised":true,"simulated":true},"geometry":{"type":"Point","coordinates":[114.28482352941177,22.364952941176472]}},{"type":"Feature","properties":{"id":"cr-0092","districtId":"nt-sai-kung","message":"Good place to cool down","sentiment":"cool","anonymised":true,"simulated":true},"geometry":{"type":"Point","coordinates":[114.26581176470589,22.39457254901961]}},{"type":"Feature","properties":{"id":"cr-0093","districtId":"nt-sai-kung","message":"Very sunny here","sentiment":"hot","anonymised":true,"simulated":true},"geometry":{"type":"Point","coordinates":[114.28331764705882,22.381368627450982]}},{"type":"Feature","properties":{"id":"cr-0094","districtId":"nt-sai-kung","message":"Feels breezy here","sentiment":"cool","anonymised":true,"simulated":true},"geometry":{"type":"Point","coordinates":[114.29498823529411,22.39243137254902]}},{"type":"Feature","properties":{"id":"cr-0095","districtId":"nt-sai-kung","message":"Feels breezy here","sentiment":"hot","anonymised":true,"simulated":true},"geometry":{"type":"Point","coordinates":[114.28049411764707,22.366380392156863]}},{"type":"Feature","properties":{"id":"cr-0096","districtId":"nt-sai-kung","message":"Wind tunnel effect","sentiment":"cool","anonymised":true,"simulated":true},"geometry":{"type":"Point","coordinates":[114.29385882352942,22.327125490196078]}},{"type":"Feature","properties":{"id":"cr-0097","districtId":"nt-north","message":"Very sunny here","sentiment":"hot","anonymised":true,"simulated":true},"geometry":{"type":"Point","coordinates":[114.16643137254903,22.521129411764704]}},{"type":"Feature","properties":{"id":"cr-0098","districtId":"nt-north","message":"Shady walkway","sentiment":"cool","anonymised":true,"simulated":true},"geometry":{"type":"Point","coordinates":[114.16752941176472,22.49016470588235]}},{"type":"Feature","properties":{"id":"cr-0099","districtId":"nt-north","message":"Good place to cool down","sentiment":"hot","anonymised":true,"simulated":true},"geometry":{"type":"Point","coordinates":[114.13003921568628,22.51750588235294]}},{"type":"Feature","properties":{"id":"cr-0100","districtId":"nt-north","message":"Shady walkway","sentiment":"cool","anonymised":true,"simulated":true},"geometry":{"type":"Point","coordinates":[114.13050980392157,22.530682352941177]}},{"type":"Feature","properties":{"id":"cr-0101","districtId":"nt-north","message":"Good place to cool down","sentiment":"hot","anonymised":true,"simulated":true},"geometry":{"type":"Point","coordinates":[114.14070588235295,22.52475294117647]}},{"type":"Feature","properties":{"id":"cr-0102","districtId":"nt-north","message":"Good place to cool down","sentiment":"cool","anonymised":true,"simulated":true},"geometry":{"type":"Point","coordinates":[114.16313725490197,22.49296470588235]}},{"type":"Feature","properties":{"id":"cr-0103","districtId":"nt-islands","message":"Shady walkway","sentiment":"hot","anonymised":true,"simulated":true},"geometry":{"type":"Point","coordinates":[113.96660784313727,22.302529411764706]}},{"type":"Feature","properties":{"id":"cr-0104","districtId":"nt-islands","message":"Very sunny here","sentiment":"cool","anonymised":true,"simulated":true},"geometry":{"type":"Point","coordinates":[113.9479411764706,22.312882352941177]}},{"type":"Feature","properties":{"id":"cr-0105","districtId":"nt-islands","message":"Wind tunnel effect","sentiment":"hot","anonymised":true,"simulated":true},"geometry":{"type":"Point","coordinates":[113.97154901960785,22.28535294117647]}},{"type":"Feature","properties":{"id":"cr-0106","districtId":"nt-islands","message":"Wind tunnel effect","sentiment":"cool","anonymised":true,"simulated":true},"geometry":{"type":"Point","coordinates":[113.96386274509804,22.255941176470586]}},{"type":"Feature","properties":{"id":"cr-0107","districtId":"nt-islands","message":"Wind tunnel effect","sentiment":"hot","anonymised":true,"simulated":true},"geometry":{"type":"Point","coordinates":[113.92433333333334,22.25970588235294]}},{"type":"Feature","properties":{"id":"cr-0108","districtId":"nt-islands","message":"Very sunny here","sentiment":"cool","anonymised":true,"simulated":true},"geometry":{"type":"Point","coordinates":[114.03303921568629,22.303705882352943]}},{"type":"Feature","properties":{"id":"cr-0109","districtId":"northern-metropolis","message":"Very hot","sentiment":"hot","anonymised":true,"simulated":true},"geometry":{"type":"Point","coordinates":[114.13517647058823,22.515980392156862]}},{"type":"Feature","properties":{"id":"cr-0110","districtId":"northern-metropolis","message":"Very sunny here","sentiment":"cool","anonymised":true,"simulated":true},"geometry":{"type":"Point","coordinates":[114.12752941176471,22.508607843137256]}},{"type":"Feature","properties":{"id":"cr-0111","districtId":"northern-metropolis","message":"Shady walkway","sentiment":"hot","anonymised":true,"simulated":true},"geometry":{"type":"Point","coordinates":[114.14929411764706,22.52178431372549]}},{"type":"Feature","properties":{"id":"cr-0112","districtId":"northern-metropolis","message":"Wind tunnel effect","sentiment":"cool","anonymised":true,"simulated":true},"geometry":{"type":"Point","coordinates":[114.146,22.52162745098039]}},{"type":"Feature","properties":{"id":"cr-0113","districtId":"northern-metropolis","message":"No shade","sentiment":"hot","anonymised":true,"simulated":true},"geometry":{"type":"Point","coordinates":[114.14623529411766,22.52311764705882]}},{"type":"Feature","properties":{"id":"cr-0114","districtId":"northern-metropolis","message":"Very hot","sentiment":"cool","anonymised":true,"simulated":true},"geometry":{"type":"Point","coordinates":[114.14929411764706,22.51056862745098]}}]}