{"type":"FeatureCollection","features":[{"type":"Feature","properties":{"id":"central-western","name":"Central & Western","nameZh":"\u4e2d\u897f\u5340","kind":"existing","description":"Dense historic district on Hong Kong Island with steep terrain, narrow streets and limited park space. Simulated district used for citizen cool-route and heat-map demonstrations."},"geometry":{"type":"Polygon","coordinates":[[[114.128,22.278],[114.148,22.278],[114.148,22.292],[114.128,22.292],[114.128,22.278]]]}},{"type":"Feature","properties":{"id":"kowloon-yau-tsim","name":"Yau Tsim Mong (Kowloon)","nameZh":"\u6cb9\u5c16\u65fa\u5340","kind":"existing","description":"Extremely dense Kowloon urban core. Simulated district used for street-canyon heat demonstrations."},"geometry":{"type":"Polygon","coordinates":[[[114.164,22.296],[114.18,22.296],[114.18,22.31],[114.164,22.31],[114.164,22.296]]]}},{"type":"Feature","properties":{"id":"northern-metropolis","name":"Northern Metropolis (Conceptual District)","nameZh":"\u5317\u90e8\u90fd\u6703\u5340\uff08\u6982\u5ff5\u60c5\u5883\uff09","kind":"conceptual","description":"A CONCEPTUAL / SIMULATED new-district scenario inspired by the Northern Metropolis development area. This is NOT an official plan, NOT a prediction about the real Northern Metropolis, and all values are simulated for demonstration of planning-stage heat assessment."},"geometry":{"type":"Polygon","coordinates":[[[114.12,22.505],[114.15,22.505],[114.15,22.525],[114.12,22.525],[114.12,22.505]]]}}]}