{"type":"FeatureCollection","features":[{"type":"Feature","properties":{"id":"lu-wan-chai-00-00","class":"built_up","vegetationFraction":0.093,"pavedFraction":0.79,"waterFraction":0.003,"simulated":true},"geometry":{"type":"Polygon","coordinates":[[[114.165,22.271],[114.1666,22.271],[114.1666,22.2726],[114.165,22.2726],[114.165,22.271]]]}},{"type":"Feature","properties":{"id":"lu-wan-chai-00-01","class":"built_up","vegetationFraction":0.156,"pavedFraction":0.597,"waterFraction":0.04,"simulated":true},"geometry":{"type":"Polygon","coordinates":[[[114.1666,22.271],[114.1682,22.271],[114.1682,22.2726],[114.1666,22.2726],[114.1666,22.271]]]}},{"type":"Feature","properties":{"id":"lu-wan-chai-00-02","class":"built_up","vegetationFraction":0.104,"pavedFraction":0.816,"waterFraction":0.012,"simulated":true},"geometry":{"type":"Polygon","coordinates":[[[114.1682,22.271],[114.1698,22.271],[114.1698,22.2726],[114.1682,22.2726],[114.1682,22.271]]]}},{"type":"Feature","properties":{"id":"lu-wan-chai-00-03","class":"built_up","vegetationFraction":0.155,"pavedFraction":0.669,"waterFraction":0.049,"simulated":true},"geometry":{"type":"Polygon","coordinates":[[[114.1698,22.271],[114.17139999999999,22.271],[114.17139999999999,22.2726],[114.1698,22.2726],[114.1698,22.271]]]}},{"type":"Feature","properties":{"id":"lu-wan-chai-00-04","class":"built_up","vegetationFraction":0.061,"pavedFraction":0.649,"waterFraction":0.023,"simulated":true},"geometry":{"type":"Polygon","coordinates":[[[114.17139999999999,22.271],[114.17299999999999,22.271],[114.17299999999999,22.2726],[114.17139999999999,22.2726],[114.17139999999999,22.271]]]}},{"type":"Feature","properties":{"id":"lu-wan-chai-00-05","class":"built_up","vegetationFraction":0.152,"pavedFraction":0.724,"waterFraction":0.028,"simulated":true},"geometry":{"type":"Polygon","coordinates":[[[114.17299999999999,22.271],[114.17459999999998,22.271],[114.17459999999998,22.2726],[114.17299999999999,22.2726],[114.17299999999999,22.271]]]}},{"type":"Feature","properties":{"id":"lu-wan-chai-00-06","class":"built_up","vegetationFraction":0.102,"pavedFraction":0.812,"waterFraction":0.04,"simulated":true},"geometry":{"type":"Polygon","coordinates":[[[114.17459999999998,22.271],[114.17619999999998,22.271],[114.17619999999998,22.2726],[114.17459999999998,22.2726],[114.17459999999998,22.271]]]}},{"type":"Feature","properties":{"id":"lu-wan-chai-00-07","class":"built_up","vegetationFraction":0.172,"pavedFraction":0.775,"waterFraction":0.0,"simulated":true},"geometry":{"type":"Polygon","coordinates":[[[114.17619999999998,22.271],[114.17779999999998,22.271],[114.17779999999998,22.2726],[114.17619999999998,22.2726],[114.17619999999998,22.271]]]}},{"type":"Feature","properties":{"id":"lu-wan-chai-00-08","class":"built_up","vegetationFraction":0.113,"pavedFraction":0.685,"waterFraction":0.024,"simulated":true},"geometry":{"type":"Polygon","coordinates":[[[114.17779999999998,22.271],[114.17939999999997,22.271],[114.17939999999997,22.2726],[114.17779999999998,22.2726],[114.17779999999998,22.271]]]}},{"type":"Feature","properties":{"id":"lu-wan-chai-00-09","class":"built_up","vegetationFraction":0.163,"pavedFraction":0.615,"waterFraction":0.003,"simulated":true},"geometry":{"type":"Polygon","coordinates":[[[114.17939999999997,22.271],[114.18099999999997,22.271],[114.18099999999997,22.2726],[114.17939999999997,22.2726],[114.17939999999997,22.271]]]}},{"type":"Feature","properties":{"id":"lu-wan-chai-00-10","class":"built_up","vegetationFraction":0.109,"pavedFraction":0.599,"waterFraction":0.04,"simulated":true},"geometry":{"type":"Polygon","coordinates":[[[114.18099999999997,22.271],[114.18259999999997,22.271],[114.18259999999997,22.2726],[114.18099999999997,22.2726],[114.18099999999997,22.271]]]}},{"type":"Feature","properties":{"id":"lu-wan-chai-01-00","class":"built_up","vegetationFraction":0.131,"pavedFraction":0.785,"waterFraction":0.018,"simulated":true},"geometry":{"type":"Polygon","coordinates":[[[114.165,22.2726],[114.1666,22.2726],[114.1666,22.2742],[114.165,22.2742],[114.165,22.2726]]]}},{"type":"Feature","properties":{"id":"lu-wan-chai-01-01","class":"built_up","vegetationFraction":0.122,"pavedFraction":0.681,"waterFraction":0.047,"simulated":true},"geometry":{"type":"Polygon","coordinates":[[[114.1666,22.2726],[114.1682,22.2726],[114.1682,22.2742],[114.1666,22.2742],[114.1666,22.2726]]]}},{"type":"Feature","properties":{"id":"lu-wan-chai-01-02","class":"built_up","vegetationFraction":0.097,"pavedFraction":0.775,"waterFraction":0.043,"simulated":true},"geometry":{"type":"Polygon","coordinates":[[[114.1682,22.2726],[114.1698,22.2726],[114.1698,22.2742],[114.1682,22.2742],[114.1682,22.2726]]]}},{"type":"Feature","properties":{"id":"lu-wan-chai-01-03","class":"built_up","vegetationFraction":0.067,"pavedFraction":0.846,"waterFraction":0.028,"simulated":true},"geometry":{"type":"Polygon","coordinates":[[[114.1698,22.2726],[114.17139999999999,22.2726],[114.17139999999999,22.2742],[114.1698,22.2742],[114.1698,22.2726]]]}},{"type":"Feature","properties":{"id":"lu-wan-chai-01-04","class":"built_up","vegetationFraction":0.123,"pavedFraction":0.738,"waterFraction":0.009,"simulated":true},"geometry":{"type":"Polygon","coordinates":[[[114.17139999999999,22.2726],[114.17299999999999,22.2726],[114.17299999999999,22.2742],[114.17139999999999,22.2742],[114.17139999999999,22.2726]]]}},{"type":"Feature","properties":{"id":"lu-wan-chai-01-05","class":"built_up","vegetationFraction":0.158,"pavedFraction":0.697,"waterFraction":0.057,"simulated":true},"geometry":{"type":"Polygon","coordinates":[[[114.17299999999999,22.2726],[114.17459999999998,22.2726],[114.17459999999998,22.2742],[114.17299999999999,22.2742],[114.17299999999999,22.2726]]]}},{"type":"Feature","properties":{"id":"lu-wan-chai-01-06","class":"built_up","vegetationFraction":0.13,"pavedFraction":0.634,"waterFraction":0.011,"simulated":true},"geometry":{"type":"Polygon","coordinates":[[[114.17459999999998,22.2726],[114.17619999999998,22.2726],[114.17619999999998,22.2742],[114.17459999999998,22.2742],[114.17459999999998,22.2726]]]}},{"type":"Feature","properties":{"id":"lu-wan-chai-01-07","class":"built_up","vegetationFraction":0.105,"pavedFraction":0.839,"waterFraction":0.02,"simulated":true},"geometry":{"type":"Polygon","coordinates":[[[114.17619999999998,22.2726],[114.17779999999998,22.2726],[114.17779999999998,22.2742],[114.17619999999998,22.2742],[114.17619999999998,22.2726]]]}},{"type":"Feature","properties":{"id":"lu-wan-chai-01-08","class":"built_up","vegetationFraction":0.061,"pavedFraction":0.608,"waterFraction":0.013,"simulated":true},"geometry":{"type":"Polygon","coordinates":[[[114.17779999999998,22.2726],[114.17939999999997,22.2726],[114.17939999999997,22.2742],[114.17779999999998,22.2742],[114.17779999999998,22.2726]]]}},{"type":"Feature","properties":{"id":"lu-wan-chai-01-09","class":"built_up","vegetationFraction":0.109,"pavedFraction":0.724,"waterFraction":0.037,"simulated":true},"geometry":{"type":"Polygon","coordinates":[[[114.17939999999997,22.2726],[114.18099999999997,22.2726],[114.18099999999997,22.2742],[114.17939999999997,22.2742],[114.17939999999997,22.2726]]]}},{"type":"Feature","properties":{"id":"lu-wan-chai-01-10","class":"built_up","vegetationFraction":0.147,"pavedFraction":0.834,"waterFraction":0.044,"simulated":true},"geometry":{"type":"Polygon","coordinates":[[[114.18099999999997,22.2726],[114.18259999999997,22.2726],[114.18259999999997,22.2742],[114.18099999999997,22.2742],[114.18099999999997,22.2726]]]}},{"type":"Feature","properties":{"id":"lu-wan-chai-02-00","class":"built_up","vegetationFraction":0.174,"pavedFraction":0.563,"waterFraction":0.048,"simulated":true},"geometry":{"type":"Polygon","coordinates":[[[114.165,22.2742],[114.1666,22.2742],[114.1666,22.2758],[114.165,22.2758],[114.165,22.2742]]]}},{"type":"Feature","properties":{"id":"lu-wan-chai-02-01","class":"built_up","vegetationFraction":0.128,"pavedFraction":0.582,"waterFraction":0.044,"simulated":true},"geometry":{"type":"Polygon","coordinates":[[[114.1666,22.2742],[114.1682,22.2742],[114.1682,22.2758],[114.1666,22.2758],[114.1666,22.2742]]]}},{"type":"Feature","properties":{"id":"lu-wan-chai-02-02","class":"green_space","vegetationFraction":0.78,"pavedFraction":0.1,"waterFraction":0.034,"simulated":true},"geometry":{"type":"Polygon","coordinates":[[[114.1682,22.2742],[114.1698,22.2742],[114.1698,22.2758],[114.1682,22.2758],[114.1682,22.2742]]]}},{"type":"Feature","properties":{"id":"lu-wan-chai-02-03","class":"green_space","vegetationFraction":0.78,"pavedFraction":0.1,"waterFraction":0.028,"simulated":true},"geometry":{"type":"Polygon","coordinates":[[[114.1698,22.2742],[114.17139999999999,22.2742],[114.17139999999999,22.2758],[114.1698,22.2758],[114.1698,22.2742]]]}},{"type":"Feature","properties":{"id":"lu-wan-chai-02-04","class":"green_space","vegetationFraction":0.78,"pavedFraction":0.1,"waterFraction":0.025,"simulated":true},"geometry":{"type":"Polygon","coordinates":[[[114.17139999999999,22.2742],[114.17299999999999,22.2742],[114.17299999999999,22.2758],[114.17139999999999,22.2758],[114.17139999999999,22.2742]]]}},{"type":"Feature","properties":{"id":"lu-wan-chai-02-05","class":"built_up","vegetationFraction":0.093,"pavedFraction":0.85,"waterFraction":0.014,"simulated":true},"geometry":{"type":"Polygon","coordinates":[[[114.17299999999999,22.2742],[114.17459999999998,22.2742],[114.17459999999998,22.2758],[114.17299999999999,22.2758],[114.17299999999999,22.2742]]]}},{"type":"Feature","properties":{"id":"lu-wan-chai-02-06","class":"built_up","vegetationFraction":0.104,"pavedFraction":0.664,"waterFraction":0.02,"simulated":true},"geometry":{"type":"Polygon","coordinates":[[[114.17459999999998,22.2742],[114.17619999999998,22.2742],[114.17619999999998,22.2758],[114.17459999999998,22.2758],[114.17459999999998,22.2742]]]}},{"type":"Feature","properties":{"id":"lu-wan-chai-02-07","class":"built_up","vegetationFraction":0.141,"pavedFraction":0.799,"waterFraction":0.024,"simulated":true},"geometry":{"type":"Polygon","coordinates":[[[114.17619999999998,22.2742],[114.17779999999998,22.2742],[114.17779999999998,22.2758],[114.17619999999998,22.2758],[114.17619999999998,22.2742]]]}},{"type":"Feature","properties":{"id":"lu-wan-chai-02-08","class":"built_up","vegetationFraction":0.092,"pavedFraction":0.836,"waterFraction":0.016,"simulated":true},"geometry":{"type":"Polygon","coordinates":[[[114.17779999999998,22.2742],[114.17939999999997,22.2742],[114.17939999999997,22.2758],[114.17779999999998,22.2758],[114.17779999999998,22.2742]]]}},{"type":"Feature","properties":{"id":"lu-wan-chai-02-09","class":"built_up","vegetationFraction":0.148,"pavedFraction":0.581,"waterFraction":0.029,"simulated":true},"geometry":{"type":"Polygon","coordinates":[[[114.17939999999997,22.2742],[114.18099999999997,22.2742],[114.18099999999997,22.2758],[114.17939999999997,22.2758],[114.17939999999997,22.2742]]]}},{"type":"Feature","properties":{"id":"lu-wan-chai-02-10","class":"built_up","vegetationFraction":0.065,"pavedFraction":0.604,"waterFraction":0.018,"simulated":true},"geometry":{"type":"Polygon","coordinates":[[[114.18099999999997,22.2742],[114.18259999999997,22.2742],[114.18259999999997,22.2758],[114.18099999999997,22.2758],[114.18099999999997,22.2742]]]}},{"type":"Feature","properties":{"id":"lu-wan-chai-03-00","class":"built_up","vegetationFraction":0.126,"pavedFraction":0.614,"waterFraction":0.015,"simulated":true},"geometry":{"type":"Polygon","coordinates":[[[114.165,22.2758],[114.1666,22.2758],[114.1666,22.2774],[114.165,22.2774],[114.165,22.2758]]]}},{"type":"Feature","properties":{"id":"lu-wan-chai-03-01","class":"built_up","vegetationFraction":0.067,"pavedFraction":0.841,"waterFraction":0.016,"simulated":true},"geometry":{"type":"Polygon","coordinates":[[[114.1666,22.2758],[114.1682,22.2758],[114.1682,22.2774],[114.1666,22.2774],[114.1666,22.2758]]]}},{"type":"Feature","properties":{"id":"lu-wan-chai-03-02","class":"green_space","vegetationFraction":0.78,"pavedFraction":0.1,"waterFraction":0.046,"simulated":true},"geometry":{"type":"Polygon","coordinates":[[[114.1682,22.2758],[114.1698,22.2758],[114.1698,22.2774],[114.1682,22.2774],[114.1682,22.2758]]]}},{"type":"Feature","properties":{"id":"lu-wan-chai-03-03","class":"green_space","vegetationFraction":0.78,"pavedFraction":0.1,"waterFraction":0.03,"simulated":true},"geometry":{"type":"Polygon","coordinates":[[[114.1698,22.2758],[114.17139999999999,22.2758],[114.17139999999999,22.2774],[114.1698,22.2774],[114.1698,22.2758]]]}},{"type":"Feature","properties":{"id":"lu-wan-chai-03-04","class":"green_space","vegetationFraction":0.78,"pavedFraction":0.1,"waterFraction":0.012,"simulated":true},"geometry":{"type":"Polygon","coordinates":[[[114.17139999999999,22.2758],[114.17299999999999,22.2758],[114.17299999999999,22.2774],[114.17139999999999,22.2774],[114.17139999999999,22.2758]]]}},{"type":"Feature","properties":{"id":"lu-wan-chai-03-05","class":"built_up","vegetationFraction":0.087,"pavedFraction":0.554,"waterFraction":0.014,"simulated":true},"geometry":{"type":"Polygon","coordinates":[[[114.17299999999999,22.2758],[114.17459999999998,22.2758],[114.17459999999998,22.2774],[114.17299999999999,22.2774],[114.17299999999999,22.2758]]]}},{"type":"Feature","properties":{"id":"lu-wan-chai-03-06","class":"built_up","vegetationFraction":0.144,"pavedFraction":0.591,"waterFraction":0.012,"simulated":true},"geometry":{"type":"Polygon","coordinates":[[[114.17459999999998,22.2758],[114.17619999999998,22.2758],[114.17619999999998,22.2774],[114.17459999999998,22.2774],[114.17459999999998,22.2758]]]}},{"type":"Feature","properties":{"id":"lu-wan-chai-03-07","class":"built_up","vegetationFraction":0.079,"pavedFraction":0.741,"waterFraction":0.004,"simulated":true},"geometry":{"type":"Polygon","coordinates":[[[114.17619999999998,22.2758],[114.17779999999998,22.2758],[114.17779999999998,22.2774],[114.17619999999998,22.2774],[114.17619999999998,22.2758]]]}},{"type":"Feature","properties":{"id":"lu-wan-chai-03-08","class":"built_up","vegetationFraction":0.14,"pavedFraction":0.736,"waterFraction":0.056,"simulated":true},"geometry":{"type":"Polygon","coordinates":[[[114.17779999999998,22.2758],[114.17939999999997,22.2758],[114.17939999999997,22.2774],[114.17779999999998,22.2774],[114.17779999999998,22.2758]]]}},{"type":"Feature","properties":{"id":"lu-wan-chai-03-09","class":"built_up","vegetationFraction":0.18,"pavedFraction":0.678,"waterFraction":0.019,"simulated":true},"geometry":{"type":"Polygon","coordinates":[[[114.17939999999997,22.2758],[114.18099999999997,22.2758],[114.18099999999997,22.2774],[114.17939999999997,22.2774],[114.17939999999997,22.2758]]]}},{"type":"Feature","properties":{"id":"lu-wan-chai-03-10","class":"built_up","vegetationFraction":0.061,"pavedFraction":0.709,"waterFraction":0.047,"simulated":true},"geometry":{"type":"Polygon","coordinates":[[[114.18099999999997,22.2758],[114.18259999999997,22.2758],[114.18259999999997,22.2774],[114.18099999999997,22.2774],[114.18099999999997,22.2758]]]}},{"type":"Feature","properties":{"id":"lu-wan-chai-04-00","class":"built_up","vegetationFraction":0.169,"pavedFraction":0.671,"waterFraction":0.045,"simulated":true},"geometry":{"type":"Polygon","coordinates":[[[114.165,22.2774],[114.1666,22.2774],[114.1666,22.279],[114.165,22.279],[114.165,22.2774]]]}},{"type":"Feature","properties":{"id":"lu-wan-chai-04-01","class":"built_up","vegetationFraction":0.105,"pavedFraction":0.561,"waterFraction":0.015,"simulated":true},"geometry":{"type":"Polygon","coordinates":[[[114.1666,22.2774],[114.1682,22.2774],[114.1682,22.279],[114.1666,22.279],[114.1666,22.2774]]]}},{"type":"Feature","properties":{"id":"lu-wan-chai-04-02","class":"built_up","vegetationFraction":0.08,"pavedFraction":0.597,"waterFraction":0.034,"simulated":true},"geometry":{"type":"Polygon","coordinates":[[[114.1682,22.2774],[114.1698,22.2774],[114.1698,22.279],[114.1682,22.279],[114.1682,22.2774]]]}},{"type":"Feature","properties":{"id":"lu-wan-chai-04-03","class":"built_up","vegetationFraction":0.123,"pavedFraction":0.808,"waterFraction":0.01,"simulated":true},"geometry":{"type":"Polygon","coordinates":[[[114.1698,22.2774],[114.17139999999999,22.2774],[114.17139999999999,22.279],[114.1698,22.279],[114.1698,22.2774]]]}},{"type":"Feature","properties":{"id":"lu-wan-chai-04-04","class":"built_up","vegetationFraction":0.121,"pavedFraction":0.728,"waterFraction":0.04,"simulated":true},"geometry":{"type":"Polygon","coordinates":[[[114.17139999999999,22.2774],[114.17299999999999,22.2774],[114.17299999999999,22.279],[114.17139999999999,22.279],[114.17139999999999,22.2774]]]}},{"type":"Feature","properties":{"id":"lu-wan-chai-04-05","class":"built_up","vegetationFraction":0.062,"pavedFraction":0.69,"waterFraction":0.048,"simulated":true},"geometry":{"type":"Polygon","coordinates":[[[114.17299999999999,22.2774],[114.17459999999998,22.2774],[114.17459999999998,22.279],[114.17299999999999,22.279],[114.17299999999999,22.2774]]]}},{"type":"Feature","properties":{"id":"lu-wan-chai-04-06","class":"built_up","vegetationFraction":0.154,"pavedFraction":0.597,"waterFraction":0.013,"simulated":true},"geometry":{"type":"Polygon","coordinates":[[[114.17459999999998,22.2774],[114.17619999999998,22.2774],[114.17619999999998,22.279],[114.17459999999998,22.279],[114.17459999999998,22.2774]]]}},{"type":"Feature","properties":{"id":"lu-wan-chai-04-07","class":"built_up","vegetationFraction":0.175,"pavedFraction":0.559,"waterFraction":0.027,"simulated":true},"geometry":{"type":"Polygon","coordinates":[[[114.17619999999998,22.2774],[114.17779999999998,22.2774],[114.17779999999998,22.279],[114.17619999999998,22.279],[114.17619999999998,22.2774]]]}},{"type":"Feature","properties":{"id":"lu-wan-chai-04-08","class":"built_up","vegetationFraction":0.145,"pavedFraction":0.646,"waterFraction":0.027,"simulated":true},"geometry":{"type":"Polygon","coordinates":[[[114.17779999999998,22.2774],[114.17939999999997,22.2774],[114.17939999999997,22.279],[114.17779999999998,22.279],[114.17779999999998,22.2774]]]}},{"type":"Feature","properties":{"id":"lu-wan-chai-04-09","class":"built_up","vegetationFraction":0.061,"pavedFraction":0.786,"waterFraction":0.02,"simulated":true},"geometry":{"type":"Polygon","coordinates":[[[114.17939999999997,22.2774],[114.18099999999997,22.2774],[114.18099999999997,22.279],[114.17939999999997,22.279],[114.17939999999997,22.2774]]]}},{"type":"Feature","properties":{"id":"lu-wan-chai-04-10","class":"built_up","vegetationFraction":0.098,"pavedFraction":0.657,"waterFraction":0.041,"simulated":true},"geometry":{"type":"Polygon","coordinates":[[[114.18099999999997,22.2774],[114.18259999999997,22.2774],[114.18259999999997,22.279],[114.18099999999997,22.279],[114.18099999999997,22.2774]]]}},{"type":"Feature","properties":{"id":"lu-wan-chai-05-00","class":"built_up","vegetationFraction":0.02,"pavedFraction":0.904,"waterFraction":0.008,"simulated":true},"geometry":{"type":"Polygon","coordinates":[[[114.165,22.279],[114.1666,22.279],[114.1666,22.2806],[114.165,22.2806],[114.165,22.279]]]}},{"type":"Feature","properties":{"id":"lu-wan-chai-05-01","class":"built_up","vegetationFraction":0.026,"pavedFraction":0.95,"waterFraction":0.035,"simulated":true},"geometry":{"type":"Polygon","coordinates":[[[114.1666,22.279],[114.1682,22.279],[114.1682,22.2806],[114.1666,22.2806],[114.1666,22.279]]]}},{"type":"Feature","properties":{"id":"lu-wan-chai-05-02","class":"built_up","vegetationFraction":0.05,"pavedFraction":0.848,"waterFraction":0.034,"simulated":true},"geometry":{"type":"Polygon","coordinates":[[[114.1682,22.279],[114.1698,22.279],[114.1698,22.2806],[114.1682,22.2806],[114.1682,22.279]]]}},{"type":"Feature","properties":{"id":"lu-wan-chai-05-03","class":"built_up","vegetationFraction":0.018,"pavedFraction":0.95,"waterFraction":0.053,"simulated":true},"geometry":{"type":"Polygon","coordinates":[[[114.1698,22.279],[114.17139999999999,22.279],[114.17139999999999,22.2806],[114.1698,22.2806],[114.1698,22.279]]]}},{"type":"Feature","properties":{"id":"lu-wan-chai-05-04","class":"built_up","vegetationFraction":0.047,"pavedFraction":0.95,"waterFraction":0.022,"simulated":true},"geometry":{"type":"Polygon","coordinates":[[[114.17139999999999,22.279],[114.17299999999999,22.279],[114.17299999999999,22.2806],[114.17139999999999,22.2806],[114.17139999999999,22.279]]]}},{"type":"Feature","properties":{"id":"lu-wan-chai-05-05","class":"built_up","vegetationFraction":0.02,"pavedFraction":0.88,"waterFraction":0.058,"simulated":true},"geometry":{"type":"Polygon","coordinates":[[[114.17299999999999,22.279],[114.17459999999998,22.279],[114.17459999999998,22.2806],[114.17299999999999,22.2806],[114.17299999999999,22.279]]]}},{"type":"Feature","properties":{"id":"lu-wan-chai-05-06","class":"built_up","vegetationFraction":0.025,"pavedFraction":0.925,"waterFraction":0.005,"simulated":true},"geometry":{"type":"Polygon","coordinates":[[[114.17459999999998,22.279],[114.17619999999998,22.279],[114.17619999999998,22.2806],[114.17459999999998,22.2806],[114.17459999999998,22.279]]]}},{"type":"Feature","properties":{"id":"lu-wan-chai-05-07","class":"built_up","vegetationFraction":0.044,"pavedFraction":0.95,"waterFraction":0.038,"simulated":true},"geometry":{"type":"Polygon","coordinates":[[[114.17619999999998,22.279],[114.17779999999998,22.279],[114.17779999999998,22.2806],[114.17619999999998,22.2806],[114.17619999999998,22.279]]]}},{"type":"Feature","properties":{"id":"lu-wan-chai-05-08","class":"built_up","vegetationFraction":0.034,"pavedFraction":0.845,"waterFraction":0.02,"simulated":true},"geometry":{"type":"Polygon","coordinates":[[[114.17779999999998,22.279],[114.17939999999997,22.279],[114.17939999999997,22.2806],[114.17779999999998,22.2806],[114.17779999999998,22.279]]]}},{"type":"Feature","properties":{"id":"lu-wan-chai-05-09","class":"built_up","vegetationFraction":0.025,"pavedFraction":0.95,"waterFraction":0.02,"simulated":true},"geometry":{"type":"Polygon","coordinates":[[[114.17939999999997,22.279],[114.18099999999997,22.279],[114.18099999999997,22.2806],[114.17939999999997,22.2806],[114.17939999999997,22.279]]]}},{"type":"Feature","properties":{"id":"lu-wan-chai-05-10","class":"built_up","vegetationFraction":0.027,"pavedFraction":0.895,"waterFraction":0.041,"simulated":true},"geometry":{"type":"Polygon","coordinates":[[[114.18099999999997,22.279],[114.18259999999997,22.279],[114.18259999999997,22.2806],[114.18099999999997,22.2806],[114.18099999999997,22.279]]]}},{"type":"Feature","properties":{"id":"lu-wan-chai-06-00","class":"built_up","vegetationFraction":0.049,"pavedFraction":0.95,"waterFraction":0.044,"simulated":true},"geometry":{"type":"Polygon","coordinates":[[[114.165,22.2806],[114.1666,22.2806],[114.1666,22.2822],[114.165,22.2822],[114.165,22.2806]]]}},{"type":"Feature","properties":{"id":"lu-wan-chai-06-01","class":"built_up","vegetationFraction":0.038,"pavedFraction":0.95,"waterFraction":0.053,"simulated":true},"geometry":{"type":"Polygon","coordinates":[[[114.1666,22.2806],[114.1682,22.2806],[114.1682,22.2822],[114.1666,22.2822],[114.1666,22.2806]]]}},{"type":"Feature","properties":{"id":"lu-wan-chai-06-02","class":"built_up","vegetationFraction":0.022,"pavedFraction":0.834,"waterFraction":0.014,"simulated":true},"geometry":{"type":"Polygon","coordinates":[[[114.1682,22.2806],[114.1698,22.2806],[114.1698,22.2822],[114.1682,22.2822],[114.1682,22.2806]]]}},{"type":"Feature","properties":{"id":"lu-wan-chai-06-03","class":"built_up","vegetationFraction":0.028,"pavedFraction":0.924,"waterFraction":0.042,"simulated":true},"geometry":{"type":"Polygon","coordinates":[[[114.1698,22.2806],[114.17139999999999,22.2806],[114.17139999999999,22.2822],[114.1698,22.2822],[114.1698,22.2806]]]}},{"type":"Feature","properties":{"id":"lu-wan-chai-06-04","class":"built_up","vegetationFraction":0.047,"pavedFraction":0.95,"waterFraction":0.029,"simulated":true},"geometry":{"type":"Polygon","coordinates":[[[114.17139999999999,22.2806],[114.17299999999999,22.2806],[114.17299999999999,22.2822],[114.17139999999999,22.2822],[114.17139999999999,22.2806]]]}},{"type":"Feature","properties":{"id":"lu-wan-chai-06-05","class":"built_up","vegetationFraction":0.045,"pavedFraction":0.95,"waterFraction":0.028,"simulated":true},"geometry":{"type":"Polygon","coordinates":[[[114.17299999999999,22.2806],[114.17459999999998,22.2806],[114.17459999999998,22.2822],[114.17299999999999,22.2822],[114.17299999999999,22.2806]]]}},{"type":"Feature","properties":{"id":"lu-wan-chai-06-06","class":"built_up","vegetationFraction":0.047,"pavedFraction":0.95,"waterFraction":0.02,"simulated":true},"geometry":{"type":"Polygon","coordinates":[[[114.17459999999998,22.2806],[114.17619999999998,22.2806],[114.17619999999998,22.2822],[114.17459999999998,22.2822],[114.17459999999998,22.2806]]]}},{"type":"Feature","properties":{"id":"lu-wan-chai-06-07","class":"built_up","vegetationFraction":0.036,"pavedFraction":0.95,"waterFraction":0.003,"simulated":true},"geometry":{"type":"Polygon","coordinates":[[[114.17619999999998,22.2806],[114.17779999999998,22.2806],[114.17779999999998,22.2822],[114.17619999999998,22.2822],[114.17619999999998,22.2806]]]}},{"type":"Feature","properties":{"id":"lu-wan-chai-06-08","class":"built_up","vegetationFraction":0.051,"pavedFraction":0.95,"waterFraction":0.043,"simulated":true},"geometry":{"type":"Polygon","coordinates":[[[114.17779999999998,22.2806],[114.17939999999997,22.2806],[114.17939999999997,22.2822],[114.17779999999998,22.2822],[114.17779999999998,22.2806]]]}},{"type":"Feature","properties":{"id":"lu-wan-chai-06-09","class":"built_up","vegetationFraction":0.029,"pavedFraction":0.9,"waterFraction":0.003,"simulated":true},"geometry":{"type":"Polygon","coordinates":[[[114.17939999999997,22.2806],[114.18099999999997,22.2806],[114.18099999999997,22.2822],[114.17939999999997,22.2822],[114.17939999999997,22.2806]]]}},{"type":"Feature","properties":{"id":"lu-wan-chai-06-10","class":"built_up","vegetationFraction":0.042,"pavedFraction":0.95,"waterFraction":0.059,"simulated":true},"geometry":{"type":"Polygon","coordinates":[[[114.18099999999997,22.2806],[114.18259999999997,22.2806],[114.18259999999997,22.2822],[114.18099999999997,22.2822],[114.18099999999997,22.2806]]]}},{"type":"Feature","properties":{"id":"lu-wan-chai-07-00","class":"built_up","vegetationFraction":0.103,"pavedFraction":0.598,"waterFraction":0.002,"simulated":true},"geometry":{"type":"Polygon","coordinates":[[[114.165,22.2822],[114.1666,22.2822],[114.1666,22.2838],[114.165,22.2838],[114.165,22.2822]]]}},{"type":"Feature","properties":{"id":"lu-wan-chai-07-01","class":"built_up","vegetationFraction":0.156,"pavedFraction":0.725,"waterFraction":0.031,"simulated":true},"geometry":{"type":"Polygon","coordinates":[[[114.1666,22.2822],[114.1682,22.2822],[114.1682,22.2838],[114.1666,22.2838],[114.1666,22.2822]]]}},{"type":"Feature","properties":{"id":"lu-wan-chai-07-02","class":"built_up","vegetationFraction":0.167,"pavedFraction":0.835,"waterFraction":0.036,"simulated":true},"geometry":{"type":"Polygon","coordinates":[[[114.1682,22.2822],[114.1698,22.2822],[114.1698,22.2838],[114.1682,22.2838],[114.1682,22.2822]]]}},{"type":"Feature","properties":{"id":"lu-wan-chai-07-03","class":"built_up","vegetationFraction":0.12,"pavedFraction":0.718,"waterFraction":0.057,"simulated":true},"geometry":{"type":"Polygon","coordinates":[[[114.1698,22.2822],[114.17139999999999,22.2822],[114.17139999999999,22.2838],[114.1698,22.2838],[114.1698,22.2822]]]}},{"type":"Feature","properties":{"id":"lu-wan-chai-07-04","class":"built_up","vegetationFraction":0.172,"pavedFraction":0.634,"waterFraction":0.046,"simulated":true},"geometry":{"type":"Polygon","coordinates":[[[114.17139999999999,22.2822],[114.17299999999999,22.2822],[114.17299999999999,22.2838],[114.17139999999999,22.2838],[114.17139999999999,22.2822]]]}},{"type":"Feature","properties":{"id":"lu-wan-chai-07-05","class":"built_up","vegetationFraction":0.073,"pavedFraction":0.577,"waterFraction":0.008,"simulated":true},"geometry":{"type":"Polygon","coordinates":[[[114.17299999999999,22.2822],[114.17459999999998,22.2822],[114.17459999999998,22.2838],[114.17299999999999,22.2838],[114.17299999999999,22.2822]]]}},{"type":"Feature","properties":{"id":"lu-wan-chai-07-06","class":"built_up","vegetationFraction":0.172,"pavedFraction":0.726,"waterFraction":0.051,"simulated":true},"geometry":{"type":"Polygon","coordinates":[[[114.17459999999998,22.2822],[114.17619999999998,22.2822],[114.17619999999998,22.2838],[114.17459999999998,22.2838],[114.17459999999998,22.2822]]]}},{"type":"Feature","properties":{"id":"lu-wan-chai-07-07","class":"built_up","vegetationFraction":0.071,"pavedFraction":0.646,"waterFraction":0.019,"simulated":true},"geometry":{"type":"Polygon","coordinates":[[[114.17619999999998,22.2822],[114.17779999999998,22.2822],[114.17779999999998,22.2838],[114.17619999999998,22.2838],[114.17619999999998,22.2822]]]}},{"type":"Feature","properties":{"id":"lu-wan-chai-07-08","class":"built_up","vegetationFraction":0.11,"pavedFraction":0.846,"waterFraction":0.046,"simulated":true},"geometry":{"type":"Polygon","coordinates":[[[114.17779999999998,22.2822],[114.17939999999997,22.2822],[114.17939999999997,22.2838],[114.17779999999998,22.2838],[114.17779999999998,22.2822]]]}},{"type":"Feature","properties":{"id":"lu-wan-chai-07-09","class":"built_up","vegetationFraction":0.144,"pavedFraction":0.595,"waterFraction":0.0,"simulated":true},"geometry":{"type":"Polygon","coordinates":[[[114.17939999999997,22.2822],[114.18099999999997,22.2822],[114.18099999999997,22.2838],[114.17939999999997,22.2838],[114.17939999999997,22.2822]]]}},{"type":"Feature","properties":{"id":"lu-wan-chai-07-10","class":"built_up","vegetationFraction":0.139,"pavedFraction":0.818,"waterFraction":0.052,"simulated":true},"geometry":{"type":"Polygon","coordinates":[[[114.18099999999997,22.2822],[114.18259999999997,22.2822],[114.18259999999997,22.2838],[114.18099999999997,22.2838],[114.18099999999997,22.2822]]]}}]}