{"type":"FeatureCollection","features":[{"type":"Feature","properties":{"id":"lu-kowloon-kowloon-city-00-00","class":"built_up","vegetationFraction":0.077,"pavedFraction":0.578,"waterFraction":0.02,"simulated":true},"geometry":{"type":"Polygon","coordinates":[[[114.18,22.318],[114.1816,22.318],[114.1816,22.3196],[114.18,22.3196],[114.18,22.318]]]}},{"type":"Feature","properties":{"id":"lu-kowloon-kowloon-city-00-01","class":"built_up","vegetationFraction":0.078,"pavedFraction":0.755,"waterFraction":0.039,"simulated":true},"geometry":{"type":"Polygon","coordinates":[[[114.1816,22.318],[114.1832,22.318],[114.1832,22.3196],[114.1816,22.3196],[114.1816,22.318]]]}},{"type":"Feature","properties":{"id":"lu-kowloon-kowloon-city-00-02","class":"built_up","vegetationFraction":0.155,"pavedFraction":0.668,"waterFraction":0.028,"simulated":true},"geometry":{"type":"Polygon","coordinates":[[[114.1832,22.318],[114.1848,22.318],[114.1848,22.3196],[114.1832,22.3196],[114.1832,22.318]]]}},{"type":"Feature","properties":{"id":"lu-kowloon-kowloon-city-00-03","class":"built_up","vegetationFraction":0.078,"pavedFraction":0.589,"waterFraction":0.011,"simulated":true},"geometry":{"type":"Polygon","coordinates":[[[114.1848,22.318],[114.18639999999999,22.318],[114.18639999999999,22.3196],[114.1848,22.3196],[114.1848,22.318]]]}},{"type":"Feature","properties":{"id":"lu-kowloon-kowloon-city-00-04","class":"built_up","vegetationFraction":0.156,"pavedFraction":0.804,"waterFraction":0.049,"simulated":true},"geometry":{"type":"Polygon","coordinates":[[[114.18639999999999,22.318],[114.18799999999999,22.318],[114.18799999999999,22.3196],[114.18639999999999,22.3196],[114.18639999999999,22.318]]]}},{"type":"Feature","properties":{"id":"lu-kowloon-kowloon-city-00-05","class":"built_up","vegetationFraction":0.08,"pavedFraction":0.728,"waterFraction":0.004,"simulated":true},"geometry":{"type":"Polygon","coordinates":[[[114.18799999999999,22.318],[114.18959999999998,22.318],[114.18959999999998,22.3196],[114.18799999999999,22.3196],[114.18799999999999,22.318]]]}},{"type":"Feature","properties":{"id":"lu-kowloon-kowloon-city-00-06","class":"built_up","vegetationFraction":0.094,"pavedFraction":0.584,"waterFraction":0.053,"simulated":true},"geometry":{"type":"Polygon","coordinates":[[[114.18959999999998,22.318],[114.19119999999998,22.318],[114.19119999999998,22.3196],[114.18959999999998,22.3196],[114.18959999999998,22.318]]]}},{"type":"Feature","properties":{"id":"lu-kowloon-kowloon-city-00-07","class":"built_up","vegetationFraction":0.164,"pavedFraction":0.657,"waterFraction":0.041,"simulated":true},"geometry":{"type":"Polygon","coordinates":[[[114.19119999999998,22.318],[114.19279999999998,22.318],[114.19279999999998,22.3196],[114.19119999999998,22.3196],[114.19119999999998,22.318]]]}},{"type":"Feature","properties":{"id":"lu-kowloon-kowloon-city-00-08","class":"built_up","vegetationFraction":0.105,"pavedFraction":0.688,"waterFraction":0.002,"simulated":true},"geometry":{"type":"Polygon","coordinates":[[[114.19279999999998,22.318],[114.19439999999997,22.318],[114.19439999999997,22.3196],[114.19279999999998,22.3196],[114.19279999999998,22.318]]]}},{"type":"Feature","properties":{"id":"lu-kowloon-kowloon-city-00-09","class":"built_up","vegetationFraction":0.099,"pavedFraction":0.601,"waterFraction":0.026,"simulated":true},"geometry":{"type":"Polygon","coordinates":[[[114.19439999999997,22.318],[114.19599999999997,22.318],[114.19599999999997,22.3196],[114.19439999999997,22.3196],[114.19439999999997,22.318]]]}},{"type":"Feature","properties":{"id":"lu-kowloon-kowloon-city-00-10","class":"built_up","vegetationFraction":0.084,"pavedFraction":0.784,"waterFraction":0.007,"simulated":true},"geometry":{"type":"Polygon","coordinates":[[[114.19599999999997,22.318],[114.19759999999997,22.318],[114.19759999999997,22.3196],[114.19599999999997,22.3196],[114.19599999999997,22.318]]]}},{"type":"Feature","properties":{"id":"lu-kowloon-kowloon-city-00-11","class":"built_up","vegetationFraction":0.143,"pavedFraction":0.622,"waterFraction":0.003,"simulated":true},"geometry":{"type":"Polygon","coordinates":[[[114.19759999999997,22.318],[114.19919999999996,22.318],[114.19919999999996,22.3196],[114.19759999999997,22.3196],[114.19759999999997,22.318]]]}},{"type":"Feature","properties":{"id":"lu-kowloon-kowloon-city-00-12","class":"built_up","vegetationFraction":0.173,"pavedFraction":0.619,"waterFraction":0.015,"simulated":true},"geometry":{"type":"Polygon","coordinates":[[[114.19919999999996,22.318],[114.20079999999996,22.318],[114.20079999999996,22.3196],[114.19919999999996,22.3196],[114.19919999999996,22.318]]]}},{"type":"Feature","properties":{"id":"lu-kowloon-kowloon-city-00-13","class":"built_up","vegetationFraction":0.15,"pavedFraction":0.839,"waterFraction":0.008,"simulated":true},"geometry":{"type":"Polygon","coordinates":[[[114.20079999999996,22.318],[114.20239999999995,22.318],[114.20239999999995,22.3196],[114.20079999999996,22.3196],[114.20079999999996,22.318]]]}},{"type":"Feature","properties":{"id":"lu-kowloon-kowloon-city-01-00","class":"built_up","vegetationFraction":0.16,"pavedFraction":0.65,"waterFraction":0.029,"simulated":true},"geometry":{"type":"Polygon","coordinates":[[[114.18,22.3196],[114.1816,22.3196],[114.1816,22.3212],[114.18,22.3212],[114.18,22.3196]]]}},{"type":"Feature","properties":{"id":"lu-kowloon-kowloon-city-01-01","class":"built_up","vegetationFraction":0.16,"pavedFraction":0.581,"waterFraction":0.039,"simulated":true},"geometry":{"type":"Polygon","coordinates":[[[114.1816,22.3196],[114.1832,22.3196],[114.1832,22.3212],[114.1816,22.3212],[114.1816,22.3196]]]}},{"type":"Feature","properties":{"id":"lu-kowloon-kowloon-city-01-02","class":"built_up","vegetationFraction":0.18,"pavedFraction":0.758,"waterFraction":0.059,"simulated":true},"geometry":{"type":"Polygon","coordinates":[[[114.1832,22.3196],[114.1848,22.3196],[114.1848,22.3212],[114.1832,22.3212],[114.1832,22.3196]]]}},{"type":"Feature","properties":{"id":"lu-kowloon-kowloon-city-01-03","class":"built_up","vegetationFraction":0.068,"pavedFraction":0.612,"waterFraction":0.004,"simulated":true},"geometry":{"type":"Polygon","coordinates":[[[114.1848,22.3196],[114.18639999999999,22.3196],[114.18639999999999,22.3212],[114.1848,22.3212],[114.1848,22.3196]]]}},{"type":"Feature","properties":{"id":"lu-kowloon-kowloon-city-01-04","class":"built_up","vegetationFraction":0.133,"pavedFraction":0.799,"waterFraction":0.04,"simulated":true},"geometry":{"type":"Polygon","coordinates":[[[114.18639999999999,22.3196],[114.18799999999999,22.3196],[114.18799999999999,22.3212],[114.18639999999999,22.3212],[114.18639999999999,22.3196]]]}},{"type":"Feature","properties":{"id":"lu-kowloon-kowloon-city-01-05","class":"built_up","vegetationFraction":0.087,"pavedFraction":0.819,"waterFraction":0.032,"simulated":true},"geometry":{"type":"Polygon","coordinates":[[[114.18799999999999,22.3196],[114.18959999999998,22.3196],[114.18959999999998,22.3212],[114.18799999999999,22.3212],[114.18799999999999,22.3196]]]}},{"type":"Feature","properties":{"id":"lu-kowloon-kowloon-city-01-06","class":"built_up","vegetationFraction":0.112,"pavedFraction":0.689,"waterFraction":0.03,"simulated":true},"geometry":{"type":"Polygon","coordinates":[[[114.18959999999998,22.3196],[114.19119999999998,22.3196],[114.19119999999998,22.3212],[114.18959999999998,22.3212],[114.18959999999998,22.3196]]]}},{"type":"Feature","properties":{"id":"lu-kowloon-kowloon-city-01-07","class":"built_up","vegetationFraction":0.105,"pavedFraction":0.718,"waterFraction":0.049,"simulated":true},"geometry":{"type":"Polygon","coordinates":[[[114.19119999999998,22.3196],[114.19279999999998,22.3196],[114.19279999999998,22.3212],[114.19119999999998,22.3212],[114.19119999999998,22.3196]]]}},{"type":"Feature","properties":{"id":"lu-kowloon-kowloon-city-01-08","class":"built_up","vegetationFraction":0.078,"pavedFraction":0.792,"waterFraction":0.01,"simulated":true},"geometry":{"type":"Polygon","coordinates":[[[114.19279999999998,22.3196],[114.19439999999997,22.3196],[114.19439999999997,22.3212],[114.19279999999998,22.3212],[114.19279999999998,22.3196]]]}},{"type":"Feature","properties":{"id":"lu-kowloon-kowloon-city-01-09","class":"built_up","vegetationFraction":0.124,"pavedFraction":0.668,"waterFraction":0.027,"simulated":true},"geometry":{"type":"Polygon","coordinates":[[[114.19439999999997,22.3196],[114.19599999999997,22.3196],[114.19599999999997,22.3212],[114.19439999999997,22.3212],[114.19439999999997,22.3196]]]}},{"type":"Feature","properties":{"id":"lu-kowloon-kowloon-city-01-10","class":"built_up","vegetationFraction":0.159,"pavedFraction":0.63,"waterFraction":0.016,"simulated":true},"geometry":{"type":"Polygon","coordinates":[[[114.19599999999997,22.3196],[114.19759999999997,22.3196],[114.19759999999997,22.3212],[114.19599999999997,22.3212],[114.19599999999997,22.3196]]]}},{"type":"Feature","properties":{"id":"lu-kowloon-kowloon-city-01-11","class":"built_up","vegetationFraction":0.147,"pavedFraction":0.755,"waterFraction":0.0,"simulated":true},"geometry":{"type":"Polygon","coordinates":[[[114.19759999999997,22.3196],[114.19919999999996,22.3196],[114.19919999999996,22.3212],[114.19759999999997,22.3212],[114.19759999999997,22.3196]]]}},{"type":"Feature","properties":{"id":"lu-kowloon-kowloon-city-01-12","class":"built_up","vegetationFraction":0.113,"pavedFraction":0.618,"waterFraction":0.003,"simulated":true},"geometry":{"type":"Polygon","coordinates":[[[114.19919999999996,22.3196],[114.20079999999996,22.3196],[114.20079999999996,22.3212],[114.19919999999996,22.3212],[114.19919999999996,22.3196]]]}},{"type":"Feature","properties":{"id":"lu-kowloon-kowloon-city-01-13","class":"built_up","vegetationFraction":0.074,"pavedFraction":0.635,"waterFraction":0.014,"simulated":true},"geometry":{"type":"Polygon","coordinates":[[[114.20079999999996,22.3196],[114.20239999999995,22.3196],[114.20239999999995,22.3212],[114.20079999999996,22.3212],[114.20079999999996,22.3196]]]}},{"type":"Feature","properties":{"id":"lu-kowloon-kowloon-city-02-00","class":"built_up","vegetationFraction":0.11,"pavedFraction":0.711,"waterFraction":0.018,"simulated":true},"geometry":{"type":"Polygon","coordinates":[[[114.18,22.3212],[114.1816,22.3212],[114.1816,22.3228],[114.18,22.3228],[114.18,22.3212]]]}},{"type":"Feature","properties":{"id":"lu-kowloon-kowloon-city-02-01","class":"built_up","vegetationFraction":0.177,"pavedFraction":0.761,"waterFraction":0.045,"simulated":true},"geometry":{"type":"Polygon","coordinates":[[[114.1816,22.3212],[114.1832,22.3212],[114.1832,22.3228],[114.1816,22.3228],[114.1816,22.3212]]]}},{"type":"Feature","properties":{"id":"lu-kowloon-kowloon-city-02-02","class":"built_up","vegetationFraction":0.136,"pavedFraction":0.615,"waterFraction":0.05,"simulated":true},"geometry":{"type":"Polygon","coordinates":[[[114.1832,22.3212],[114.1848,22.3212],[114.1848,22.3228],[114.1832,22.3228],[114.1832,22.3212]]]}},{"type":"Feature","properties":{"id":"lu-kowloon-kowloon-city-02-03","class":"built_up","vegetationFraction":0.135,"pavedFraction":0.584,"waterFraction":0.045,"simulated":true},"geometry":{"type":"Polygon","coordinates":[[[114.1848,22.3212],[114.18639999999999,22.3212],[114.18639999999999,22.3228],[114.1848,22.3228],[114.1848,22.3212]]]}},{"type":"Feature","properties":{"id":"lu-kowloon-kowloon-city-02-04","class":"built_up","vegetationFraction":0.085,"pavedFraction":0.741,"waterFraction":0.034,"simulated":true},"geometry":{"type":"Polygon","coordinates":[[[114.18639999999999,22.3212],[114.18799999999999,22.3212],[114.18799999999999,22.3228],[114.18639999999999,22.3228],[114.18639999999999,22.3212]]]}},{"type":"Feature","properties":{"id":"lu-kowloon-kowloon-city-02-05","class":"built_up","vegetationFraction":0.108,"pavedFraction":0.785,"waterFraction":0.03,"simulated":true},"geometry":{"type":"Polygon","coordinates":[[[114.18799999999999,22.3212],[114.18959999999998,22.3212],[114.18959999999998,22.3228],[114.18799999999999,22.3228],[114.18799999999999,22.3212]]]}},{"type":"Feature","properties":{"id":"lu-kowloon-kowloon-city-02-06","class":"built_up","vegetationFraction":0.091,"pavedFraction":0.663,"waterFraction":0.011,"simulated":true},"geometry":{"type":"Polygon","coordinates":[[[114.18959999999998,22.3212],[114.19119999999998,22.3212],[114.19119999999998,22.3228],[114.18959999999998,22.3228],[114.18959999999998,22.3212]]]}},{"type":"Feature","properties":{"id":"lu-kowloon-kowloon-city-02-07","class":"built_up","vegetationFraction":0.08,"pavedFraction":0.818,"waterFraction":0.018,"simulated":true},"geometry":{"type":"Polygon","coordinates":[[[114.19119999999998,22.3212],[114.19279999999998,22.3212],[114.19279999999998,22.3228],[114.19119999999998,22.3228],[114.19119999999998,22.3212]]]}},{"type":"Feature","properties":{"id":"lu-kowloon-kowloon-city-02-08","class":"green_space","vegetationFraction":0.78,"pavedFraction":0.1,"waterFraction":0.042,"simulated":true},"geometry":{"type":"Polygon","coordinates":[[[114.19279999999998,22.3212],[114.19439999999997,22.3212],[114.19439999999997,22.3228],[114.19279999999998,22.3228],[114.19279999999998,22.3212]]]}},{"type":"Feature","properties":{"id":"lu-kowloon-kowloon-city-02-09","class":"green_space","vegetationFraction":0.78,"pavedFraction":0.1,"waterFraction":0.045,"simulated":true},"geometry":{"type":"Polygon","coordinates":[[[114.19439999999997,22.3212],[114.19599999999997,22.3212],[114.19599999999997,22.3228],[114.19439999999997,22.3228],[114.19439999999997,22.3212]]]}},{"type":"Feature","properties":{"id":"lu-kowloon-kowloon-city-02-10","class":"green_space","vegetationFraction":0.78,"pavedFraction":0.1,"waterFraction":0.016,"simulated":true},"geometry":{"type":"Polygon","coordinates":[[[114.19599999999997,22.3212],[114.19759999999997,22.3212],[114.19759999999997,22.3228],[114.19599999999997,22.3228],[114.19599999999997,22.3212]]]}},{"type":"Feature","properties":{"id":"lu-kowloon-kowloon-city-02-11","class":"green_space","vegetationFraction":0.78,"pavedFraction":0.1,"waterFraction":0.025,"simulated":true},"geometry":{"type":"Polygon","coordinates":[[[114.19759999999997,22.3212],[114.19919999999996,22.3212],[114.19919999999996,22.3228],[114.19759999999997,22.3228],[114.19759999999997,22.3212]]]}},{"type":"Feature","properties":{"id":"lu-kowloon-kowloon-city-02-12","class":"built_up","vegetationFraction":0.092,"pavedFraction":0.726,"waterFraction":0.018,"simulated":true},"geometry":{"type":"Polygon","coordinates":[[[114.19919999999996,22.3212],[114.20079999999996,22.3212],[114.20079999999996,22.3228],[114.19919999999996,22.3228],[114.19919999999996,22.3212]]]}},{"type":"Feature","properties":{"id":"lu-kowloon-kowloon-city-02-13","class":"built_up","vegetationFraction":0.12,"pavedFraction":0.841,"waterFraction":0.027,"simulated":true},"geometry":{"type":"Polygon","coordinates":[[[114.20079999999996,22.3212],[114.20239999999995,22.3212],[114.20239999999995,22.3228],[114.20079999999996,22.3228],[114.20079999999996,22.3212]]]}},{"type":"Feature","properties":{"id":"lu-kowloon-kowloon-city-03-00","class":"built_up","vegetationFraction":0.167,"pavedFraction":0.797,"waterFraction":0.006,"simulated":true},"geometry":{"type":"Polygon","coordinates":[[[114.18,22.3228],[114.1816,22.3228],[114.1816,22.3244],[114.18,22.3244],[114.18,22.3228]]]}},{"type":"Feature","properties":{"id":"lu-kowloon-kowloon-city-03-01","class":"built_up","vegetationFraction":0.089,"pavedFraction":0.571,"waterFraction":0.009,"simulated":true},"geometry":{"type":"Polygon","coordinates":[[[114.1816,22.3228],[114.1832,22.3228],[114.1832,22.3244],[114.1816,22.3244],[114.1816,22.3228]]]}},{"type":"Feature","properties":{"id":"lu-kowloon-kowloon-city-03-02","class":"built_up","vegetationFraction":0.145,"pavedFraction":0.564,"waterFraction":0.012,"simulated":true},"geometry":{"type":"Polygon","coordinates":[[[114.1832,22.3228],[114.1848,22.3228],[114.1848,22.3244],[114.1832,22.3244],[114.1832,22.3228]]]}},{"type":"Feature","properties":{"id":"lu-kowloon-kowloon-city-03-03","class":"built_up","vegetationFraction":0.071,"pavedFraction":0.556,"waterFraction":0.028,"simulated":true},"geometry":{"type":"Polygon","coordinates":[[[114.1848,22.3228],[114.18639999999999,22.3228],[114.18639999999999,22.3244],[114.1848,22.3244],[114.1848,22.3228]]]}},{"type":"Feature","properties":{"id":"lu-kowloon-kowloon-city-03-04","class":"built_up","vegetationFraction":0.127,"pavedFraction":0.585,"waterFraction":0.023,"simulated":true},"geometry":{"type":"Polygon","coordinates":[[[114.18639999999999,22.3228],[114.18799999999999,22.3228],[114.18799999999999,22.3244],[114.18639999999999,22.3244],[114.18639999999999,22.3228]]]}},{"type":"Feature","properties":{"id":"lu-kowloon-kowloon-city-03-05","class":"built_up","vegetationFraction":0.119,"pavedFraction":0.624,"waterFraction":0.022,"simulated":true},"geometry":{"type":"Polygon","coordinates":[[[114.18799999999999,22.3228],[114.18959999999998,22.3228],[114.18959999999998,22.3244],[114.18799999999999,22.3244],[114.18799999999999,22.3228]]]}},{"type":"Feature","properties":{"id":"lu-kowloon-kowloon-city-03-06","class":"built_up","vegetationFraction":0.065,"pavedFraction":0.575,"waterFraction":0.03,"simulated":true},"geometry":{"type":"Polygon","coordinates":[[[114.18959999999998,22.3228],[114.19119999999998,22.3228],[114.19119999999998,22.3244],[114.18959999999998,22.3244],[114.18959999999998,22.3228]]]}},{"type":"Feature","properties":{"id":"lu-kowloon-kowloon-city-03-07","class":"built_up","vegetationFraction":0.138,"pavedFraction":0.835,"waterFraction":0.016,"simulated":true},"geometry":{"type":"Polygon","coordinates":[[[114.19119999999998,22.3228],[114.19279999999998,22.3228],[114.19279999999998,22.3244],[114.19119999999998,22.3244],[114.19119999999998,22.3228]]]}},{"type":"Feature","properties":{"id":"lu-kowloon-kowloon-city-03-08","class":"green_space","vegetationFraction":0.78,"pavedFraction":0.1,"waterFraction":0.04,"simulated":true},"geometry":{"type":"Polygon","coordinates":[[[114.19279999999998,22.3228],[114.19439999999997,22.3228],[114.19439999999997,22.3244],[114.19279999999998,22.3244],[114.19279999999998,22.3228]]]}},{"type":"Feature","properties":{"id":"lu-kowloon-kowloon-city-03-09","class":"green_space","vegetationFraction":0.78,"pavedFraction":0.1,"waterFraction":0.048,"simulated":true},"geometry":{"type":"Polygon","coordinates":[[[114.19439999999997,22.3228],[114.19599999999997,22.3228],[114.19599999999997,22.3244],[114.19439999999997,22.3244],[114.19439999999997,22.3228]]]}},{"type":"Feature","properties":{"id":"lu-kowloon-kowloon-city-03-10","class":"green_space","vegetationFraction":0.78,"pavedFraction":0.1,"waterFraction":0.02,"simulated":true},"geometry":{"type":"Polygon","coordinates":[[[114.19599999999997,22.3228],[114.19759999999997,22.3228],[114.19759999999997,22.3244],[114.19599999999997,22.3244],[114.19599999999997,22.3228]]]}},{"type":"Feature","properties":{"id":"lu-kowloon-kowloon-city-03-11","class":"green_space","vegetationFraction":0.78,"pavedFraction":0.1,"waterFraction":0.01,"simulated":true},"geometry":{"type":"Polygon","coordinates":[[[114.19759999999997,22.3228],[114.19919999999996,22.3228],[114.19919999999996,22.3244],[114.19759999999997,22.3244],[114.19759999999997,22.3228]]]}},{"type":"Feature","properties":{"id":"lu-kowloon-kowloon-city-03-12","class":"built_up","vegetationFraction":0.079,"pavedFraction":0.788,"waterFraction":0.026,"simulated":true},"geometry":{"type":"Polygon","coordinates":[[[114.19919999999996,22.3228],[114.20079999999996,22.3228],[114.20079999999996,22.3244],[114.19919999999996,22.3244],[114.19919999999996,22.3228]]]}},{"type":"Feature","properties":{"id":"lu-kowloon-kowloon-city-03-13","class":"built_up","vegetationFraction":0.084,"pavedFraction":0.599,"waterFraction":0.043,"simulated":true},"geometry":{"type":"Polygon","coordinates":[[[114.20079999999996,22.3228],[114.20239999999995,22.3228],[114.20239999999995,22.3244],[114.20079999999996,22.3244],[114.20079999999996,22.3228]]]}},{"type":"Feature","properties":{"id":"lu-kowloon-kowloon-city-04-00","class":"built_up","vegetationFraction":0.16,"pavedFraction":0.844,"waterFraction":0.019,"simulated":true},"geometry":{"type":"Polygon","coordinates":[[[114.18,22.3244],[114.1816,22.3244],[114.1816,22.326],[114.18,22.326],[114.18,22.3244]]]}},{"type":"Feature","properties":{"id":"lu-kowloon-kowloon-city-04-01","class":"built_up","vegetationFraction":0.147,"pavedFraction":0.759,"waterFraction":0.025,"simulated":true},"geometry":{"type":"Polygon","coordinates":[[[114.1816,22.3244],[114.1832,22.3244],[114.1832,22.326],[114.1816,22.326],[114.1816,22.3244]]]}},{"type":"Feature","properties":{"id":"lu-kowloon-kowloon-city-04-02","class":"built_up","vegetationFraction":0.06,"pavedFraction":0.632,"waterFraction":0.026,"simulated":true},"geometry":{"type":"Polygon","coordinates":[[[114.1832,22.3244],[114.1848,22.3244],[114.1848,22.326],[114.1832,22.326],[114.1832,22.3244]]]}},{"type":"Feature","properties":{"id":"lu-kowloon-kowloon-city-04-03","class":"built_up","vegetationFraction":0.178,"pavedFraction":0.686,"waterFraction":0.042,"simulated":true},"geometry":{"type":"Polygon","coordinates":[[[114.1848,22.3244],[114.18639999999999,22.3244],[114.18639999999999,22.326],[114.1848,22.326],[114.1848,22.3244]]]}},{"type":"Feature","properties":{"id":"lu-kowloon-kowloon-city-04-04","class":"built_up","vegetationFraction":0.13,"pavedFraction":0.817,"waterFraction":0.04,"simulated":true},"geometry":{"type":"Polygon","coordinates":[[[114.18639999999999,22.3244],[114.18799999999999,22.3244],[114.18799999999999,22.326],[114.18639999999999,22.326],[114.18639999999999,22.3244]]]}},{"type":"Feature","properties":{"id":"lu-kowloon-kowloon-city-04-05","class":"built_up","vegetationFraction":0.136,"pavedFraction":0.786,"waterFraction":0.058,"simulated":true},"geometry":{"type":"Polygon","coordinates":[[[114.18799999999999,22.3244],[114.18959999999998,22.3244],[114.18959999999998,22.326],[114.18799999999999,22.326],[114.18799999999999,22.3244]]]}},{"type":"Feature","properties":{"id":"lu-kowloon-kowloon-city-04-06","class":"built_up","vegetationFraction":0.154,"pavedFraction":0.712,"waterFraction":0.055,"simulated":true},"geometry":{"type":"Polygon","coordinates":[[[114.18959999999998,22.3244],[114.19119999999998,22.3244],[114.19119999999998,22.326],[114.18959999999998,22.326],[114.18959999999998,22.3244]]]}},{"type":"Feature","properties":{"id":"lu-kowloon-kowloon-city-04-07","class":"built_up","vegetationFraction":0.17,"pavedFraction":0.794,"waterFraction":0.018,"simulated":true},"geometry":{"type":"Polygon","coordinates":[[[114.19119999999998,22.3244],[114.19279999999998,22.3244],[114.19279999999998,22.326],[114.19119999999998,22.326],[114.19119999999998,22.3244]]]}},{"type":"Feature","properties":{"id":"lu-kowloon-kowloon-city-04-08","class":"green_space","vegetationFraction":0.78,"pavedFraction":0.1,"waterFraction":0.01,"simulated":true},"geometry":{"type":"Polygon","coordinates":[[[114.19279999999998,22.3244],[114.19439999999997,22.3244],[114.19439999999997,22.326],[114.19279999999998,22.326],[114.19279999999998,22.3244]]]}},{"type":"Feature","properties":{"id":"lu-kowloon-kowloon-city-04-09","class":"green_space","vegetationFraction":0.78,"pavedFraction":0.1,"waterFraction":0.046,"simulated":true},"geometry":{"type":"Polygon","coordinates":[[[114.19439999999997,22.3244],[114.19599999999997,22.3244],[114.19599999999997,22.326],[114.19439999999997,22.326],[114.19439999999997,22.3244]]]}},{"type":"Feature","properties":{"id":"lu-kowloon-kowloon-city-04-10","class":"green_space","vegetationFraction":0.78,"pavedFraction":0.1,"waterFraction":0.034,"simulated":true},"geometry":{"type":"Polygon","coordinates":[[[114.19599999999997,22.3244],[114.19759999999997,22.3244],[114.19759999999997,22.326],[114.19599999999997,22.326],[114.19599999999997,22.3244]]]}},{"type":"Feature","properties":{"id":"lu-kowloon-kowloon-city-04-11","class":"green_space","vegetationFraction":0.78,"pavedFraction":0.1,"waterFraction":0.0,"simulated":true},"geometry":{"type":"Polygon","coordinates":[[[114.19759999999997,22.3244],[114.19919999999996,22.3244],[114.19919999999996,22.326],[114.19759999999997,22.326],[114.19759999999997,22.3244]]]}},{"type":"Feature","properties":{"id":"lu-kowloon-kowloon-city-04-12","class":"built_up","vegetationFraction":0.158,"pavedFraction":0.823,"waterFraction":0.02,"simulated":true},"geometry":{"type":"Polygon","coordinates":[[[114.19919999999996,22.3244],[114.20079999999996,22.3244],[114.20079999999996,22.326],[114.19919999999996,22.326],[114.19919999999996,22.3244]]]}},{"type":"Feature","properties":{"id":"lu-kowloon-kowloon-city-04-13","class":"built_up","vegetationFraction":0.116,"pavedFraction":0.73,"waterFraction":0.055,"simulated":true},"geometry":{"type":"Polygon","coordinates":[[[114.20079999999996,22.3244],[114.20239999999995,22.3244],[114.20239999999995,22.326],[114.20079999999996,22.326],[114.20079999999996,22.3244]]]}},{"type":"Feature","properties":{"id":"lu-kowloon-kowloon-city-05-00","class":"built_up","vegetationFraction":0.129,"pavedFraction":0.577,"waterFraction":0.043,"simulated":true},"geometry":{"type":"Polygon","coordinates":[[[114.18,22.326],[114.1816,22.326],[114.1816,22.3276],[114.18,22.3276],[114.18,22.326]]]}},{"type":"Feature","properties":{"id":"lu-kowloon-kowloon-city-05-01","class":"built_up","vegetationFraction":0.143,"pavedFraction":0.597,"waterFraction":0.036,"simulated":true},"geometry":{"type":"Polygon","coordinates":[[[114.1816,22.326],[114.1832,22.326],[114.1832,22.3276],[114.1816,22.3276],[114.1816,22.326]]]}},{"type":"Feature","properties":{"id":"lu-kowloon-kowloon-city-05-02","class":"built_up","vegetationFraction":0.124,"pavedFraction":0.765,"waterFraction":0.0,"simulated":true},"geometry":{"type":"Polygon","coordinates":[[[114.1832,22.326],[114.1848,22.326],[114.1848,22.3276],[114.1832,22.3276],[114.1832,22.326]]]}},{"type":"Feature","properties":{"id":"lu-kowloon-kowloon-city-05-03","class":"built_up","vegetationFraction":0.072,"pavedFraction":0.611,"waterFraction":0.014,"simulated":true},"geometry":{"type":"Polygon","coordinates":[[[114.1848,22.326],[114.18639999999999,22.326],[114.18639999999999,22.3276],[114.1848,22.3276],[114.1848,22.326]]]}},{"type":"Feature","properties":{"id":"lu-kowloon-kowloon-city-05-04","class":"built_up","vegetationFraction":0.086,"pavedFraction":0.572,"waterFraction":0.047,"simulated":true},"geometry":{"type":"Polygon","coordinates":[[[114.18639999999999,22.326],[114.18799999999999,22.326],[114.18799999999999,22.3276],[114.18639999999999,22.3276],[114.18639999999999,22.326]]]}},{"type":"Feature","properties":{"id":"lu-kowloon-kowloon-city-05-05","class":"built_up","vegetationFraction":0.083,"pavedFraction":0.702,"waterFraction":0.024,"simulated":true},"geometry":{"type":"Polygon","coordinates":[[[114.18799999999999,22.326],[114.18959999999998,22.326],[114.18959999999998,22.3276],[114.18799999999999,22.3276],[114.18799999999999,22.326]]]}},{"type":"Feature","properties":{"id":"lu-kowloon-kowloon-city-05-06","class":"built_up","vegetationFraction":0.074,"pavedFraction":0.661,"waterFraction":0.049,"simulated":true},"geometry":{"type":"Polygon","coordinates":[[[114.18959999999998,22.326],[114.19119999999998,22.326],[114.19119999999998,22.3276],[114.18959999999998,22.3276],[114.18959999999998,22.326]]]}},{"type":"Feature","properties":{"id":"lu-kowloon-kowloon-city-05-07","class":"built_up","vegetationFraction":0.128,"pavedFraction":0.619,"waterFraction":0.049,"simulated":true},"geometry":{"type":"Polygon","coordinates":[[[114.19119999999998,22.326],[114.19279999999998,22.326],[114.19279999999998,22.3276],[114.19119999999998,22.3276],[114.19119999999998,22.326]]]}},{"type":"Feature","properties":{"id":"lu-kowloon-kowloon-city-05-08","class":"built_up","vegetationFraction":0.096,"pavedFraction":0.722,"waterFraction":0.014,"simulated":true},"geometry":{"type":"Polygon","coordinates":[[[114.19279999999998,22.326],[114.19439999999997,22.326],[114.19439999999997,22.3276],[114.19279999999998,22.3276],[114.19279999999998,22.326]]]}},{"type":"Feature","properties":{"id":"lu-kowloon-kowloon-city-05-09","class":"built_up","vegetationFraction":0.166,"pavedFraction":0.752,"waterFraction":0.046,"simulated":true},"geometry":{"type":"Polygon","coordinates":[[[114.19439999999997,22.326],[114.19599999999997,22.326],[114.19599999999997,22.3276],[114.19439999999997,22.3276],[114.19439999999997,22.326]]]}},{"type":"Feature","properties":{"id":"lu-kowloon-kowloon-city-05-10","class":"built_up","vegetationFraction":0.107,"pavedFraction":0.737,"waterFraction":0.059,"simulated":true},"geometry":{"type":"Polygon","coordinates":[[[114.19599999999997,22.326],[114.19759999999997,22.326],[114.19759999999997,22.3276],[114.19599999999997,22.3276],[114.19599999999997,22.326]]]}},{"type":"Feature","properties":{"id":"lu-kowloon-kowloon-city-05-11","class":"built_up","vegetationFraction":0.141,"pavedFraction":0.698,"waterFraction":0.032,"simulated":true},"geometry":{"type":"Polygon","coordinates":[[[114.19759999999997,22.326],[114.19919999999996,22.326],[114.19919999999996,22.3276],[114.19759999999997,22.3276],[114.19759999999997,22.326]]]}},{"type":"Feature","properties":{"id":"lu-kowloon-kowloon-city-05-12","class":"built_up","vegetationFraction":0.076,"pavedFraction":0.629,"waterFraction":0.016,"simulated":true},"geometry":{"type":"Polygon","coordinates":[[[114.19919999999996,22.326],[114.20079999999996,22.326],[114.20079999999996,22.3276],[114.19919999999996,22.3276],[114.19919999999996,22.326]]]}},{"type":"Feature","properties":{"id":"lu-kowloon-kowloon-city-05-13","class":"built_up","vegetationFraction":0.132,"pavedFraction":0.85,"waterFraction":0.01,"simulated":true},"geometry":{"type":"Polygon","coordinates":[[[114.20079999999996,22.326],[114.20239999999995,22.326],[114.20239999999995,22.3276],[114.20079999999996,22.3276],[114.20079999999996,22.326]]]}},{"type":"Feature","properties":{"id":"lu-kowloon-kowloon-city-06-00","class":"built_up","vegetationFraction":0.089,"pavedFraction":0.776,"waterFraction":0.048,"simulated":true},"geometry":{"type":"Polygon","coordinates":[[[114.18,22.3276],[114.1816,22.3276],[114.1816,22.3292],[114.18,22.3292],[114.18,22.3276]]]}},{"type":"Feature","properties":{"id":"lu-kowloon-kowloon-city-06-01","class":"built_up","vegetationFraction":0.121,"pavedFraction":0.751,"waterFraction":0.009,"simulated":true},"geometry":{"type":"Polygon","coordinates":[[[114.1816,22.3276],[114.1832,22.3276],[114.1832,22.3292],[114.1816,22.3292],[114.1816,22.3276]]]}},{"type":"Feature","properties":{"id":"lu-kowloon-kowloon-city-06-02","class":"built_up","vegetationFraction":0.06,"pavedFraction":0.582,"waterFraction":0.057,"simulated":true},"geometry":{"type":"Polygon","coordinates":[[[114.1832,22.3276],[114.1848,22.3276],[114.1848,22.3292],[114.1832,22.3292],[114.1832,22.3276]]]}},{"type":"Feature","properties":{"id":"lu-kowloon-kowloon-city-06-03","class":"built_up","vegetationFraction":0.16,"pavedFraction":0.561,"waterFraction":0.031,"simulated":true},"geometry":{"type":"Polygon","coordinates":[[[114.1848,22.3276],[114.18639999999999,22.3276],[114.18639999999999,22.3292],[114.1848,22.3292],[114.1848,22.3276]]]}},{"type":"Feature","properties":{"id":"lu-kowloon-kowloon-city-06-04","class":"built_up","vegetationFraction":0.095,"pavedFraction":0.568,"waterFraction":0.036,"simulated":true},"geometry":{"type":"Polygon","coordinates":[[[114.18639999999999,22.3276],[114.18799999999999,22.3276],[114.18799999999999,22.3292],[114.18639999999999,22.3292],[114.18639999999999,22.3276]]]}},{"type":"Feature","properties":{"id":"lu-kowloon-kowloon-city-06-05","class":"built_up","vegetationFraction":0.17,"pavedFraction":0.69,"waterFraction":0.008,"simulated":true},"geometry":{"type":"Polygon","coordinates":[[[114.18799999999999,22.3276],[114.18959999999998,22.3276],[114.18959999999998,22.3292],[114.18799999999999,22.3292],[114.18799999999999,22.3276]]]}},{"type":"Feature","properties":{"id":"lu-kowloon-kowloon-city-06-06","class":"built_up","vegetationFraction":0.147,"pavedFraction":0.625,"waterFraction":0.024,"simulated":true},"geometry":{"type":"Polygon","coordinates":[[[114.18959999999998,22.3276],[114.19119999999998,22.3276],[114.19119999999998,22.3292],[114.18959999999998,22.3292],[114.18959999999998,22.3276]]]}},{"type":"Feature","properties":{"id":"lu-kowloon-kowloon-city-06-07","class":"built_up","vegetationFraction":0.18,"pavedFraction":0.732,"waterFraction":0.009,"simulated":true},"geometry":{"type":"Polygon","coordinates":[[[114.19119999999998,22.3276],[114.19279999999998,22.3276],[114.19279999999998,22.3292],[114.19119999999998,22.3292],[114.19119999999998,22.3276]]]}},{"type":"Feature","properties":{"id":"lu-kowloon-kowloon-city-06-08","class":"built_up","vegetationFraction":0.079,"pavedFraction":0.742,"waterFraction":0.028,"simulated":true},"geometry":{"type":"Polygon","coordinates":[[[114.19279999999998,22.3276],[114.19439999999997,22.3276],[114.19439999999997,22.3292],[114.19279999999998,22.3292],[114.19279999999998,22.3276]]]}},{"type":"Feature","properties":{"id":"lu-kowloon-kowloon-city-06-09","class":"built_up","vegetationFraction":0.118,"pavedFraction":0.617,"waterFraction":0.029,"simulated":true},"geometry":{"type":"Polygon","coordinates":[[[114.19439999999997,22.3276],[114.19599999999997,22.3276],[114.19599999999997,22.3292],[114.19439999999997,22.3292],[114.19439999999997,22.3276]]]}},{"type":"Feature","properties":{"id":"lu-kowloon-kowloon-city-06-10","class":"built_up","vegetationFraction":0.086,"pavedFraction":0.662,"waterFraction":0.01,"simulated":true},"geometry":{"type":"Polygon","coordinates":[[[114.19599999999997,22.3276],[114.19759999999997,22.3276],[114.19759999999997,22.3292],[114.19599999999997,22.3292],[114.19599999999997,22.3276]]]}},{"type":"Feature","properties":{"id":"lu-kowloon-kowloon-city-06-11","class":"built_up","vegetationFraction":0.143,"pavedFraction":0.815,"waterFraction":0.053,"simulated":true},"geometry":{"type":"Polygon","coordinates":[[[114.19759999999997,22.3276],[114.19919999999996,22.3276],[114.19919999999996,22.3292],[114.19759999999997,22.3292],[114.19759999999997,22.3276]]]}},{"type":"Feature","properties":{"id":"lu-kowloon-kowloon-city-06-12","class":"built_up","vegetationFraction":0.144,"pavedFraction":0.819,"waterFraction":0.056,"simulated":true},"geometry":{"type":"Polygon","coordinates":[[[114.19919999999996,22.3276],[114.20079999999996,22.3276],[114.20079999999996,22.3292],[114.19919999999996,22.3292],[114.19919999999996,22.3276]]]}},{"type":"Feature","properties":{"id":"lu-kowloon-kowloon-city-06-13","class":"built_up","vegetationFraction":0.154,"pavedFraction":0.599,"waterFraction":0.054,"simulated":true},"geometry":{"type":"Polygon","coordinates":[[[114.20079999999996,22.3276],[114.20239999999995,22.3276],[114.20239999999995,22.3292],[114.20079999999996,22.3292],[114.20079999999996,22.3276]]]}},{"type":"Feature","properties":{"id":"lu-kowloon-kowloon-city-07-00","class":"built_up","vegetationFraction":0.051,"pavedFraction":0.902,"waterFraction":0.027,"simulated":true},"geometry":{"type":"Polygon","coordinates":[[[114.18,22.3292],[114.1816,22.3292],[114.1816,22.3308],[114.18,22.3308],[114.18,22.3292]]]}},{"type":"Feature","properties":{"id":"lu-kowloon-kowloon-city-07-01","class":"built_up","vegetationFraction":0.033,"pavedFraction":0.95,"waterFraction":0.056,"simulated":true},"geometry":{"type":"Polygon","coordinates":[[[114.1816,22.3292],[114.1832,22.3292],[114.1832,22.3308],[114.1816,22.3308],[114.1816,22.3292]]]}},{"type":"Feature","properties":{"id":"lu-kowloon-kowloon-city-07-02","class":"built_up","vegetationFraction":0.051,"pavedFraction":0.945,"waterFraction":0.024,"simulated":true},"geometry":{"type":"Polygon","coordinates":[[[114.1832,22.3292],[114.1848,22.3292],[114.1848,22.3308],[114.1832,22.3308],[114.1832,22.3292]]]}},{"type":"Feature","properties":{"id":"lu-kowloon-kowloon-city-07-03","class":"built_up","vegetationFraction":0.052,"pavedFraction":0.928,"waterFraction":0.05,"simulated":true},"geometry":{"type":"Polygon","coordinates":[[[114.1848,22.3292],[114.18639999999999,22.3292],[114.18639999999999,22.3308],[114.1848,22.3308],[114.1848,22.3292]]]}},{"type":"Feature","properties":{"id":"lu-kowloon-kowloon-city-07-04","class":"built_up","vegetationFraction":0.039,"pavedFraction":0.929,"waterFraction":0.058,"simulated":true},"geometry":{"type":"Polygon","coordinates":[[[114.18639999999999,22.3292],[114.18799999999999,22.3292],[114.18799999999999,22.3308],[114.18639999999999,22.3308],[114.18639999999999,22.3292]]]}},{"type":"Feature","properties":{"id":"lu-kowloon-kowloon-city-07-05","class":"built_up","vegetationFraction":0.023,"pavedFraction":0.899,"waterFraction":0.06,"simulated":true},"geometry":{"type":"Polygon","coordinates":[[[114.18799999999999,22.3292],[114.18959999999998,22.3292],[114.18959999999998,22.3308],[114.18799999999999,22.3308],[114.18799999999999,22.3292]]]}},{"type":"Feature","properties":{"id":"lu-kowloon-kowloon-city-07-06","class":"built_up","vegetationFraction":0.041,"pavedFraction":0.858,"waterFraction":0.007,"simulated":true},"geometry":{"type":"Polygon","coordinates":[[[114.18959999999998,22.3292],[114.19119999999998,22.3292],[114.19119999999998,22.3308],[114.18959999999998,22.3308],[114.18959999999998,22.3292]]]}},{"type":"Feature","properties":{"id":"lu-kowloon-kowloon-city-07-07","class":"built_up","vegetationFraction":0.028,"pavedFraction":0.878,"waterFraction":0.013,"simulated":true},"geometry":{"type":"Polygon","coordinates":[[[114.19119999999998,22.3292],[114.19279999999998,22.3292],[114.19279999999998,22.3308],[114.19119999999998,22.3308],[114.19119999999998,22.3292]]]}},{"type":"Feature","properties":{"id":"lu-kowloon-kowloon-city-07-08","class":"built_up","vegetationFraction":0.041,"pavedFraction":0.941,"waterFraction":0.054,"simulated":true},"geometry":{"type":"Polygon","coordinates":[[[114.19279999999998,22.3292],[114.19439999999997,22.3292],[114.19439999999997,22.3308],[114.19279999999998,22.3308],[114.19279999999998,22.3292]]]}},{"type":"Feature","properties":{"id":"lu-kowloon-kowloon-city-07-09","class":"built_up","vegetationFraction":0.053,"pavedFraction":0.821,"waterFraction":0.026,"simulated":true},"geometry":{"type":"Polygon","coordinates":[[[114.19439999999997,22.3292],[114.19599999999997,22.3292],[114.19599999999997,22.3308],[114.19439999999997,22.3308],[114.19439999999997,22.3292]]]}},{"type":"Feature","properties":{"id":"lu-kowloon-kowloon-city-07-10","class":"built_up","vegetationFraction":0.036,"pavedFraction":0.872,"waterFraction":0.057,"simulated":true},"geometry":{"type":"Polygon","coordinates":[[[114.19599999999997,22.3292],[114.19759999999997,22.3292],[114.19759999999997,22.3308],[114.19599999999997,22.3308],[114.19599999999997,22.3292]]]}},{"type":"Feature","properties":{"id":"lu-kowloon-kowloon-city-07-11","class":"built_up","vegetationFraction":0.035,"pavedFraction":0.95,"waterFraction":0.028,"simulated":true},"geometry":{"type":"Polygon","coordinates":[[[114.19759999999997,22.3292],[114.19919999999996,22.3292],[114.19919999999996,22.3308],[114.19759999999997,22.3308],[114.19759999999997,22.3292]]]}},{"type":"Feature","properties":{"id":"lu-kowloon-kowloon-city-07-12","class":"built_up","vegetationFraction":0.02,"pavedFraction":0.95,"waterFraction":0.055,"simulated":true},"geometry":{"type":"Polygon","coordinates":[[[114.19919999999996,22.3292],[114.20079999999996,22.3292],[114.20079999999996,22.3308],[114.19919999999996,22.3308],[114.19919999999996,22.3292]]]}},{"type":"Feature","properties":{"id":"lu-kowloon-kowloon-city-07-13","class":"built_up","vegetationFraction":0.053,"pavedFraction":0.95,"waterFraction":0.041,"simulated":true},"geometry":{"type":"Polygon","coordinates":[[[114.20079999999996,22.3292],[114.20239999999995,22.3292],[114.20239999999995,22.3308],[114.20079999999996,22.3308],[114.20079999999996,22.3292]]]}},{"type":"Feature","properties":{"id":"lu-kowloon-kowloon-city-08-00","class":"built_up","vegetationFraction":0.03,"pavedFraction":0.912,"waterFraction":0.051,"simulated":true},"geometry":{"type":"Polygon","coordinates":[[[114.18,22.3308],[114.1816,22.3308],[114.1816,22.3324],[114.18,22.3324],[114.18,22.3308]]]}},{"type":"Feature","properties":{"id":"lu-kowloon-kowloon-city-08-01","class":"built_up","vegetationFraction":0.037,"pavedFraction":0.95,"waterFraction":0.009,"simulated":true},"geometry":{"type":"Polygon","coordinates":[[[114.1816,22.3308],[114.1832,22.3308],[114.1832,22.3324],[114.1816,22.3324],[114.1816,22.3308]]]}},{"type":"Feature","properties":{"id":"lu-kowloon-kowloon-city-08-02","class":"built_up","vegetationFraction":0.049,"pavedFraction":0.925,"waterFraction":0.03,"simulated":true},"geometry":{"type":"Polygon","coordinates":[[[114.1832,22.3308],[114.1848,22.3308],[114.1848,22.3324],[114.1832,22.3324],[114.1832,22.3308]]]}},{"type":"Feature","properties":{"id":"lu-kowloon-kowloon-city-08-03","class":"built_up","vegetationFraction":0.052,"pavedFraction":0.801,"waterFraction":0.048,"simulated":true},"geometry":{"type":"Polygon","coordinates":[[[114.1848,22.3308],[114.18639999999999,22.3308],[114.18639999999999,22.3324],[114.1848,22.3324],[114.1848,22.3308]]]}},{"type":"Feature","properties":{"id":"lu-kowloon-kowloon-city-08-04","class":"built_up","vegetationFraction":0.045,"pavedFraction":0.95,"waterFraction":0.026,"simulated":true},"geometry":{"type":"Polygon","coordinates":[[[114.18639999999999,22.3308],[114.18799999999999,22.3308],[114.18799999999999,22.3324],[114.18639999999999,22.3324],[114.18639999999999,22.3308]]]}},{"type":"Feature","properties":{"id":"lu-kowloon-kowloon-city-08-05","class":"built_up","vegetationFraction":0.022,"pavedFraction":0.95,"waterFraction":0.057,"simulated":true},"geometry":{"type":"Polygon","coordinates":[[[114.18799999999999,22.3308],[114.18959999999998,22.3308],[114.18959999999998,22.3324],[114.18799999999999,22.3324],[114.18799999999999,22.3308]]]}},{"type":"Feature","properties":{"id":"lu-kowloon-kowloon-city-08-06","class":"built_up","vegetationFraction":0.043,"pavedFraction":0.95,"waterFraction":0.001,"simulated":true},"geometry":{"type":"Polygon","coordinates":[[[114.18959999999998,22.3308],[114.19119999999998,22.3308],[114.19119999999998,22.3324],[114.18959999999998,22.3324],[114.18959999999998,22.3308]]]}},{"type":"Feature","properties":{"id":"lu-kowloon-kowloon-city-08-07","class":"built_up","vegetationFraction":0.053,"pavedFraction":0.95,"waterFraction":0.048,"simulated":true},"geometry":{"type":"Polygon","coordinates":[[[114.19119999999998,22.3308],[114.19279999999998,22.3308],[114.19279999999998,22.3324],[114.19119999999998,22.3324],[114.19119999999998,22.3308]]]}},{"type":"Feature","properties":{"id":"lu-kowloon-kowloon-city-08-08","class":"built_up","vegetationFraction":0.025,"pavedFraction":0.94,"waterFraction":0.008,"simulated":true},"geometry":{"type":"Polygon","coordinates":[[[114.19279999999998,22.3308],[114.19439999999997,22.3308],[114.19439999999997,22.3324],[114.19279999999998,22.3324],[114.19279999999998,22.3308]]]}},{"type":"Feature","properties":{"id":"lu-kowloon-kowloon-city-08-09","class":"built_up","vegetationFraction":0.04,"pavedFraction":0.95,"waterFraction":0.01,"simulated":true},"geometry":{"type":"Polygon","coordinates":[[[114.19439999999997,22.3308],[114.19599999999997,22.3308],[114.19599999999997,22.3324],[114.19439999999997,22.3324],[114.19439999999997,22.3308]]]}},{"type":"Feature","properties":{"id":"lu-kowloon-kowloon-city-08-10","class":"built_up","vegetationFraction":0.023,"pavedFraction":0.95,"waterFraction":0.024,"simulated":true},"geometry":{"type":"Polygon","coordinates":[[[114.19599999999997,22.3308],[114.19759999999997,22.3308],[114.19759999999997,22.3324],[114.19599999999997,22.3324],[114.19599999999997,22.3308]]]}},{"type":"Feature","properties":{"id":"lu-kowloon-kowloon-city-08-11","class":"built_up","vegetationFraction":0.02,"pavedFraction":0.92,"waterFraction":0.006,"simulated":true},"geometry":{"type":"Polygon","coordinates":[[[114.19759999999997,22.3308],[114.19919999999996,22.3308],[114.19919999999996,22.3324],[114.19759999999997,22.3324],[114.19759999999997,22.3308]]]}},{"type":"Feature","properties":{"id":"lu-kowloon-kowloon-city-08-12","class":"built_up","vegetationFraction":0.043,"pavedFraction":0.95,"waterFraction":0.01,"simulated":true},"geometry":{"type":"Polygon","coordinates":[[[114.19919999999996,22.3308],[114.20079999999996,22.3308],[114.20079999999996,22.3324],[114.19919999999996,22.3324],[114.19919999999996,22.3308]]]}},{"type":"Feature","properties":{"id":"lu-kowloon-kowloon-city-08-13","class":"built_up","vegetationFraction":0.033,"pavedFraction":0.95,"waterFraction":0.05,"simulated":true},"geometry":{"type":"Polygon","coordinates":[[[114.20079999999996,22.3308],[114.20239999999995,22.3308],[114.20239999999995,22.3324],[114.20079999999996,22.3324],[114.20079999999996,22.3308]]]}},{"type":"Feature","properties":{"id":"lu-kowloon-kowloon-city-09-00","class":"built_up","vegetationFraction":0.046,"pavedFraction":0.853,"waterFraction":0.045,"simulated":true},"geometry":{"type":"Polygon","coordinates":[[[114.18,22.3324],[114.1816,22.3324],[114.1816,22.334],[114.18,22.334],[114.18,22.3324]]]}},{"type":"Feature","properties":{"id":"lu-kowloon-kowloon-city-09-01","class":"built_up","vegetationFraction":0.037,"pavedFraction":0.845,"waterFraction":0.014,"simulated":true},"geometry":{"type":"Polygon","coordinates":[[[114.1816,22.3324],[114.1832,22.3324],[114.1832,22.334],[114.1816,22.334],[114.1816,22.3324]]]}},{"type":"Feature","properties":{"id":"lu-kowloon-kowloon-city-09-02","class":"built_up","vegetationFraction":0.021,"pavedFraction":0.95,"waterFraction":0.055,"simulated":true},"geometry":{"type":"Polygon","coordinates":[[[114.1832,22.3324],[114.1848,22.3324],[114.1848,22.334],[114.1832,22.334],[114.1832,22.3324]]]}},{"type":"Feature","properties":{"id":"lu-kowloon-kowloon-city-09-03","class":"built_up","vegetationFraction":0.042,"pavedFraction":0.872,"waterFraction":0.027,"simulated":true},"geometry":{"type":"Polygon","coordinates":[[[114.1848,22.3324],[114.18639999999999,22.3324],[114.18639999999999,22.334],[114.1848,22.334],[114.1848,22.3324]]]}},{"type":"Feature","properties":{"id":"lu-kowloon-kowloon-city-09-04","class":"built_up","vegetationFraction":0.037,"pavedFraction":0.809,"waterFraction":0.054,"simulated":true},"geometry":{"type":"Polygon","coordinates":[[[114.18639999999999,22.3324],[114.18799999999999,22.3324],[114.18799999999999,22.334],[114.18639999999999,22.334],[114.18639999999999,22.3324]]]}},{"type":"Feature","properties":{"id":"lu-kowloon-kowloon-city-09-05","class":"built_up","vegetationFraction":0.043,"pavedFraction":0.94,"waterFraction":0.04,"simulated":true},"geometry":{"type":"Polygon","coordinates":[[[114.18799999999999,22.3324],[114.18959999999998,22.3324],[114.18959999999998,22.334],[114.18799999999999,22.334],[114.18799999999999,22.3324]]]}},{"type":"Feature","properties":{"id":"lu-kowloon-kowloon-city-09-06","class":"built_up","vegetationFraction":0.042,"pavedFraction":0.849,"waterFraction":0.047,"simulated":true},"geometry":{"type":"Polygon","coordinates":[[[114.18959999999998,22.3324],[114.19119999999998,22.3324],[114.19119999999998,22.334],[114.18959999999998,22.334],[114.18959999999998,22.3324]]]}},{"type":"Feature","properties":{"id":"lu-kowloon-kowloon-city-09-07","class":"built_up","vegetationFraction":0.044,"pavedFraction":0.814,"waterFraction":0.059,"simulated":true},"geometry":{"type":"Polygon","coordinates":[[[114.19119999999998,22.3324],[114.19279999999998,22.3324],[114.19279999999998,22.334],[114.19119999999998,22.334],[114.19119999999998,22.3324]]]}},{"type":"Feature","properties":{"id":"lu-kowloon-kowloon-city-09-08","class":"built_up","vegetationFraction":0.034,"pavedFraction":0.95,"waterFraction":0.033,"simulated":true},"geometry":{"type":"Polygon","coordinates":[[[114.19279999999998,22.3324],[114.19439999999997,22.3324],[114.19439999999997,22.334],[114.19279999999998,22.334],[114.19279999999998,22.3324]]]}},{"type":"Feature","properties":{"id":"lu-kowloon-kowloon-city-09-09","class":"built_up","vegetationFraction":0.019,"pavedFraction":0.873,"waterFraction":0.06,"simulated":true},"geometry":{"type":"Polygon","coordinates":[[[114.19439999999997,22.3324],[114.19599999999997,22.3324],[114.19599999999997,22.334],[114.19439999999997,22.334],[114.19439999999997,22.3324]]]}},{"type":"Feature","properties":{"id":"lu-kowloon-kowloon-city-09-10","class":"built_up","vegetationFraction":0.035,"pavedFraction":0.947,"waterFraction":0.046,"simulated":true},"geometry":{"type":"Polygon","coordinates":[[[114.19599999999997,22.3324],[114.19759999999997,22.3324],[114.19759999999997,22.334],[114.19599999999997,22.334],[114.19599999999997,22.3324]]]}},{"type":"Feature","properties":{"id":"lu-kowloon-kowloon-city-09-11","class":"built_up","vegetationFraction":0.04,"pavedFraction":0.95,"waterFraction":0.036,"simulated":true},"geometry":{"type":"Polygon","coordinates":[[[114.19759999999997,22.3324],[114.19919999999996,22.3324],[114.19919999999996,22.334],[114.19759999999997,22.334],[114.19759999999997,22.3324]]]}},{"type":"Feature","properties":{"id":"lu-kowloon-kowloon-city-09-12","class":"built_up","vegetationFraction":0.04,"pavedFraction":0.95,"waterFraction":0.014,"simulated":true},"geometry":{"type":"Polygon","coordinates":[[[114.19919999999996,22.3324],[114.20079999999996,22.3324],[114.20079999999996,22.334],[114.19919999999996,22.334],[114.19919999999996,22.3324]]]}},{"type":"Feature","properties":{"id":"lu-kowloon-kowloon-city-09-13","class":"built_up","vegetationFraction":0.046,"pavedFraction":0.861,"waterFraction":0.044,"simulated":true},"geometry":{"type":"Polygon","coordinates":[[[114.20079999999996,22.3324],[114.20239999999995,22.3324],[114.20239999999995,22.334],[114.20079999999996,22.334],[114.20079999999996,22.3324]]]}},{"type":"Feature","properties":{"id":"lu-kowloon-kowloon-city-10-00","class":"built_up","vegetationFraction":0.129,"pavedFraction":0.559,"waterFraction":0.02,"simulated":true},"geometry":{"type":"Polygon","coordinates":[[[114.18,22.334],[114.1816,22.334],[114.1816,22.3356],[114.18,22.3356],[114.18,22.334]]]}},{"type":"Feature","properties":{"id":"lu-kowloon-kowloon-city-10-01","class":"built_up","vegetationFraction":0.173,"pavedFraction":0.832,"waterFraction":0.026,"simulated":true},"geometry":{"type":"Polygon","coordinates":[[[114.1816,22.334],[114.1832,22.334],[114.1832,22.3356],[114.1816,22.3356],[114.1816,22.334]]]}},{"type":"Feature","properties":{"id":"lu-kowloon-kowloon-city-10-02","class":"built_up","vegetationFraction":0.092,"pavedFraction":0.797,"waterFraction":0.029,"simulated":true},"geometry":{"type":"Polygon","coordinates":[[[114.1832,22.334],[114.1848,22.334],[114.1848,22.3356],[114.1832,22.3356],[114.1832,22.334]]]}},{"type":"Feature","properties":{"id":"lu-kowloon-kowloon-city-10-03","class":"built_up","vegetationFraction":0.085,"pavedFraction":0.806,"waterFraction":0.039,"simulated":true},"geometry":{"type":"Polygon","coordinates":[[[114.1848,22.334],[114.18639999999999,22.334],[114.18639999999999,22.3356],[114.1848,22.3356],[114.1848,22.334]]]}},{"type":"Feature","properties":{"id":"lu-kowloon-kowloon-city-10-04","class":"built_up","vegetationFraction":0.108,"pavedFraction":0.809,"waterFraction":0.006,"simulated":true},"geometry":{"type":"Polygon","coordinates":[[[114.18639999999999,22.334],[114.18799999999999,22.334],[114.18799999999999,22.3356],[114.18639999999999,22.3356],[114.18639999999999,22.334]]]}},{"type":"Feature","properties":{"id":"lu-kowloon-kowloon-city-10-05","class":"built_up","vegetationFraction":0.171,"pavedFraction":0.601,"waterFraction":0.048,"simulated":true},"geometry":{"type":"Polygon","coordinates":[[[114.18799999999999,22.334],[114.18959999999998,22.334],[114.18959999999998,22.3356],[114.18799999999999,22.3356],[114.18799999999999,22.334]]]}},{"type":"Feature","properties":{"id":"lu-kowloon-kowloon-city-10-06","class":"built_up","vegetationFraction":0.136,"pavedFraction":0.599,"waterFraction":0.059,"simulated":true},"geometry":{"type":"Polygon","coordinates":[[[114.18959999999998,22.334],[114.19119999999998,22.334],[114.19119999999998,22.3356],[114.18959999999998,22.3356],[114.18959999999998,22.334]]]}},{"type":"Feature","properties":{"id":"lu-kowloon-kowloon-city-10-07","class":"built_up","vegetationFraction":0.065,"pavedFraction":0.762,"waterFraction":0.036,"simulated":true},"geometry":{"type":"Polygon","coordinates":[[[114.19119999999998,22.334],[114.19279999999998,22.334],[114.19279999999998,22.3356],[114.19119999999998,22.3356],[114.19119999999998,22.334]]]}},{"type":"Feature","properties":{"id":"lu-kowloon-kowloon-city-10-08","class":"built_up","vegetationFraction":0.177,"pavedFraction":0.755,"waterFraction":0.027,"simulated":true},"geometry":{"type":"Polygon","coordinates":[[[114.19279999999998,22.334],[114.19439999999997,22.334],[114.19439999999997,22.3356],[114.19279999999998,22.3356],[114.19279999999998,22.334]]]}},{"type":"Feature","properties":{"id":"lu-kowloon-kowloon-city-10-09","class":"built_up","vegetationFraction":0.072,"pavedFraction":0.742,"waterFraction":0.04,"simulated":true},"geometry":{"type":"Polygon","coordinates":[[[114.19439999999997,22.334],[114.19599999999997,22.334],[114.19599999999997,22.3356],[114.19439999999997,22.3356],[114.19439999999997,22.334]]]}},{"type":"Feature","properties":{"id":"lu-kowloon-kowloon-city-10-10","class":"built_up","vegetationFraction":0.158,"pavedFraction":0.641,"waterFraction":0.019,"simulated":true},"geometry":{"type":"Polygon","coordinates":[[[114.19599999999997,22.334],[114.19759999999997,22.334],[114.19759999999997,22.3356],[114.19599999999997,22.3356],[114.19599999999997,22.334]]]}},{"type":"Feature","properties":{"id":"lu-kowloon-kowloon-city-10-11","class":"built_up","vegetationFraction":0.147,"pavedFraction":0.841,"waterFraction":0.046,"simulated":true},"geometry":{"type":"Polygon","coordinates":[[[114.19759999999997,22.334],[114.19919999999996,22.334],[114.19919999999996,22.3356],[114.19759999999997,22.3356],[114.19759999999997,22.334]]]}},{"type":"Feature","properties":{"id":"lu-kowloon-kowloon-city-10-12","class":"built_up","vegetationFraction":0.075,"pavedFraction":0.621,"waterFraction":0.003,"simulated":true},"geometry":{"type":"Polygon","coordinates":[[[114.19919999999996,22.334],[114.20079999999996,22.334],[114.20079999999996,22.3356],[114.19919999999996,22.3356],[114.19919999999996,22.334]]]}},{"type":"Feature","properties":{"id":"lu-kowloon-kowloon-city-10-13","class":"built_up","vegetationFraction":0.15,"pavedFraction":0.57,"waterFraction":0.016,"simulated":true},"geometry":{"type":"Polygon","coordinates":[[[114.20079999999996,22.334],[114.20239999999995,22.334],[114.20239999999995,22.3356],[114.20079999999996,22.3356],[114.20079999999996,22.334]]]}},{"type":"Feature","properties":{"id":"lu-kowloon-kowloon-city-11-00","class":"built_up","vegetationFraction":0.148,"pavedFraction":0.738,"waterFraction":0.051,"simulated":true},"geometry":{"type":"Polygon","coordinates":[[[114.18,22.3356],[114.1816,22.3356],[114.1816,22.3372],[114.18,22.3372],[114.18,22.3356]]]}},{"type":"Feature","properties":{"id":"lu-kowloon-kowloon-city-11-01","class":"built_up","vegetationFraction":0.148,"pavedFraction":0.577,"waterFraction":0.005,"simulated":true},"geometry":{"type":"Polygon","coordinates":[[[114.1816,22.3356],[114.1832,22.3356],[114.1832,22.3372],[114.1816,22.3372],[114.1816,22.3356]]]}},{"type":"Feature","properties":{"id":"lu-kowloon-kowloon-city-11-02","class":"built_up","vegetationFraction":0.094,"pavedFraction":0.57,"waterFraction":0.01,"simulated":true},"geometry":{"type":"Polygon","coordinates":[[[114.1832,22.3356],[114.1848,22.3356],[114.1848,22.3372],[114.1832,22.3372],[114.1832,22.3356]]]}},{"type":"Feature","properties":{"id":"lu-kowloon-kowloon-city-11-03","class":"built_up","vegetationFraction":0.15,"pavedFraction":0.588,"waterFraction":0.019,"simulated":true},"geometry":{"type":"Polygon","coordinates":[[[114.1848,22.3356],[114.18639999999999,22.3356],[114.18639999999999,22.3372],[114.1848,22.3372],[114.1848,22.3356]]]}},{"type":"Feature","properties":{"id":"lu-kowloon-kowloon-city-11-04","class":"built_up","vegetationFraction":0.094,"pavedFraction":0.77,"waterFraction":0.002,"simulated":true},"geometry":{"type":"Polygon","coordinates":[[[114.18639999999999,22.3356],[114.18799999999999,22.3356],[114.18799999999999,22.3372],[114.18639999999999,22.3372],[114.18639999999999,22.3356]]]}},{"type":"Feature","properties":{"id":"lu-kowloon-kowloon-city-11-05","class":"built_up","vegetationFraction":0.152,"pavedFraction":0.845,"waterFraction":0.048,"simulated":true},"geometry":{"type":"Polygon","coordinates":[[[114.18799999999999,22.3356],[114.18959999999998,22.3356],[114.18959999999998,22.3372],[114.18799999999999,22.3372],[114.18799999999999,22.3356]]]}},{"type":"Feature","properties":{"id":"lu-kowloon-kowloon-city-11-06","class":"built_up","vegetationFraction":0.102,"pavedFraction":0.678,"waterFraction":0.014,"simulated":true},"geometry":{"type":"Polygon","coordinates":[[[114.18959999999998,22.3356],[114.19119999999998,22.3356],[114.19119999999998,22.3372],[114.18959999999998,22.3372],[114.18959999999998,22.3356]]]}},{"type":"Feature","properties":{"id":"lu-kowloon-kowloon-city-11-07","class":"built_up","vegetationFraction":0.067,"pavedFraction":0.789,"waterFraction":0.028,"simulated":true},"geometry":{"type":"Polygon","coordinates":[[[114.19119999999998,22.3356],[114.19279999999998,22.3356],[114.19279999999998,22.3372],[114.19119999999998,22.3372],[114.19119999999998,22.3356]]]}},{"type":"Feature","properties":{"id":"lu-kowloon-kowloon-city-11-08","class":"built_up","vegetationFraction":0.093,"pavedFraction":0.603,"waterFraction":0.037,"simulated":true},"geometry":{"type":"Polygon","coordinates":[[[114.19279999999998,22.3356],[114.19439999999997,22.3356],[114.19439999999997,22.3372],[114.19279999999998,22.3372],[114.19279999999998,22.3356]]]}},{"type":"Feature","properties":{"id":"lu-kowloon-kowloon-city-11-09","class":"built_up","vegetationFraction":0.099,"pavedFraction":0.794,"waterFraction":0.028,"simulated":true},"geometry":{"type":"Polygon","coordinates":[[[114.19439999999997,22.3356],[114.19599999999997,22.3356],[114.19599999999997,22.3372],[114.19439999999997,22.3372],[114.19439999999997,22.3356]]]}},{"type":"Feature","properties":{"id":"lu-kowloon-kowloon-city-11-10","class":"built_up","vegetationFraction":0.119,"pavedFraction":0.628,"waterFraction":0.04,"simulated":true},"geometry":{"type":"Polygon","coordinates":[[[114.19599999999997,22.3356],[114.19759999999997,22.3356],[114.19759999999997,22.3372],[114.19599999999997,22.3372],[114.19599999999997,22.3356]]]}},{"type":"Feature","properties":{"id":"lu-kowloon-kowloon-city-11-11","class":"built_up","vegetationFraction":0.117,"pavedFraction":0.716,"waterFraction":0.057,"simulated":true},"geometry":{"type":"Polygon","coordinates":[[[114.19759999999997,22.3356],[114.19919999999996,22.3356],[114.19919999999996,22.3372],[114.19759999999997,22.3372],[114.19759999999997,22.3356]]]}},{"type":"Feature","properties":{"id":"lu-kowloon-kowloon-city-11-12","class":"built_up","vegetationFraction":0.105,"pavedFraction":0.644,"waterFraction":0.045,"simulated":true},"geometry":{"type":"Polygon","coordinates":[[[114.19919999999996,22.3356],[114.20079999999996,22.3356],[114.20079999999996,22.3372],[114.19919999999996,22.3372],[114.19919999999996,22.3356]]]}},{"type":"Feature","properties":{"id":"lu-kowloon-kowloon-city-11-13","class":"built_up","vegetationFraction":0.148,"pavedFraction":0.785,"waterFraction":0.035,"simulated":true},"geometry":{"type":"Polygon","coordinates":[[[114.20079999999996,22.3356],[114.20239999999995,22.3356],[114.20239999999995,22.3372],[114.20079999999996,22.3372],[114.20079999999996,22.3356]]]}}]}