{"type":"FeatureCollection","features":[{"type":"Feature","properties":{"id":"lu-kowloon-wong-tai-sin-00-00","class":"urban_open_space","vegetationFraction":0.27,"pavedFraction":0.732,"waterFraction":0.022,"simulated":true},"geometry":{"type":"Polygon","coordinates":[[[114.183,22.336],[114.1846,22.336],[114.1846,22.3376],[114.183,22.3376],[114.183,22.336]]]}},{"type":"Feature","properties":{"id":"lu-kowloon-wong-tai-sin-00-01","class":"built_up","vegetationFraction":0.169,"pavedFraction":0.615,"waterFraction":0.053,"simulated":true},"geometry":{"type":"Polygon","coordinates":[[[114.1846,22.336],[114.1862,22.336],[114.1862,22.3376],[114.1846,22.3376],[114.1846,22.336]]]}},{"type":"Feature","properties":{"id":"lu-kowloon-wong-tai-sin-00-02","class":"built_up","vegetationFraction":0.121,"pavedFraction":0.631,"waterFraction":0.052,"simulated":true},"geometry":{"type":"Polygon","coordinates":[[[114.1862,22.336],[114.1878,22.336],[114.1878,22.3376],[114.1862,22.3376],[114.1862,22.336]]]}},{"type":"Feature","properties":{"id":"lu-kowloon-wong-tai-sin-00-03","class":"built_up","vegetationFraction":0.126,"pavedFraction":0.504,"waterFraction":0.016,"simulated":true},"geometry":{"type":"Polygon","coordinates":[[[114.1878,22.336],[114.18939999999999,22.336],[114.18939999999999,22.3376],[114.1878,22.3376],[114.1878,22.336]]]}},{"type":"Feature","properties":{"id":"lu-kowloon-wong-tai-sin-00-04","class":"built_up","vegetationFraction":0.163,"pavedFraction":0.581,"waterFraction":0.013,"simulated":true},"geometry":{"type":"Polygon","coordinates":[[[114.18939999999999,22.336],[114.19099999999999,22.336],[114.19099999999999,22.3376],[114.18939999999999,22.3376],[114.18939999999999,22.336]]]}},{"type":"Feature","properties":{"id":"lu-kowloon-wong-tai-sin-00-05","class":"built_up","vegetationFraction":0.246,"pavedFraction":0.631,"waterFraction":0.023,"simulated":true},"geometry":{"type":"Polygon","coordinates":[[[114.19099999999999,22.336],[114.19259999999998,22.336],[114.19259999999998,22.3376],[114.19099999999999,22.3376],[114.19099999999999,22.336]]]}},{"type":"Feature","properties":{"id":"lu-kowloon-wong-tai-sin-00-06","class":"built_up","vegetationFraction":0.14,"pavedFraction":0.684,"waterFraction":0.038,"simulated":true},"geometry":{"type":"Polygon","coordinates":[[[114.19259999999998,22.336],[114.19419999999998,22.336],[114.19419999999998,22.3376],[114.19259999999998,22.3376],[114.19259999999998,22.336]]]}},{"type":"Feature","properties":{"id":"lu-kowloon-wong-tai-sin-00-07","class":"built_up","vegetationFraction":0.215,"pavedFraction":0.686,"waterFraction":0.031,"simulated":true},"geometry":{"type":"Polygon","coordinates":[[[114.19419999999998,22.336],[114.19579999999998,22.336],[114.19579999999998,22.3376],[114.19419999999998,22.3376],[114.19419999999998,22.336]]]}},{"type":"Feature","properties":{"id":"lu-kowloon-wong-tai-sin-00-08","class":"built_up","vegetationFraction":0.173,"pavedFraction":0.735,"waterFraction":0.007,"simulated":true},"geometry":{"type":"Polygon","coordinates":[[[114.19579999999998,22.336],[114.19739999999997,22.336],[114.19739999999997,22.3376],[114.19579999999998,22.3376],[114.19579999999998,22.336]]]}},{"type":"Feature","properties":{"id":"lu-kowloon-wong-tai-sin-00-09","class":"built_up","vegetationFraction":0.232,"pavedFraction":0.745,"waterFraction":0.022,"simulated":true},"geometry":{"type":"Polygon","coordinates":[[[114.19739999999997,22.336],[114.19899999999997,22.336],[114.19899999999997,22.3376],[114.19739999999997,22.3376],[114.19739999999997,22.336]]]}},{"type":"Feature","properties":{"id":"lu-kowloon-wong-tai-sin-00-10","class":"built_up","vegetationFraction":0.14,"pavedFraction":0.753,"waterFraction":0.038,"simulated":true},"geometry":{"type":"Polygon","coordinates":[[[114.19899999999997,22.336],[114.20059999999997,22.336],[114.20059999999997,22.3376],[114.19899999999997,22.3376],[114.19899999999997,22.336]]]}},{"type":"Feature","properties":{"id":"lu-kowloon-wong-tai-sin-00-11","class":"built_up","vegetationFraction":0.171,"pavedFraction":0.715,"waterFraction":0.028,"simulated":true},"geometry":{"type":"Polygon","coordinates":[[[114.20059999999997,22.336],[114.20219999999996,22.336],[114.20219999999996,22.3376],[114.20059999999997,22.3376],[114.20059999999997,22.336]]]}},{"type":"Feature","properties":{"id":"lu-kowloon-wong-tai-sin-00-12","class":"built_up","vegetationFraction":0.166,"pavedFraction":0.725,"waterFraction":0.026,"simulated":true},"geometry":{"type":"Polygon","coordinates":[[[114.20219999999996,22.336],[114.20379999999996,22.336],[114.20379999999996,22.3376],[114.20219999999996,22.3376],[114.20219999999996,22.336]]]}},{"type":"Feature","properties":{"id":"lu-kowloon-wong-tai-sin-00-13","class":"built_up","vegetationFraction":0.164,"pavedFraction":0.679,"waterFraction":0.02,"simulated":true},"geometry":{"type":"Polygon","coordinates":[[[114.20379999999996,22.336],[114.20539999999995,22.336],[114.20539999999995,22.3376],[114.20379999999996,22.3376],[114.20379999999996,22.336]]]}},{"type":"Feature","properties":{"id":"lu-kowloon-wong-tai-sin-00-14","class":"built_up","vegetationFraction":0.172,"pavedFraction":0.686,"waterFraction":0.019,"simulated":true},"geometry":{"type":"Polygon","coordinates":[[[114.20539999999995,22.336],[114.20699999999995,22.336],[114.20699999999995,22.3376],[114.20539999999995,22.3376],[114.20539999999995,22.336]]]}},{"type":"Feature","properties":{"id":"lu-kowloon-wong-tai-sin-00-15","class":"built_up","vegetationFraction":0.224,"pavedFraction":0.705,"waterFraction":0.02,"simulated":true},"geometry":{"type":"Polygon","coordinates":[[[114.20699999999995,22.336],[114.20859999999995,22.336],[114.20859999999995,22.3376],[114.20699999999995,22.3376],[114.20699999999995,22.336]]]}},{"type":"Feature","properties":{"id":"lu-kowloon-wong-tai-sin-00-16","class":"built_up","vegetationFraction":0.168,"pavedFraction":0.56,"waterFraction":0.027,"simulated":true},"geometry":{"type":"Polygon","coordinates":[[[114.20859999999995,22.336],[114.21019999999994,22.336],[114.21019999999994,22.3376],[114.20859999999995,22.3376],[114.20859999999995,22.336]]]}},{"type":"Feature","properties":{"id":"lu-kowloon-wong-tai-sin-00-17","class":"built_up","vegetationFraction":0.239,"pavedFraction":0.585,"waterFraction":0.003,"simulated":true},"geometry":{"type":"Polygon","coordinates":[[[114.21019999999994,22.336],[114.21179999999994,22.336],[114.21179999999994,22.3376],[114.21019999999994,22.3376],[114.21019999999994,22.336]]]}},{"type":"Feature","properties":{"id":"lu-kowloon-wong-tai-sin-00-18","class":"built_up","vegetationFraction":0.174,"pavedFraction":0.742,"waterFraction":0.007,"simulated":true},"geometry":{"type":"Polygon","coordinates":[[[114.21179999999994,22.336],[114.21339999999994,22.336],[114.21339999999994,22.3376],[114.21179999999994,22.3376],[114.21179999999994,22.336]]]}},{"type":"Feature","properties":{"id":"lu-kowloon-wong-tai-sin-01-00","class":"built_up","vegetationFraction":0.249,"pavedFraction":0.531,"waterFraction":0.054,"simulated":true},"geometry":{"type":"Polygon","coordinates":[[[114.183,22.3376],[114.1846,22.3376],[114.1846,22.339199999999998],[114.183,22.339199999999998],[114.183,22.3376]]]}},{"type":"Feature","properties":{"id":"lu-kowloon-wong-tai-sin-01-01","class":"built_up","vegetationFraction":0.13,"pavedFraction":0.762,"waterFraction":0.034,"simulated":true},"geometry":{"type":"Polygon","coordinates":[[[114.1846,22.3376],[114.1862,22.3376],[114.1862,22.339199999999998],[114.1846,22.339199999999998],[114.1846,22.3376]]]}},{"type":"Feature","properties":{"id":"lu-kowloon-wong-tai-sin-01-02","class":"built_up","vegetationFraction":0.137,"pavedFraction":0.652,"waterFraction":0.052,"simulated":true},"geometry":{"type":"Polygon","coordinates":[[[114.1862,22.3376],[114.1878,22.3376],[114.1878,22.339199999999998],[114.1862,22.339199999999998],[114.1862,22.3376]]]}},{"type":"Feature","properties":{"id":"lu-kowloon-wong-tai-sin-01-03","class":"built_up","vegetationFraction":0.127,"pavedFraction":0.733,"waterFraction":0.013,"simulated":true},"geometry":{"type":"Polygon","coordinates":[[[114.1878,22.3376],[114.18939999999999,22.3376],[114.18939999999999,22.339199999999998],[114.1878,22.339199999999998],[114.1878,22.3376]]]}},{"type":"Feature","properties":{"id":"lu-kowloon-wong-tai-sin-01-04","class":"built_up","vegetationFraction":0.176,"pavedFraction":0.698,"waterFraction":0.039,"simulated":true},"geometry":{"type":"Polygon","coordinates":[[[114.18939999999999,22.3376],[114.19099999999999,22.3376],[114.19099999999999,22.339199999999998],[114.18939999999999,22.339199999999998],[114.18939999999999,22.3376]]]}},{"type":"Feature","properties":{"id":"lu-kowloon-wong-tai-sin-01-05","class":"built_up","vegetationFraction":0.235,"pavedFraction":0.565,"waterFraction":0.047,"simulated":true},"geometry":{"type":"Polygon","coordinates":[[[114.19099999999999,22.3376],[114.19259999999998,22.3376],[114.19259999999998,22.339199999999998],[114.19099999999999,22.339199999999998],[114.19099999999999,22.3376]]]}},{"type":"Feature","properties":{"id":"lu-kowloon-wong-tai-sin-01-06","class":"built_up","vegetationFraction":0.241,"pavedFraction":0.747,"waterFraction":0.012,"simulated":true},"geometry":{"type":"Polygon","coordinates":[[[114.19259999999998,22.3376],[114.19419999999998,22.3376],[114.19419999999998,22.339199999999998],[114.19259999999998,22.339199999999998],[114.19259999999998,22.3376]]]}},{"type":"Feature","properties":{"id":"lu-kowloon-wong-tai-sin-01-07","class":"built_up","vegetationFraction":0.238,"pavedFraction":0.688,"waterFraction":0.048,"simulated":true},"geometry":{"type":"Polygon","coordinates":[[[114.19419999999998,22.3376],[114.19579999999998,22.3376],[114.19579999999998,22.339199999999998],[114.19419999999998,22.339199999999998],[114.19419999999998,22.3376]]]}},{"type":"Feature","properties":{"id":"lu-kowloon-wong-tai-sin-01-08","class":"built_up","vegetationFraction":0.136,"pavedFraction":0.761,"waterFraction":0.011,"simulated":true},"geometry":{"type":"Polygon","coordinates":[[[114.19579999999998,22.3376],[114.19739999999997,22.3376],[114.19739999999997,22.339199999999998],[114.19579999999998,22.339199999999998],[114.19579999999998,22.3376]]]}},{"type":"Feature","properties":{"id":"lu-kowloon-wong-tai-sin-01-09","class":"built_up","vegetationFraction":0.13,"pavedFraction":0.766,"waterFraction":0.038,"simulated":true},"geometry":{"type":"Polygon","coordinates":[[[114.19739999999997,22.3376],[114.19899999999997,22.3376],[114.19899999999997,22.339199999999998],[114.19739999999997,22.339199999999998],[114.19739999999997,22.3376]]]}},{"type":"Feature","properties":{"id":"lu-kowloon-wong-tai-sin-01-10","class":"urban_open_space","vegetationFraction":0.261,"pavedFraction":0.68,"waterFraction":0.008,"simulated":true},"geometry":{"type":"Polygon","coordinates":[[[114.19899999999997,22.3376],[114.20059999999997,22.3376],[114.20059999999997,22.339199999999998],[114.19899999999997,22.339199999999998],[114.19899999999997,22.3376]]]}},{"type":"Feature","properties":{"id":"lu-kowloon-wong-tai-sin-01-11","class":"built_up","vegetationFraction":0.208,"pavedFraction":0.678,"waterFraction":0.036,"simulated":true},"geometry":{"type":"Polygon","coordinates":[[[114.20059999999997,22.3376],[114.20219999999996,22.3376],[114.20219999999996,22.339199999999998],[114.20059999999997,22.339199999999998],[114.20059999999997,22.3376]]]}},{"type":"Feature","properties":{"id":"lu-kowloon-wong-tai-sin-01-12","class":"built_up","vegetationFraction":0.168,"pavedFraction":0.539,"waterFraction":0.038,"simulated":true},"geometry":{"type":"Polygon","coordinates":[[[114.20219999999996,22.3376],[114.20379999999996,22.3376],[114.20379999999996,22.339199999999998],[114.20219999999996,22.339199999999998],[114.20219999999996,22.3376]]]}},{"type":"Feature","properties":{"id":"lu-kowloon-wong-tai-sin-01-13","class":"urban_open_space","vegetationFraction":0.261,"pavedFraction":0.667,"waterFraction":0.055,"simulated":true},"geometry":{"type":"Polygon","coordinates":[[[114.20379999999996,22.3376],[114.20539999999995,22.3376],[114.20539999999995,22.339199999999998],[114.20379999999996,22.339199999999998],[114.20379999999996,22.3376]]]}},{"type":"Feature","properties":{"id":"lu-kowloon-wong-tai-sin-01-14","class":"urban_open_space","vegetationFraction":0.251,"pavedFraction":0.564,"waterFraction":0.012,"simulated":true},"geometry":{"type":"Polygon","coordinates":[[[114.20539999999995,22.3376],[114.20699999999995,22.3376],[114.20699999999995,22.339199999999998],[114.20539999999995,22.339199999999998],[114.20539999999995,22.3376]]]}},{"type":"Feature","properties":{"id":"lu-kowloon-wong-tai-sin-01-15","class":"urban_open_space","vegetationFraction":0.272,"pavedFraction":0.547,"waterFraction":0.047,"simulated":true},"geometry":{"type":"Polygon","coordinates":[[[114.20699999999995,22.3376],[114.20859999999995,22.3376],[114.20859999999995,22.339199999999998],[114.20699999999995,22.339199999999998],[114.20699999999995,22.3376]]]}},{"type":"Feature","properties":{"id":"lu-kowloon-wong-tai-sin-01-16","class":"built_up","vegetationFraction":0.187,"pavedFraction":0.752,"waterFraction":0.047,"simulated":true},"geometry":{"type":"Polygon","coordinates":[[[114.20859999999995,22.3376],[114.21019999999994,22.3376],[114.21019999999994,22.339199999999998],[114.20859999999995,22.339199999999998],[114.20859999999995,22.3376]]]}},{"type":"Feature","properties":{"id":"lu-kowloon-wong-tai-sin-01-17","class":"built_up","vegetationFraction":0.2,"pavedFraction":0.716,"waterFraction":0.032,"simulated":true},"geometry":{"type":"Polygon","coordinates":[[[114.21019999999994,22.3376],[114.21179999999994,22.3376],[114.21179999999994,22.339199999999998],[114.21019999999994,22.339199999999998],[114.21019999999994,22.3376]]]}},{"type":"Feature","properties":{"id":"lu-kowloon-wong-tai-sin-01-18","class":"built_up","vegetationFraction":0.115,"pavedFraction":0.516,"waterFraction":0.053,"simulated":true},"geometry":{"type":"Polygon","coordinates":[[[114.21179999999994,22.3376],[114.21339999999994,22.3376],[114.21339999999994,22.339199999999998],[114.21179999999994,22.339199999999998],[114.21179999999994,22.3376]]]}},{"type":"Feature","properties":{"id":"lu-kowloon-wong-tai-sin-02-00","class":"built_up","vegetationFraction":0.13,"pavedFraction":0.512,"waterFraction":0.038,"simulated":true},"geometry":{"type":"Polygon","coordinates":[[[114.183,22.339199999999998],[114.1846,22.339199999999998],[114.1846,22.340799999999998],[114.183,22.340799999999998],[114.183,22.339199999999998]]]}},{"type":"Feature","properties":{"id":"lu-kowloon-wong-tai-sin-02-01","class":"built_up","vegetationFraction":0.1,"pavedFraction":0.499,"waterFraction":0.024,"simulated":true},"geometry":{"type":"Polygon","coordinates":[[[114.1846,22.339199999999998],[114.1862,22.339199999999998],[114.1862,22.340799999999998],[114.1846,22.340799999999998],[114.1846,22.339199999999998]]]}},{"type":"Feature","properties":{"id":"lu-kowloon-wong-tai-sin-02-02","class":"built_up","vegetationFraction":0.225,"pavedFraction":0.504,"waterFraction":0.032,"simulated":true},"geometry":{"type":"Polygon","coordinates":[[[114.1862,22.339199999999998],[114.1878,22.339199999999998],[114.1878,22.340799999999998],[114.1862,22.340799999999998],[114.1862,22.339199999999998]]]}},{"type":"Feature","properties":{"id":"lu-kowloon-wong-tai-sin-02-03","class":"built_up","vegetationFraction":0.224,"pavedFraction":0.531,"waterFraction":0.034,"simulated":true},"geometry":{"type":"Polygon","coordinates":[[[114.1878,22.339199999999998],[114.18939999999999,22.339199999999998],[114.18939999999999,22.340799999999998],[114.1878,22.340799999999998],[114.1878,22.339199999999998]]]}},{"type":"Feature","properties":{"id":"lu-kowloon-wong-tai-sin-02-04","class":"built_up","vegetationFraction":0.113,"pavedFraction":0.615,"waterFraction":0.047,"simulated":true},"geometry":{"type":"Polygon","coordinates":[[[114.18939999999999,22.339199999999998],[114.19099999999999,22.339199999999998],[114.19099999999999,22.340799999999998],[114.18939999999999,22.340799999999998],[114.18939999999999,22.339199999999998]]]}},{"type":"Feature","properties":{"id":"lu-kowloon-wong-tai-sin-02-05","class":"built_up","vegetationFraction":0.133,"pavedFraction":0.642,"waterFraction":0.002,"simulated":true},"geometry":{"type":"Polygon","coordinates":[[[114.19099999999999,22.339199999999998],[114.19259999999998,22.339199999999998],[114.19259999999998,22.340799999999998],[114.19099999999999,22.340799999999998],[114.19099999999999,22.339199999999998]]]}},{"type":"Feature","properties":{"id":"lu-kowloon-wong-tai-sin-02-06","class":"built_up","vegetationFraction":0.17,"pavedFraction":0.632,"waterFraction":0.032,"simulated":true},"geometry":{"type":"Polygon","coordinates":[[[114.19259999999998,22.339199999999998],[114.19419999999998,22.339199999999998],[114.19419999999998,22.340799999999998],[114.19259999999998,22.340799999999998],[114.19259999999998,22.339199999999998]]]}},{"type":"Feature","properties":{"id":"lu-kowloon-wong-tai-sin-02-07","class":"built_up","vegetationFraction":0.221,"pavedFraction":0.576,"waterFraction":0.042,"simulated":true},"geometry":{"type":"Polygon","coordinates":[[[114.19419999999998,22.339199999999998],[114.19579999999998,22.339199999999998],[114.19579999999998,22.340799999999998],[114.19419999999998,22.340799999999998],[114.19419999999998,22.339199999999998]]]}},{"type":"Feature","properties":{"id":"lu-kowloon-wong-tai-sin-02-08","class":"built_up","vegetationFraction":0.211,"pavedFraction":0.631,"waterFraction":0.015,"simulated":true},"geometry":{"type":"Polygon","coordinates":[[[114.19579999999998,22.339199999999998],[114.19739999999997,22.339199999999998],[114.19739999999997,22.340799999999998],[114.19579999999998,22.340799999999998],[114.19579999999998,22.339199999999998]]]}},{"type":"Feature","properties":{"id":"lu-kowloon-wong-tai-sin-02-09","class":"built_up","vegetationFraction":0.237,"pavedFraction":0.625,"waterFraction":0.023,"simulated":true},"geometry":{"type":"Polygon","coordinates":[[[114.19739999999997,22.339199999999998],[114.19899999999997,22.339199999999998],[114.19899999999997,22.340799999999998],[114.19739999999997,22.340799999999998],[114.19739999999997,22.339199999999998]]]}},{"type":"Feature","properties":{"id":"lu-kowloon-wong-tai-sin-02-10","class":"built_up","vegetationFraction":0.163,"pavedFraction":0.706,"waterFraction":0.042,"simulated":true},"geometry":{"type":"Polygon","coordinates":[[[114.19899999999997,22.339199999999998],[114.20059999999997,22.339199999999998],[114.20059999999997,22.340799999999998],[114.19899999999997,22.340799999999998],[114.19899999999997,22.339199999999998]]]}},{"type":"Feature","properties":{"id":"lu-kowloon-wong-tai-sin-02-11","class":"urban_open_space","vegetationFraction":0.276,"pavedFraction":0.766,"waterFraction":0.023,"simulated":true},"geometry":{"type":"Polygon","coordinates":[[[114.20059999999997,22.339199999999998],[114.20219999999996,22.339199999999998],[114.20219999999996,22.340799999999998],[114.20059999999997,22.340799999999998],[114.20059999999997,22.339199999999998]]]}},{"type":"Feature","properties":{"id":"lu-kowloon-wong-tai-sin-02-12","class":"built_up","vegetationFraction":0.152,"pavedFraction":0.589,"waterFraction":0.024,"simulated":true},"geometry":{"type":"Polygon","coordinates":[[[114.20219999999996,22.339199999999998],[114.20379999999996,22.339199999999998],[114.20379999999996,22.340799999999998],[114.20219999999996,22.340799999999998],[114.20219999999996,22.339199999999998]]]}},{"type":"Feature","properties":{"id":"lu-kowloon-wong-tai-sin-02-13","class":"built_up","vegetationFraction":0.125,"pavedFraction":0.494,"waterFraction":0.037,"simulated":true},"geometry":{"type":"Polygon","coordinates":[[[114.20379999999996,22.339199999999998],[114.20539999999995,22.339199999999998],[114.20539999999995,22.340799999999998],[114.20379999999996,22.340799999999998],[114.20379999999996,22.339199999999998]]]}},{"type":"Feature","properties":{"id":"lu-kowloon-wong-tai-sin-02-14","class":"urban_open_space","vegetationFraction":0.273,"pavedFraction":0.7,"waterFraction":0.007,"simulated":true},"geometry":{"type":"Polygon","coordinates":[[[114.20539999999995,22.339199999999998],[114.20699999999995,22.339199999999998],[114.20699999999995,22.340799999999998],[114.20539999999995,22.340799999999998],[114.20539999999995,22.339199999999998]]]}},{"type":"Feature","properties":{"id":"lu-kowloon-wong-tai-sin-02-15","class":"urban_open_space","vegetationFraction":0.25,"pavedFraction":0.575,"waterFraction":0.027,"simulated":true},"geometry":{"type":"Polygon","coordinates":[[[114.20699999999995,22.339199999999998],[114.20859999999995,22.339199999999998],[114.20859999999995,22.340799999999998],[114.20699999999995,22.340799999999998],[114.20699999999995,22.339199999999998]]]}},{"type":"Feature","properties":{"id":"lu-kowloon-wong-tai-sin-02-16","class":"built_up","vegetationFraction":0.221,"pavedFraction":0.606,"waterFraction":0.026,"simulated":true},"geometry":{"type":"Polygon","coordinates":[[[114.20859999999995,22.339199999999998],[114.21019999999994,22.339199999999998],[114.21019999999994,22.340799999999998],[114.20859999999995,22.340799999999998],[114.20859999999995,22.339199999999998]]]}},{"type":"Feature","properties":{"id":"lu-kowloon-wong-tai-sin-02-17","class":"urban_open_space","vegetationFraction":0.257,"pavedFraction":0.499,"waterFraction":0.013,"simulated":true},"geometry":{"type":"Polygon","coordinates":[[[114.21019999999994,22.339199999999998],[114.21179999999994,22.339199999999998],[114.21179999999994,22.340799999999998],[114.21019999999994,22.340799999999998],[114.21019999999994,22.339199999999998]]]}},{"type":"Feature","properties":{"id":"lu-kowloon-wong-tai-sin-02-18","class":"built_up","vegetationFraction":0.246,"pavedFraction":0.504,"waterFraction":0.015,"simulated":true},"geometry":{"type":"Polygon","coordinates":[[[114.21179999999994,22.339199999999998],[114.21339999999994,22.339199999999998],[114.21339999999994,22.340799999999998],[114.21179999999994,22.340799999999998],[114.21179999999994,22.339199999999998]]]}},{"type":"Feature","properties":{"id":"lu-kowloon-wong-tai-sin-03-00","class":"built_up","vegetationFraction":0.143,"pavedFraction":0.734,"waterFraction":0.008,"simulated":true},"geometry":{"type":"Polygon","coordinates":[[[114.183,22.340799999999998],[114.1846,22.340799999999998],[114.1846,22.342399999999998],[114.183,22.342399999999998],[114.183,22.340799999999998]]]}},{"type":"Feature","properties":{"id":"lu-kowloon-wong-tai-sin-03-01","class":"built_up","vegetationFraction":0.248,"pavedFraction":0.548,"waterFraction":0.05,"simulated":true},"geometry":{"type":"Polygon","coordinates":[[[114.1846,22.340799999999998],[114.1862,22.340799999999998],[114.1862,22.342399999999998],[114.1846,22.342399999999998],[114.1846,22.340799999999998]]]}},{"type":"Feature","properties":{"id":"lu-kowloon-wong-tai-sin-03-02","class":"built_up","vegetationFraction":0.239,"pavedFraction":0.689,"waterFraction":0.025,"simulated":true},"geometry":{"type":"Polygon","coordinates":[[[114.1862,22.340799999999998],[114.1878,22.340799999999998],[114.1878,22.342399999999998],[114.1862,22.342399999999998],[114.1862,22.340799999999998]]]}},{"type":"Feature","properties":{"id":"lu-kowloon-wong-tai-sin-03-03","class":"urban_open_space","vegetationFraction":0.259,"pavedFraction":0.666,"waterFraction":0.055,"simulated":true},"geometry":{"type":"Polygon","coordinates":[[[114.1878,22.340799999999998],[114.18939999999999,22.340799999999998],[114.18939999999999,22.342399999999998],[114.1878,22.342399999999998],[114.1878,22.340799999999998]]]}},{"type":"Feature","properties":{"id":"lu-kowloon-wong-tai-sin-03-04","class":"urban_open_space","vegetationFraction":0.259,"pavedFraction":0.488,"waterFraction":0.033,"simulated":true},"geometry":{"type":"Polygon","coordinates":[[[114.18939999999999,22.340799999999998],[114.19099999999999,22.340799999999998],[114.19099999999999,22.342399999999998],[114.18939999999999,22.342399999999998],[114.18939999999999,22.340799999999998]]]}},{"type":"Feature","properties":{"id":"lu-kowloon-wong-tai-sin-03-05","class":"urban_open_space","vegetationFraction":0.276,"pavedFraction":0.682,"waterFraction":0.056,"simulated":true},"geometry":{"type":"Polygon","coordinates":[[[114.19099999999999,22.340799999999998],[114.19259999999998,22.340799999999998],[114.19259999999998,22.342399999999998],[114.19099999999999,22.342399999999998],[114.19099999999999,22.340799999999998]]]}},{"type":"Feature","properties":{"id":"lu-kowloon-wong-tai-sin-03-06","class":"built_up","vegetationFraction":0.174,"pavedFraction":0.641,"waterFraction":0.053,"simulated":true},"geometry":{"type":"Polygon","coordinates":[[[114.19259999999998,22.340799999999998],[114.19419999999998,22.340799999999998],[114.19419999999998,22.342399999999998],[114.19259999999998,22.342399999999998],[114.19259999999998,22.340799999999998]]]}},{"type":"Feature","properties":{"id":"lu-kowloon-wong-tai-sin-03-07","class":"built_up","vegetationFraction":0.228,"pavedFraction":0.568,"waterFraction":0.024,"simulated":true},"geometry":{"type":"Polygon","coordinates":[[[114.19419999999998,22.340799999999998],[114.19579999999998,22.340799999999998],[114.19579999999998,22.342399999999998],[114.19419999999998,22.342399999999998],[114.19419999999998,22.340799999999998]]]}},{"type":"Feature","properties":{"id":"lu-kowloon-wong-tai-sin-03-08","class":"built_up","vegetationFraction":0.14,"pavedFraction":0.705,"waterFraction":0.012,"simulated":true},"geometry":{"type":"Polygon","coordinates":[[[114.19579999999998,22.340799999999998],[114.19739999999997,22.340799999999998],[114.19739999999997,22.342399999999998],[114.19579999999998,22.342399999999998],[114.19579999999998,22.340799999999998]]]}},{"type":"Feature","properties":{"id":"lu-kowloon-wong-tai-sin-03-09","class":"built_up","vegetationFraction":0.168,"pavedFraction":0.58,"waterFraction":0.05,"simulated":true},"geometry":{"type":"Polygon","coordinates":[[[114.19739999999997,22.340799999999998],[114.19899999999997,22.340799999999998],[114.19899999999997,22.342399999999998],[114.19739999999997,22.342399999999998],[114.19739999999997,22.340799999999998]]]}},{"type":"Feature","properties":{"id":"lu-kowloon-wong-tai-sin-03-10","class":"built_up","vegetationFraction":0.25,"pavedFraction":0.718,"waterFraction":0.001,"simulated":true},"geometry":{"type":"Polygon","coordinates":[[[114.19899999999997,22.340799999999998],[114.20059999999997,22.340799999999998],[114.20059999999997,22.342399999999998],[114.19899999999997,22.342399999999998],[114.19899999999997,22.340799999999998]]]}},{"type":"Feature","properties":{"id":"lu-kowloon-wong-tai-sin-03-11","class":"built_up","vegetationFraction":0.218,"pavedFraction":0.708,"waterFraction":0.025,"simulated":true},"geometry":{"type":"Polygon","coordinates":[[[114.20059999999997,22.340799999999998],[114.20219999999996,22.340799999999998],[114.20219999999996,22.342399999999998],[114.20059999999997,22.342399999999998],[114.20059999999997,22.340799999999998]]]}},{"type":"Feature","properties":{"id":"lu-kowloon-wong-tai-sin-03-12","class":"built_up","vegetationFraction":0.113,"pavedFraction":0.655,"waterFraction":0.037,"simulated":true},"geometry":{"type":"Polygon","coordinates":[[[114.20219999999996,22.340799999999998],[114.20379999999996,22.340799999999998],[114.20379999999996,22.342399999999998],[114.20219999999996,22.342399999999998],[114.20219999999996,22.340799999999998]]]}},{"type":"Feature","properties":{"id":"lu-kowloon-wong-tai-sin-03-13","class":"built_up","vegetationFraction":0.146,"pavedFraction":0.705,"waterFraction":0.022,"simulated":true},"geometry":{"type":"Polygon","coordinates":[[[114.20379999999996,22.340799999999998],[114.20539999999995,22.340799999999998],[114.20539999999995,22.342399999999998],[114.20379999999996,22.342399999999998],[114.20379999999996,22.340799999999998]]]}},{"type":"Feature","properties":{"id":"lu-kowloon-wong-tai-sin-03-14","class":"built_up","vegetationFraction":0.157,"pavedFraction":0.669,"waterFraction":0.031,"simulated":true},"geometry":{"type":"Polygon","coordinates":[[[114.20539999999995,22.340799999999998],[114.20699999999995,22.340799999999998],[114.20699999999995,22.342399999999998],[114.20539999999995,22.342399999999998],[114.20539999999995,22.340799999999998]]]}},{"type":"Feature","properties":{"id":"lu-kowloon-wong-tai-sin-03-15","class":"urban_open_space","vegetationFraction":0.276,"pavedFraction":0.754,"waterFraction":0.02,"simulated":true},"geometry":{"type":"Polygon","coordinates":[[[114.20699999999995,22.340799999999998],[114.20859999999995,22.340799999999998],[114.20859999999995,22.342399999999998],[114.20699999999995,22.342399999999998],[114.20699999999995,22.340799999999998]]]}},{"type":"Feature","properties":{"id":"lu-kowloon-wong-tai-sin-03-16","class":"built_up","vegetationFraction":0.132,"pavedFraction":0.7,"waterFraction":0.055,"simulated":true},"geometry":{"type":"Polygon","coordinates":[[[114.20859999999995,22.340799999999998],[114.21019999999994,22.340799999999998],[114.21019999999994,22.342399999999998],[114.20859999999995,22.342399999999998],[114.20859999999995,22.340799999999998]]]}},{"type":"Feature","properties":{"id":"lu-kowloon-wong-tai-sin-03-17","class":"built_up","vegetationFraction":0.119,"pavedFraction":0.669,"waterFraction":0.047,"simulated":true},"geometry":{"type":"Polygon","coordinates":[[[114.21019999999994,22.340799999999998],[114.21179999999994,22.340799999999998],[114.21179999999994,22.342399999999998],[114.21019999999994,22.342399999999998],[114.21019999999994,22.340799999999998]]]}},{"type":"Feature","properties":{"id":"lu-kowloon-wong-tai-sin-03-18","class":"built_up","vegetationFraction":0.132,"pavedFraction":0.645,"waterFraction":0.05,"simulated":true},"geometry":{"type":"Polygon","coordinates":[[[114.21179999999994,22.340799999999998],[114.21339999999994,22.340799999999998],[114.21339999999994,22.342399999999998],[114.21179999999994,22.342399999999998],[114.21179999999994,22.340799999999998]]]}},{"type":"Feature","properties":{"id":"lu-kowloon-wong-tai-sin-04-00","class":"built_up","vegetationFraction":0.221,"pavedFraction":0.751,"waterFraction":0.024,"simulated":true},"geometry":{"type":"Polygon","coordinates":[[[114.183,22.342399999999998],[114.1846,22.342399999999998],[114.1846,22.343999999999998],[114.183,22.343999999999998],[114.183,22.342399999999998]]]}},{"type":"Feature","properties":{"id":"lu-kowloon-wong-tai-sin-04-01","class":"urban_open_space","vegetationFraction":0.254,"pavedFraction":0.722,"waterFraction":0.021,"simulated":true},"geometry":{"type":"Polygon","coordinates":[[[114.1846,22.342399999999998],[114.1862,22.342399999999998],[114.1862,22.343999999999998],[114.1846,22.343999999999998],[114.1846,22.342399999999998]]]}},{"type":"Feature","properties":{"id":"lu-kowloon-wong-tai-sin-04-02","class":"built_up","vegetationFraction":0.192,"pavedFraction":0.696,"waterFraction":0.001,"simulated":true},"geometry":{"type":"Polygon","coordinates":[[[114.1862,22.342399999999998],[114.1878,22.342399999999998],[114.1878,22.343999999999998],[114.1862,22.343999999999998],[114.1862,22.342399999999998]]]}},{"type":"Feature","properties":{"id":"lu-kowloon-wong-tai-sin-04-03","class":"built_up","vegetationFraction":0.173,"pavedFraction":0.695,"waterFraction":0.05,"simulated":true},"geometry":{"type":"Polygon","coordinates":[[[114.1878,22.342399999999998],[114.18939999999999,22.342399999999998],[114.18939999999999,22.343999999999998],[114.1878,22.343999999999998],[114.1878,22.342399999999998]]]}},{"type":"Feature","properties":{"id":"lu-kowloon-wong-tai-sin-04-04","class":"built_up","vegetationFraction":0.183,"pavedFraction":0.566,"waterFraction":0.028,"simulated":true},"geometry":{"type":"Polygon","coordinates":[[[114.18939999999999,22.342399999999998],[114.19099999999999,22.342399999999998],[114.19099999999999,22.343999999999998],[114.18939999999999,22.343999999999998],[114.18939999999999,22.342399999999998]]]}},{"type":"Feature","properties":{"id":"lu-kowloon-wong-tai-sin-04-05","class":"built_up","vegetationFraction":0.156,"pavedFraction":0.518,"waterFraction":0.002,"simulated":true},"geometry":{"type":"Polygon","coordinates":[[[114.19099999999999,22.342399999999998],[114.19259999999998,22.342399999999998],[114.19259999999998,22.343999999999998],[114.19099999999999,22.343999999999998],[114.19099999999999,22.342399999999998]]]}},{"type":"Feature","properties":{"id":"lu-kowloon-wong-tai-sin-04-06","class":"built_up","vegetationFraction":0.13,"pavedFraction":0.582,"waterFraction":0.002,"simulated":true},"geometry":{"type":"Polygon","coordinates":[[[114.19259999999998,22.342399999999998],[114.19419999999998,22.342399999999998],[114.19419999999998,22.343999999999998],[114.19259999999998,22.343999999999998],[114.19259999999998,22.342399999999998]]]}},{"type":"Feature","properties":{"id":"lu-kowloon-wong-tai-sin-04-07","class":"urban_open_space","vegetationFraction":0.277,"pavedFraction":0.725,"waterFraction":0.045,"simulated":true},"geometry":{"type":"Polygon","coordinates":[[[114.19419999999998,22.342399999999998],[114.19579999999998,22.342399999999998],[114.19579999999998,22.343999999999998],[114.19419999999998,22.343999999999998],[114.19419999999998,22.342399999999998]]]}},{"type":"Feature","properties":{"id":"lu-kowloon-wong-tai-sin-04-08","class":"built_up","vegetationFraction":0.143,"pavedFraction":0.48,"waterFraction":0.056,"simulated":true},"geometry":{"type":"Polygon","coordinates":[[[114.19579999999998,22.342399999999998],[114.19739999999997,22.342399999999998],[114.19739999999997,22.343999999999998],[114.19579999999998,22.343999999999998],[114.19579999999998,22.342399999999998]]]}},{"type":"Feature","properties":{"id":"lu-kowloon-wong-tai-sin-04-09","class":"built_up","vegetationFraction":0.247,"pavedFraction":0.536,"waterFraction":0.038,"simulated":true},"geometry":{"type":"Polygon","coordinates":[[[114.19739999999997,22.342399999999998],[114.19899999999997,22.342399999999998],[114.19899999999997,22.343999999999998],[114.19739999999997,22.343999999999998],[114.19739999999997,22.342399999999998]]]}},{"type":"Feature","properties":{"id":"lu-kowloon-wong-tai-sin-04-10","class":"urban_open_space","vegetationFraction":0.272,"pavedFraction":0.508,"waterFraction":0.011,"simulated":true},"geometry":{"type":"Polygon","coordinates":[[[114.19899999999997,22.342399999999998],[114.20059999999997,22.342399999999998],[114.20059999999997,22.343999999999998],[114.19899999999997,22.343999999999998],[114.19899999999997,22.342399999999998]]]}},{"type":"Feature","properties":{"id":"lu-kowloon-wong-tai-sin-04-11","class":"built_up","vegetationFraction":0.171,"pavedFraction":0.587,"waterFraction":0.049,"simulated":true},"geometry":{"type":"Polygon","coordinates":[[[114.20059999999997,22.342399999999998],[114.20219999999996,22.342399999999998],[114.20219999999996,22.343999999999998],[114.20059999999997,22.343999999999998],[114.20059999999997,22.342399999999998]]]}},{"type":"Feature","properties":{"id":"lu-kowloon-wong-tai-sin-04-12","class":"built_up","vegetationFraction":0.164,"pavedFraction":0.526,"waterFraction":0.037,"simulated":true},"geometry":{"type":"Polygon","coordinates":[[[114.20219999999996,22.342399999999998],[114.20379999999996,22.342399999999998],[114.20379999999996,22.343999999999998],[114.20219999999996,22.343999999999998],[114.20219999999996,22.342399999999998]]]}},{"type":"Feature","properties":{"id":"lu-kowloon-wong-tai-sin-04-13","class":"built_up","vegetationFraction":0.153,"pavedFraction":0.593,"waterFraction":0.01,"simulated":true},"geometry":{"type":"Polygon","coordinates":[[[114.20379999999996,22.342399999999998],[114.20539999999995,22.342399999999998],[114.20539999999995,22.343999999999998],[114.20379999999996,22.343999999999998],[114.20379999999996,22.342399999999998]]]}},{"type":"Feature","properties":{"id":"lu-kowloon-wong-tai-sin-04-14","class":"built_up","vegetationFraction":0.231,"pavedFraction":0.625,"waterFraction":0.029,"simulated":true},"geometry":{"type":"Polygon","coordinates":[[[114.20539999999995,22.342399999999998],[114.20699999999995,22.342399999999998],[114.20699999999995,22.343999999999998],[114.20539999999995,22.343999999999998],[114.20539999999995,22.342399999999998]]]}},{"type":"Feature","properties":{"id":"lu-kowloon-wong-tai-sin-04-15","class":"built_up","vegetationFraction":0.19,"pavedFraction":0.565,"waterFraction":0.014,"simulated":true},"geometry":{"type":"Polygon","coordinates":[[[114.20699999999995,22.342399999999998],[114.20859999999995,22.342399999999998],[114.20859999999995,22.343999999999998],[114.20699999999995,22.343999999999998],[114.20699999999995,22.342399999999998]]]}},{"type":"Feature","properties":{"id":"lu-kowloon-wong-tai-sin-04-16","class":"built_up","vegetationFraction":0.137,"pavedFraction":0.487,"waterFraction":0.013,"simulated":true},"geometry":{"type":"Polygon","coordinates":[[[114.20859999999995,22.342399999999998],[114.21019999999994,22.342399999999998],[114.21019999999994,22.343999999999998],[114.20859999999995,22.343999999999998],[114.20859999999995,22.342399999999998]]]}},{"type":"Feature","properties":{"id":"lu-kowloon-wong-tai-sin-04-17","class":"built_up","vegetationFraction":0.152,"pavedFraction":0.599,"waterFraction":0.05,"simulated":true},"geometry":{"type":"Polygon","coordinates":[[[114.21019999999994,22.342399999999998],[114.21179999999994,22.342399999999998],[114.21179999999994,22.343999999999998],[114.21019999999994,22.343999999999998],[114.21019999999994,22.342399999999998]]]}},{"type":"Feature","properties":{"id":"lu-kowloon-wong-tai-sin-04-18","class":"built_up","vegetationFraction":0.172,"pavedFraction":0.708,"waterFraction":0.012,"simulated":true},"geometry":{"type":"Polygon","coordinates":[[[114.21179999999994,22.342399999999998],[114.21339999999994,22.342399999999998],[114.21339999999994,22.343999999999998],[114.21179999999994,22.343999999999998],[114.21179999999994,22.342399999999998]]]}},{"type":"Feature","properties":{"id":"lu-kowloon-wong-tai-sin-05-00","class":"urban_open_space","vegetationFraction":0.264,"pavedFraction":0.501,"waterFraction":0.009,"simulated":true},"geometry":{"type":"Polygon","coordinates":[[[114.183,22.343999999999998],[114.1846,22.343999999999998],[114.1846,22.345599999999997],[114.183,22.345599999999997],[114.183,22.343999999999998]]]}},{"type":"Feature","properties":{"id":"lu-kowloon-wong-tai-sin-05-01","class":"built_up","vegetationFraction":0.113,"pavedFraction":0.529,"waterFraction":0.017,"simulated":true},"geometry":{"type":"Polygon","coordinates":[[[114.1846,22.343999999999998],[114.1862,22.343999999999998],[114.1862,22.345599999999997],[114.1846,22.345599999999997],[114.1846,22.343999999999998]]]}},{"type":"Feature","properties":{"id":"lu-kowloon-wong-tai-sin-05-02","class":"built_up","vegetationFraction":0.221,"pavedFraction":0.615,"waterFraction":0.055,"simulated":true},"geometry":{"type":"Polygon","coordinates":[[[114.1862,22.343999999999998],[114.1878,22.343999999999998],[114.1878,22.345599999999997],[114.1862,22.345599999999997],[114.1862,22.343999999999998]]]}},{"type":"Feature","properties":{"id":"lu-kowloon-wong-tai-sin-05-03","class":"built_up","vegetationFraction":0.111,"pavedFraction":0.671,"waterFraction":0.008,"simulated":true},"geometry":{"type":"Polygon","coordinates":[[[114.1878,22.343999999999998],[114.18939999999999,22.343999999999998],[114.18939999999999,22.345599999999997],[114.1878,22.345599999999997],[114.1878,22.343999999999998]]]}},{"type":"Feature","properties":{"id":"lu-kowloon-wong-tai-sin-05-04","class":"built_up","vegetationFraction":0.132,"pavedFraction":0.698,"waterFraction":0.002,"simulated":true},"geometry":{"type":"Polygon","coordinates":[[[114.18939999999999,22.343999999999998],[114.19099999999999,22.343999999999998],[114.19099999999999,22.345599999999997],[114.18939999999999,22.345599999999997],[114.18939999999999,22.343999999999998]]]}},{"type":"Feature","properties":{"id":"lu-kowloon-wong-tai-sin-05-05","class":"built_up","vegetationFraction":0.108,"pavedFraction":0.504,"waterFraction":0.014,"simulated":true},"geometry":{"type":"Polygon","coordinates":[[[114.19099999999999,22.343999999999998],[114.19259999999998,22.343999999999998],[114.19259999999998,22.345599999999997],[114.19099999999999,22.345599999999997],[114.19099999999999,22.343999999999998]]]}},{"type":"Feature","properties":{"id":"lu-kowloon-wong-tai-sin-05-06","class":"built_up","vegetationFraction":0.142,"pavedFraction":0.556,"waterFraction":0.042,"simulated":true},"geometry":{"type":"Polygon","coordinates":[[[114.19259999999998,22.343999999999998],[114.19419999999998,22.343999999999998],[114.19419999999998,22.345599999999997],[114.19259999999998,22.345599999999997],[114.19259999999998,22.343999999999998]]]}},{"type":"Feature","properties":{"id":"lu-kowloon-wong-tai-sin-05-07","class":"built_up","vegetationFraction":0.185,"pavedFraction":0.704,"waterFraction":0.056,"simulated":true},"geometry":{"type":"Polygon","coordinates":[[[114.19419999999998,22.343999999999998],[114.19579999999998,22.343999999999998],[114.19579999999998,22.345599999999997],[114.19419999999998,22.345599999999997],[114.19419999999998,22.343999999999998]]]}},{"type":"Feature","properties":{"id":"lu-kowloon-wong-tai-sin-05-08","class":"built_up","vegetationFraction":0.25,"pavedFraction":0.756,"waterFraction":0.045,"simulated":true},"geometry":{"type":"Polygon","coordinates":[[[114.19579999999998,22.343999999999998],[114.19739999999997,22.343999999999998],[114.19739999999997,22.345599999999997],[114.19579999999998,22.345599999999997],[114.19579999999998,22.343999999999998]]]}},{"type":"Feature","properties":{"id":"lu-kowloon-wong-tai-sin-05-09","class":"built_up","vegetationFraction":0.164,"pavedFraction":0.725,"waterFraction":0.04,"simulated":true},"geometry":{"type":"Polygon","coordinates":[[[114.19739999999997,22.343999999999998],[114.19899999999997,22.343999999999998],[114.19899999999997,22.345599999999997],[114.19739999999997,22.345599999999997],[114.19739999999997,22.343999999999998]]]}},{"type":"Feature","properties":{"id":"lu-kowloon-wong-tai-sin-05-10","class":"built_up","vegetationFraction":0.249,"pavedFraction":0.489,"waterFraction":0.022,"simulated":true},"geometry":{"type":"Polygon","coordinates":[[[114.19899999999997,22.343999999999998],[114.20059999999997,22.343999999999998],[114.20059999999997,22.345599999999997],[114.19899999999997,22.345599999999997],[114.19899999999997,22.343999999999998]]]}},{"type":"Feature","properties":{"id":"lu-kowloon-wong-tai-sin-05-11","class":"built_up","vegetationFraction":0.164,"pavedFraction":0.496,"waterFraction":0.028,"simulated":true},"geometry":{"type":"Polygon","coordinates":[[[114.20059999999997,22.343999999999998],[114.20219999999996,22.343999999999998],[114.20219999999996,22.345599999999997],[114.20059999999997,22.345599999999997],[114.20059999999997,22.343999999999998]]]}},{"type":"Feature","properties":{"id":"lu-kowloon-wong-tai-sin-05-12","class":"built_up","vegetationFraction":0.219,"pavedFraction":0.518,"waterFraction":0.008,"simulated":true},"geometry":{"type":"Polygon","coordinates":[[[114.20219999999996,22.343999999999998],[114.20379999999996,22.343999999999998],[114.20379999999996,22.345599999999997],[114.20219999999996,22.345599999999997],[114.20219999999996,22.343999999999998]]]}},{"type":"Feature","properties":{"id":"lu-kowloon-wong-tai-sin-05-13","class":"built_up","vegetationFraction":0.182,"pavedFraction":0.762,"waterFraction":0.059,"simulated":true},"geometry":{"type":"Polygon","coordinates":[[[114.20379999999996,22.343999999999998],[114.20539999999995,22.343999999999998],[114.20539999999995,22.345599999999997],[114.20379999999996,22.345599999999997],[114.20379999999996,22.343999999999998]]]}},{"type":"Feature","properties":{"id":"lu-kowloon-wong-tai-sin-05-14","class":"built_up","vegetationFraction":0.147,"pavedFraction":0.495,"waterFraction":0.027,"simulated":true},"geometry":{"type":"Polygon","coordinates":[[[114.20539999999995,22.343999999999998],[114.20699999999995,22.343999999999998],[114.20699999999995,22.345599999999997],[114.20539999999995,22.345599999999997],[114.20539999999995,22.343999999999998]]]}},{"type":"Feature","properties":{"id":"lu-kowloon-wong-tai-sin-05-15","class":"built_up","vegetationFraction":0.225,"pavedFraction":0.74,"waterFraction":0.039,"simulated":true},"geometry":{"type":"Polygon","coordinates":[[[114.20699999999995,22.343999999999998],[114.20859999999995,22.343999999999998],[114.20859999999995,22.345599999999997],[114.20699999999995,22.345599999999997],[114.20699999999995,22.343999999999998]]]}},{"type":"Feature","properties":{"id":"lu-kowloon-wong-tai-sin-05-16","class":"built_up","vegetationFraction":0.222,"pavedFraction":0.593,"waterFraction":0.045,"simulated":true},"geometry":{"type":"Polygon","coordinates":[[[114.20859999999995,22.343999999999998],[114.21019999999994,22.343999999999998],[114.21019999999994,22.345599999999997],[114.20859999999995,22.345599999999997],[114.20859999999995,22.343999999999998]]]}},{"type":"Feature","properties":{"id":"lu-kowloon-wong-tai-sin-05-17","class":"urban_open_space","vegetationFraction":0.263,"pavedFraction":0.628,"waterFraction":0.016,"simulated":true},"geometry":{"type":"Polygon","coordinates":[[[114.21019999999994,22.343999999999998],[114.21179999999994,22.343999999999998],[114.21179999999994,22.345599999999997],[114.21019999999994,22.345599999999997],[114.21019999999994,22.343999999999998]]]}},{"type":"Feature","properties":{"id":"lu-kowloon-wong-tai-sin-05-18","class":"built_up","vegetationFraction":0.1,"pavedFraction":0.752,"waterFraction":0.056,"simulated":true},"geometry":{"type":"Polygon","coordinates":[[[114.21179999999994,22.343999999999998],[114.21339999999994,22.343999999999998],[114.21339999999994,22.345599999999997],[114.21179999999994,22.345599999999997],[114.21179999999994,22.343999999999998]]]}},{"type":"Feature","properties":{"id":"lu-kowloon-wong-tai-sin-06-00","class":"built_up","vegetationFraction":0.215,"pavedFraction":0.722,"waterFraction":0.058,"simulated":true},"geometry":{"type":"Polygon","coordinates":[[[114.183,22.345599999999997],[114.1846,22.345599999999997],[114.1846,22.347199999999997],[114.183,22.347199999999997],[114.183,22.345599999999997]]]}},{"type":"Feature","properties":{"id":"lu-kowloon-wong-tai-sin-06-01","class":"built_up","vegetationFraction":0.143,"pavedFraction":0.607,"waterFraction":0.006,"simulated":true},"geometry":{"type":"Polygon","coordinates":[[[114.1846,22.345599999999997],[114.1862,22.345599999999997],[114.1862,22.347199999999997],[114.1846,22.347199999999997],[114.1846,22.345599999999997]]]}},{"type":"Feature","properties":{"id":"lu-kowloon-wong-tai-sin-06-02","class":"built_up","vegetationFraction":0.209,"pavedFraction":0.678,"waterFraction":0.004,"simulated":true},"geometry":{"type":"Polygon","coordinates":[[[114.1862,22.345599999999997],[114.1878,22.345599999999997],[114.1878,22.347199999999997],[114.1862,22.347199999999997],[114.1862,22.345599999999997]]]}},{"type":"Feature","properties":{"id":"lu-kowloon-wong-tai-sin-06-03","class":"built_up","vegetationFraction":0.202,"pavedFraction":0.645,"waterFraction":0.021,"simulated":true},"geometry":{"type":"Polygon","coordinates":[[[114.1878,22.345599999999997],[114.18939999999999,22.345599999999997],[114.18939999999999,22.347199999999997],[114.1878,22.347199999999997],[114.1878,22.345599999999997]]]}},{"type":"Feature","properties":{"id":"lu-kowloon-wong-tai-sin-06-04","class":"built_up","vegetationFraction":0.168,"pavedFraction":0.692,"waterFraction":0.036,"simulated":true},"geometry":{"type":"Polygon","coordinates":[[[114.18939999999999,22.345599999999997],[114.19099999999999,22.345599999999997],[114.19099999999999,22.347199999999997],[114.18939999999999,22.347199999999997],[114.18939999999999,22.345599999999997]]]}},{"type":"Feature","properties":{"id":"lu-kowloon-wong-tai-sin-06-05","class":"urban_open_space","vegetationFraction":0.276,"pavedFraction":0.598,"waterFraction":0.032,"simulated":true},"geometry":{"type":"Polygon","coordinates":[[[114.19099999999999,22.345599999999997],[114.19259999999998,22.345599999999997],[114.19259999999998,22.347199999999997],[114.19099999999999,22.347199999999997],[114.19099999999999,22.345599999999997]]]}},{"type":"Feature","properties":{"id":"lu-kowloon-wong-tai-sin-06-06","class":"urban_open_space","vegetationFraction":0.262,"pavedFraction":0.538,"waterFraction":0.06,"simulated":true},"geometry":{"type":"Polygon","coordinates":[[[114.19259999999998,22.345599999999997],[114.19419999999998,22.345599999999997],[114.19419999999998,22.347199999999997],[114.19259999999998,22.347199999999997],[114.19259999999998,22.345599999999997]]]}},{"type":"Feature","properties":{"id":"lu-kowloon-wong-tai-sin-06-07","class":"built_up","vegetationFraction":0.18,"pavedFraction":0.776,"waterFraction":0.029,"simulated":true},"geometry":{"type":"Polygon","coordinates":[[[114.19419999999998,22.345599999999997],[114.19579999999998,22.345599999999997],[114.19579999999998,22.347199999999997],[114.19419999999998,22.347199999999997],[114.19419999999998,22.345599999999997]]]}},{"type":"Feature","properties":{"id":"lu-kowloon-wong-tai-sin-06-08","class":"built_up","vegetationFraction":0.101,"pavedFraction":0.515,"waterFraction":0.057,"simulated":true},"geometry":{"type":"Polygon","coordinates":[[[114.19579999999998,22.345599999999997],[114.19739999999997,22.345599999999997],[114.19739999999997,22.347199999999997],[114.19579999999998,22.347199999999997],[114.19579999999998,22.345599999999997]]]}},{"type":"Feature","properties":{"id":"lu-kowloon-wong-tai-sin-06-09","class":"built_up","vegetationFraction":0.168,"pavedFraction":0.595,"waterFraction":0.035,"simulated":true},"geometry":{"type":"Polygon","coordinates":[[[114.19739999999997,22.345599999999997],[114.19899999999997,22.345599999999997],[114.19899999999997,22.347199999999997],[114.19739999999997,22.347199999999997],[114.19739999999997,22.345599999999997]]]}},{"type":"Feature","properties":{"id":"lu-kowloon-wong-tai-sin-06-10","class":"built_up","vegetationFraction":0.137,"pavedFraction":0.708,"waterFraction":0.044,"simulated":true},"geometry":{"type":"Polygon","coordinates":[[[114.19899999999997,22.345599999999997],[114.20059999999997,22.345599999999997],[114.20059999999997,22.347199999999997],[114.19899999999997,22.347199999999997],[114.19899999999997,22.345599999999997]]]}},{"type":"Feature","properties":{"id":"lu-kowloon-wong-tai-sin-06-11","class":"built_up","vegetationFraction":0.116,"pavedFraction":0.678,"waterFraction":0.057,"simulated":true},"geometry":{"type":"Polygon","coordinates":[[[114.20059999999997,22.345599999999997],[114.20219999999996,22.345599999999997],[114.20219999999996,22.347199999999997],[114.20059999999997,22.347199999999997],[114.20059999999997,22.345599999999997]]]}},{"type":"Feature","properties":{"id":"lu-kowloon-wong-tai-sin-06-12","class":"built_up","vegetationFraction":0.245,"pavedFraction":0.564,"waterFraction":0.011,"simulated":true},"geometry":{"type":"Polygon","coordinates":[[[114.20219999999996,22.345599999999997],[114.20379999999996,22.345599999999997],[114.20379999999996,22.347199999999997],[114.20219999999996,22.347199999999997],[114.20219999999996,22.345599999999997]]]}},{"type":"Feature","properties":{"id":"lu-kowloon-wong-tai-sin-06-13","class":"built_up","vegetationFraction":0.174,"pavedFraction":0.728,"waterFraction":0.052,"simulated":true},"geometry":{"type":"Polygon","coordinates":[[[114.20379999999996,22.345599999999997],[114.20539999999995,22.345599999999997],[114.20539999999995,22.347199999999997],[114.20379999999996,22.347199999999997],[114.20379999999996,22.345599999999997]]]}},{"type":"Feature","properties":{"id":"lu-kowloon-wong-tai-sin-06-14","class":"built_up","vegetationFraction":0.199,"pavedFraction":0.765,"waterFraction":0.026,"simulated":true},"geometry":{"type":"Polygon","coordinates":[[[114.20539999999995,22.345599999999997],[114.20699999999995,22.345599999999997],[114.20699999999995,22.347199999999997],[114.20539999999995,22.347199999999997],[114.20539999999995,22.345599999999997]]]}},{"type":"Feature","properties":{"id":"lu-kowloon-wong-tai-sin-06-15","class":"built_up","vegetationFraction":0.242,"pavedFraction":0.655,"waterFraction":0.016,"simulated":true},"geometry":{"type":"Polygon","coordinates":[[[114.20699999999995,22.345599999999997],[114.20859999999995,22.345599999999997],[114.20859999999995,22.347199999999997],[114.20699999999995,22.347199999999997],[114.20699999999995,22.345599999999997]]]}},{"type":"Feature","properties":{"id":"lu-kowloon-wong-tai-sin-06-16","class":"built_up","vegetationFraction":0.113,"pavedFraction":0.779,"waterFraction":0.013,"simulated":true},"geometry":{"type":"Polygon","coordinates":[[[114.20859999999995,22.345599999999997],[114.21019999999994,22.345599999999997],[114.21019999999994,22.347199999999997],[114.20859999999995,22.347199999999997],[114.20859999999995,22.345599999999997]]]}},{"type":"Feature","properties":{"id":"lu-kowloon-wong-tai-sin-06-17","class":"built_up","vegetationFraction":0.195,"pavedFraction":0.584,"waterFraction":0.022,"simulated":true},"geometry":{"type":"Polygon","coordinates":[[[114.21019999999994,22.345599999999997],[114.21179999999994,22.345599999999997],[114.21179999999994,22.347199999999997],[114.21019999999994,22.347199999999997],[114.21019999999994,22.345599999999997]]]}},{"type":"Feature","properties":{"id":"lu-kowloon-wong-tai-sin-06-18","class":"built_up","vegetationFraction":0.19,"pavedFraction":0.748,"waterFraction":0.052,"simulated":true},"geometry":{"type":"Polygon","coordinates":[[[114.21179999999994,22.345599999999997],[114.21339999999994,22.345599999999997],[114.21339999999994,22.347199999999997],[114.21179999999994,22.347199999999997],[114.21179999999994,22.345599999999997]]]}},{"type":"Feature","properties":{"id":"lu-kowloon-wong-tai-sin-07-00","class":"built_up","vegetationFraction":0.081,"pavedFraction":0.937,"waterFraction":0.027,"simulated":true},"geometry":{"type":"Polygon","coordinates":[[[114.183,22.347199999999997],[114.1846,22.347199999999997],[114.1846,22.348799999999997],[114.183,22.348799999999997],[114.183,22.347199999999997]]]}},{"type":"Feature","properties":{"id":"lu-kowloon-wong-tai-sin-07-01","class":"built_up","vegetationFraction":0.07,"pavedFraction":0.908,"waterFraction":0.026,"simulated":true},"geometry":{"type":"Polygon","coordinates":[[[114.1846,22.347199999999997],[114.1862,22.347199999999997],[114.1862,22.348799999999997],[114.1846,22.348799999999997],[114.1846,22.347199999999997]]]}},{"type":"Feature","properties":{"id":"lu-kowloon-wong-tai-sin-07-02","class":"built_up","vegetationFraction":0.077,"pavedFraction":0.737,"waterFraction":0.048,"simulated":true},"geometry":{"type":"Polygon","coordinates":[[[114.1862,22.347199999999997],[114.1878,22.347199999999997],[114.1878,22.348799999999997],[114.1862,22.348799999999997],[114.1862,22.347199999999997]]]}},{"type":"Feature","properties":{"id":"lu-kowloon-wong-tai-sin-07-03","class":"built_up","vegetationFraction":0.057,"pavedFraction":0.899,"waterFraction":0.02,"simulated":true},"geometry":{"type":"Polygon","coordinates":[[[114.1878,22.347199999999997],[114.18939999999999,22.347199999999997],[114.18939999999999,22.348799999999997],[114.1878,22.348799999999997],[114.1878,22.347199999999997]]]}},{"type":"Feature","properties":{"id":"lu-kowloon-wong-tai-sin-07-04","class":"green_space","vegetationFraction":0.78,"pavedFraction":0.1,"waterFraction":0.053,"simulated":true},"geometry":{"type":"Polygon","coordinates":[[[114.18939999999999,22.347199999999997],[114.19099999999999,22.347199999999997],[114.19099999999999,22.348799999999997],[114.18939999999999,22.348799999999997],[114.18939999999999,22.347199999999997]]]}},{"type":"Feature","properties":{"id":"lu-kowloon-wong-tai-sin-07-05","class":"green_space","vegetationFraction":0.78,"pavedFraction":0.1,"waterFraction":0.012,"simulated":true},"geometry":{"type":"Polygon","coordinates":[[[114.19099999999999,22.347199999999997],[114.19259999999998,22.347199999999997],[114.19259999999998,22.348799999999997],[114.19099999999999,22.348799999999997],[114.19099999999999,22.347199999999997]]]}},{"type":"Feature","properties":{"id":"lu-kowloon-wong-tai-sin-07-06","class":"green_space","vegetationFraction":0.78,"pavedFraction":0.1,"waterFraction":0.001,"simulated":true},"geometry":{"type":"Polygon","coordinates":[[[114.19259999999998,22.347199999999997],[114.19419999999998,22.347199999999997],[114.19419999999998,22.348799999999997],[114.19259999999998,22.348799999999997],[114.19259999999998,22.347199999999997]]]}},{"type":"Feature","properties":{"id":"lu-kowloon-wong-tai-sin-07-07","class":"green_space","vegetationFraction":0.78,"pavedFraction":0.1,"waterFraction":0.019,"simulated":true},"geometry":{"type":"Polygon","coordinates":[[[114.19419999999998,22.347199999999997],[114.19579999999998,22.347199999999997],[114.19579999999998,22.348799999999997],[114.19419999999998,22.348799999999997],[114.19419999999998,22.347199999999997]]]}},{"type":"Feature","properties":{"id":"lu-kowloon-wong-tai-sin-07-08","class":"green_space","vegetationFraction":0.78,"pavedFraction":0.1,"waterFraction":0.038,"simulated":true},"geometry":{"type":"Polygon","coordinates":[[[114.19579999999998,22.347199999999997],[114.19739999999997,22.347199999999997],[114.19739999999997,22.348799999999997],[114.19579999999998,22.348799999999997],[114.19579999999998,22.347199999999997]]]}},{"type":"Feature","properties":{"id":"lu-kowloon-wong-tai-sin-07-09","class":"green_space","vegetationFraction":0.78,"pavedFraction":0.1,"waterFraction":0.023,"simulated":true},"geometry":{"type":"Polygon","coordinates":[[[114.19739999999997,22.347199999999997],[114.19899999999997,22.347199999999997],[114.19899999999997,22.348799999999997],[114.19739999999997,22.348799999999997],[114.19739999999997,22.347199999999997]]]}},{"type":"Feature","properties":{"id":"lu-kowloon-wong-tai-sin-07-10","class":"built_up","vegetationFraction":0.045,"pavedFraction":0.894,"waterFraction":0.041,"simulated":true},"geometry":{"type":"Polygon","coordinates":[[[114.19899999999997,22.347199999999997],[114.20059999999997,22.347199999999997],[114.20059999999997,22.348799999999997],[114.19899999999997,22.348799999999997],[114.19899999999997,22.347199999999997]]]}},{"type":"Feature","properties":{"id":"lu-kowloon-wong-tai-sin-07-11","class":"built_up","vegetationFraction":0.074,"pavedFraction":0.95,"waterFraction":0.038,"simulated":true},"geometry":{"type":"Polygon","coordinates":[[[114.20059999999997,22.347199999999997],[114.20219999999996,22.347199999999997],[114.20219999999996,22.348799999999997],[114.20059999999997,22.348799999999997],[114.20059999999997,22.347199999999997]]]}},{"type":"Feature","properties":{"id":"lu-kowloon-wong-tai-sin-07-12","class":"built_up","vegetationFraction":0.06,"pavedFraction":0.771,"waterFraction":0.052,"simulated":true},"geometry":{"type":"Polygon","coordinates":[[[114.20219999999996,22.347199999999997],[114.20379999999996,22.347199999999997],[114.20379999999996,22.348799999999997],[114.20219999999996,22.348799999999997],[114.20219999999996,22.347199999999997]]]}},{"type":"Feature","properties":{"id":"lu-kowloon-wong-tai-sin-07-13","class":"built_up","vegetationFraction":0.04,"pavedFraction":0.736,"waterFraction":0.017,"simulated":true},"geometry":{"type":"Polygon","coordinates":[[[114.20379999999996,22.347199999999997],[114.20539999999995,22.347199999999997],[114.20539999999995,22.348799999999997],[114.20379999999996,22.348799999999997],[114.20379999999996,22.347199999999997]]]}},{"type":"Feature","properties":{"id":"lu-kowloon-wong-tai-sin-07-14","class":"built_up","vegetationFraction":0.068,"pavedFraction":0.937,"waterFraction":0.032,"simulated":true},"geometry":{"type":"Polygon","coordinates":[[[114.20539999999995,22.347199999999997],[114.20699999999995,22.347199999999997],[114.20699999999995,22.348799999999997],[114.20539999999995,22.348799999999997],[114.20539999999995,22.347199999999997]]]}},{"type":"Feature","properties":{"id":"lu-kowloon-wong-tai-sin-07-15","class":"built_up","vegetationFraction":0.046,"pavedFraction":0.879,"waterFraction":0.016,"simulated":true},"geometry":{"type":"Polygon","coordinates":[[[114.20699999999995,22.347199999999997],[114.20859999999995,22.347199999999997],[114.20859999999995,22.348799999999997],[114.20699999999995,22.348799999999997],[114.20699999999995,22.347199999999997]]]}},{"type":"Feature","properties":{"id":"lu-kowloon-wong-tai-sin-07-16","class":"built_up","vegetationFraction":0.073,"pavedFraction":0.789,"waterFraction":0.02,"simulated":true},"geometry":{"type":"Polygon","coordinates":[[[114.20859999999995,22.347199999999997],[114.21019999999994,22.347199999999997],[114.21019999999994,22.348799999999997],[114.20859999999995,22.348799999999997],[114.20859999999995,22.347199999999997]]]}},{"type":"Feature","properties":{"id":"lu-kowloon-wong-tai-sin-07-17","class":"built_up","vegetationFraction":0.066,"pavedFraction":0.909,"waterFraction":0.007,"simulated":true},"geometry":{"type":"Polygon","coordinates":[[[114.21019999999994,22.347199999999997],[114.21179999999994,22.347199999999997],[114.21179999999994,22.348799999999997],[114.21019999999994,22.348799999999997],[114.21019999999994,22.347199999999997]]]}},{"type":"Feature","properties":{"id":"lu-kowloon-wong-tai-sin-07-18","class":"built_up","vegetationFraction":0.06,"pavedFraction":0.95,"waterFraction":0.041,"simulated":true},"geometry":{"type":"Polygon","coordinates":[[[114.21179999999994,22.347199999999997],[114.21339999999994,22.347199999999997],[114.21339999999994,22.348799999999997],[114.21179999999994,22.348799999999997],[114.21179999999994,22.347199999999997]]]}},{"type":"Feature","properties":{"id":"lu-kowloon-wong-tai-sin-08-00","class":"built_up","vegetationFraction":0.032,"pavedFraction":0.95,"waterFraction":0.052,"simulated":true},"geometry":{"type":"Polygon","coordinates":[[[114.183,22.348799999999997],[114.1846,22.348799999999997],[114.1846,22.350399999999997],[114.183,22.350399999999997],[114.183,22.348799999999997]]]}},{"type":"Feature","properties":{"id":"lu-kowloon-wong-tai-sin-08-01","class":"built_up","vegetationFraction":0.035,"pavedFraction":0.915,"waterFraction":0.017,"simulated":true},"geometry":{"type":"Polygon","coordinates":[[[114.1846,22.348799999999997],[114.1862,22.348799999999997],[114.1862,22.350399999999997],[114.1846,22.350399999999997],[114.1846,22.348799999999997]]]}},{"type":"Feature","properties":{"id":"lu-kowloon-wong-tai-sin-08-02","class":"built_up","vegetationFraction":0.047,"pavedFraction":0.941,"waterFraction":0.006,"simulated":true},"geometry":{"type":"Polygon","coordinates":[[[114.1862,22.348799999999997],[114.1878,22.348799999999997],[114.1878,22.350399999999997],[114.1862,22.350399999999997],[114.1862,22.348799999999997]]]}},{"type":"Feature","properties":{"id":"lu-kowloon-wong-tai-sin-08-03","class":"built_up","vegetationFraction":0.052,"pavedFraction":0.95,"waterFraction":0.023,"simulated":true},"geometry":{"type":"Polygon","coordinates":[[[114.1878,22.348799999999997],[114.18939999999999,22.348799999999997],[114.18939999999999,22.350399999999997],[114.1878,22.350399999999997],[114.1878,22.348799999999997]]]}},{"type":"Feature","properties":{"id":"lu-kowloon-wong-tai-sin-08-04","class":"green_space","vegetationFraction":0.78,"pavedFraction":0.1,"waterFraction":0.036,"simulated":true},"geometry":{"type":"Polygon","coordinates":[[[114.18939999999999,22.348799999999997],[114.19099999999999,22.348799999999997],[114.19099999999999,22.350399999999997],[114.18939999999999,22.350399999999997],[114.18939999999999,22.348799999999997]]]}},{"type":"Feature","properties":{"id":"lu-kowloon-wong-tai-sin-08-05","class":"green_space","vegetationFraction":0.78,"pavedFraction":0.1,"waterFraction":0.007,"simulated":true},"geometry":{"type":"Polygon","coordinates":[[[114.19099999999999,22.348799999999997],[114.19259999999998,22.348799999999997],[114.19259999999998,22.350399999999997],[114.19099999999999,22.350399999999997],[114.19099999999999,22.348799999999997]]]}},{"type":"Feature","properties":{"id":"lu-kowloon-wong-tai-sin-08-06","class":"green_space","vegetationFraction":0.78,"pavedFraction":0.1,"waterFraction":0.029,"simulated":true},"geometry":{"type":"Polygon","coordinates":[[[114.19259999999998,22.348799999999997],[114.19419999999998,22.348799999999997],[114.19419999999998,22.350399999999997],[114.19259999999998,22.350399999999997],[114.19259999999998,22.348799999999997]]]}},{"type":"Feature","properties":{"id":"lu-kowloon-wong-tai-sin-08-07","class":"green_space","vegetationFraction":0.78,"pavedFraction":0.1,"waterFraction":0.034,"simulated":true},"geometry":{"type":"Polygon","coordinates":[[[114.19419999999998,22.348799999999997],[114.19579999999998,22.348799999999997],[114.19579999999998,22.350399999999997],[114.19419999999998,22.350399999999997],[114.19419999999998,22.348799999999997]]]}},{"type":"Feature","properties":{"id":"lu-kowloon-wong-tai-sin-08-08","class":"green_space","vegetationFraction":0.78,"pavedFraction":0.1,"waterFraction":0.017,"simulated":true},"geometry":{"type":"Polygon","coordinates":[[[114.19579999999998,22.348799999999997],[114.19739999999997,22.348799999999997],[114.19739999999997,22.350399999999997],[114.19579999999998,22.350399999999997],[114.19579999999998,22.348799999999997]]]}},{"type":"Feature","properties":{"id":"lu-kowloon-wong-tai-sin-08-09","class":"green_space","vegetationFraction":0.78,"pavedFraction":0.1,"waterFraction":0.015,"simulated":true},"geometry":{"type":"Polygon","coordinates":[[[114.19739999999997,22.348799999999997],[114.19899999999997,22.348799999999997],[114.19899999999997,22.350399999999997],[114.19739999999997,22.350399999999997],[114.19739999999997,22.348799999999997]]]}},{"type":"Feature","properties":{"id":"lu-kowloon-wong-tai-sin-08-10","class":"built_up","vegetationFraction":0.08,"pavedFraction":0.825,"waterFraction":0.035,"simulated":true},"geometry":{"type":"Polygon","coordinates":[[[114.19899999999997,22.348799999999997],[114.20059999999997,22.348799999999997],[114.20059999999997,22.350399999999997],[114.19899999999997,22.350399999999997],[114.19899999999997,22.348799999999997]]]}},{"type":"Feature","properties":{"id":"lu-kowloon-wong-tai-sin-08-11","class":"built_up","vegetationFraction":0.072,"pavedFraction":0.823,"waterFraction":0.034,"simulated":true},"geometry":{"type":"Polygon","coordinates":[[[114.20059999999997,22.348799999999997],[114.20219999999996,22.348799999999997],[114.20219999999996,22.350399999999997],[114.20059999999997,22.350399999999997],[114.20059999999997,22.348799999999997]]]}},{"type":"Feature","properties":{"id":"lu-kowloon-wong-tai-sin-08-12","class":"built_up","vegetationFraction":0.07,"pavedFraction":0.906,"waterFraction":0.0,"simulated":true},"geometry":{"type":"Polygon","coordinates":[[[114.20219999999996,22.348799999999997],[114.20379999999996,22.348799999999997],[114.20379999999996,22.350399999999997],[114.20219999999996,22.350399999999997],[114.20219999999996,22.348799999999997]]]}},{"type":"Feature","properties":{"id":"lu-kowloon-wong-tai-sin-08-13","class":"built_up","vegetationFraction":0.036,"pavedFraction":0.95,"waterFraction":0.038,"simulated":true},"geometry":{"type":"Polygon","coordinates":[[[114.20379999999996,22.348799999999997],[114.20539999999995,22.348799999999997],[114.20539999999995,22.350399999999997],[114.20379999999996,22.350399999999997],[114.20379999999996,22.348799999999997]]]}},{"type":"Feature","properties":{"id":"lu-kowloon-wong-tai-sin-08-14","class":"built_up","vegetationFraction":0.07,"pavedFraction":0.95,"waterFraction":0.044,"simulated":true},"geometry":{"type":"Polygon","coordinates":[[[114.20539999999995,22.348799999999997],[114.20699999999995,22.348799999999997],[114.20699999999995,22.350399999999997],[114.20539999999995,22.350399999999997],[114.20539999999995,22.348799999999997]]]}},{"type":"Feature","properties":{"id":"lu-kowloon-wong-tai-sin-08-15","class":"built_up","vegetationFraction":0.07,"pavedFraction":0.825,"waterFraction":0.014,"simulated":true},"geometry":{"type":"Polygon","coordinates":[[[114.20699999999995,22.348799999999997],[114.20859999999995,22.348799999999997],[114.20859999999995,22.350399999999997],[114.20699999999995,22.350399999999997],[114.20699999999995,22.348799999999997]]]}},{"type":"Feature","properties":{"id":"lu-kowloon-wong-tai-sin-08-16","class":"built_up","vegetationFraction":0.034,"pavedFraction":0.776,"waterFraction":0.039,"simulated":true},"geometry":{"type":"Polygon","coordinates":[[[114.20859999999995,22.348799999999997],[114.21019999999994,22.348799999999997],[114.21019999999994,22.350399999999997],[114.20859999999995,22.350399999999997],[114.20859999999995,22.348799999999997]]]}},{"type":"Feature","properties":{"id":"lu-kowloon-wong-tai-sin-08-17","class":"built_up","vegetationFraction":0.044,"pavedFraction":0.75,"waterFraction":0.024,"simulated":true},"geometry":{"type":"Polygon","coordinates":[[[114.21019999999994,22.348799999999997],[114.21179999999994,22.348799999999997],[114.21179999999994,22.350399999999997],[114.21019999999994,22.350399999999997],[114.21019999999994,22.348799999999997]]]}},{"type":"Feature","properties":{"id":"lu-kowloon-wong-tai-sin-08-18","class":"built_up","vegetationFraction":0.034,"pavedFraction":0.941,"waterFraction":0.032,"simulated":true},"geometry":{"type":"Polygon","coordinates":[[[114.21179999999994,22.348799999999997],[114.21339999999994,22.348799999999997],[114.21339999999994,22.350399999999997],[114.21179999999994,22.350399999999997],[114.21179999999994,22.348799999999997]]]}},{"type":"Feature","properties":{"id":"lu-kowloon-wong-tai-sin-09-00","class":"built_up","vegetationFraction":0.049,"pavedFraction":0.771,"waterFraction":0.022,"simulated":true},"geometry":{"type":"Polygon","coordinates":[[[114.183,22.350399999999997],[114.1846,22.350399999999997],[114.1846,22.351999999999997],[114.183,22.351999999999997],[114.183,22.350399999999997]]]}},{"type":"Feature","properties":{"id":"lu-kowloon-wong-tai-sin-09-01","class":"built_up","vegetationFraction":0.076,"pavedFraction":0.95,"waterFraction":0.032,"simulated":true},"geometry":{"type":"Polygon","coordinates":[[[114.1846,22.350399999999997],[114.1862,22.350399999999997],[114.1862,22.351999999999997],[114.1846,22.351999999999997],[114.1846,22.350399999999997]]]}},{"type":"Feature","properties":{"id":"lu-kowloon-wong-tai-sin-09-02","class":"built_up","vegetationFraction":0.051,"pavedFraction":0.871,"waterFraction":0.008,"simulated":true},"geometry":{"type":"Polygon","coordinates":[[[114.1862,22.350399999999997],[114.1878,22.350399999999997],[114.1878,22.351999999999997],[114.1862,22.351999999999997],[114.1862,22.350399999999997]]]}},{"type":"Feature","properties":{"id":"lu-kowloon-wong-tai-sin-09-03","class":"built_up","vegetationFraction":0.034,"pavedFraction":0.863,"waterFraction":0.056,"simulated":true},"geometry":{"type":"Polygon","coordinates":[[[114.1878,22.350399999999997],[114.18939999999999,22.350399999999997],[114.18939999999999,22.351999999999997],[114.1878,22.351999999999997],[114.1878,22.350399999999997]]]}},{"type":"Feature","properties":{"id":"lu-kowloon-wong-tai-sin-09-04","class":"green_space","vegetationFraction":0.78,"pavedFraction":0.1,"waterFraction":0.007,"simulated":true},"geometry":{"type":"Polygon","coordinates":[[[114.18939999999999,22.350399999999997],[114.19099999999999,22.350399999999997],[114.19099999999999,22.351999999999997],[114.18939999999999,22.351999999999997],[114.18939999999999,22.350399999999997]]]}},{"type":"Feature","properties":{"id":"lu-kowloon-wong-tai-sin-09-05","class":"green_space","vegetationFraction":0.78,"pavedFraction":0.1,"waterFraction":0.043,"simulated":true},"geometry":{"type":"Polygon","coordinates":[[[114.19099999999999,22.350399999999997],[114.19259999999998,22.350399999999997],[114.19259999999998,22.351999999999997],[114.19099999999999,22.351999999999997],[114.19099999999999,22.350399999999997]]]}},{"type":"Feature","properties":{"id":"lu-kowloon-wong-tai-sin-09-06","class":"green_space","vegetationFraction":0.78,"pavedFraction":0.1,"waterFraction":0.036,"simulated":true},"geometry":{"type":"Polygon","coordinates":[[[114.19259999999998,22.350399999999997],[114.19419999999998,22.350399999999997],[114.19419999999998,22.351999999999997],[114.19259999999998,22.351999999999997],[114.19259999999998,22.350399999999997]]]}},{"type":"Feature","properties":{"id":"lu-kowloon-wong-tai-sin-09-07","class":"green_space","vegetationFraction":0.78,"pavedFraction":0.1,"waterFraction":0.003,"simulated":true},"geometry":{"type":"Polygon","coordinates":[[[114.19419999999998,22.350399999999997],[114.19579999999998,22.350399999999997],[114.19579999999998,22.351999999999997],[114.19419999999998,22.351999999999997],[114.19419999999998,22.350399999999997]]]}},{"type":"Feature","properties":{"id":"lu-kowloon-wong-tai-sin-09-08","class":"green_space","vegetationFraction":0.78,"pavedFraction":0.1,"waterFraction":0.012,"simulated":true},"geometry":{"type":"Polygon","coordinates":[[[114.19579999999998,22.350399999999997],[114.19739999999997,22.350399999999997],[114.19739999999997,22.351999999999997],[114.19579999999998,22.351999999999997],[114.19579999999998,22.350399999999997]]]}},{"type":"Feature","properties":{"id":"lu-kowloon-wong-tai-sin-09-09","class":"green_space","vegetationFraction":0.78,"pavedFraction":0.1,"waterFraction":0.012,"simulated":true},"geometry":{"type":"Polygon","coordinates":[[[114.19739999999997,22.350399999999997],[114.19899999999997,22.350399999999997],[114.19899999999997,22.351999999999997],[114.19739999999997,22.351999999999997],[114.19739999999997,22.350399999999997]]]}},{"type":"Feature","properties":{"id":"lu-kowloon-wong-tai-sin-09-10","class":"built_up","vegetationFraction":0.032,"pavedFraction":0.861,"waterFraction":0.059,"simulated":true},"geometry":{"type":"Polygon","coordinates":[[[114.19899999999997,22.350399999999997],[114.20059999999997,22.350399999999997],[114.20059999999997,22.351999999999997],[114.19899999999997,22.351999999999997],[114.19899999999997,22.350399999999997]]]}},{"type":"Feature","properties":{"id":"lu-kowloon-wong-tai-sin-09-11","class":"built_up","vegetationFraction":0.081,"pavedFraction":0.836,"waterFraction":0.029,"simulated":true},"geometry":{"type":"Polygon","coordinates":[[[114.20059999999997,22.350399999999997],[114.20219999999996,22.350399999999997],[114.20219999999996,22.351999999999997],[114.20059999999997,22.351999999999997],[114.20059999999997,22.350399999999997]]]}},{"type":"Feature","properties":{"id":"lu-kowloon-wong-tai-sin-09-12","class":"built_up","vegetationFraction":0.062,"pavedFraction":0.916,"waterFraction":0.005,"simulated":true},"geometry":{"type":"Polygon","coordinates":[[[114.20219999999996,22.350399999999997],[114.20379999999996,22.350399999999997],[114.20379999999996,22.351999999999997],[114.20219999999996,22.351999999999997],[114.20219999999996,22.350399999999997]]]}},{"type":"Feature","properties":{"id":"lu-kowloon-wong-tai-sin-09-13","class":"built_up","vegetationFraction":0.055,"pavedFraction":0.95,"waterFraction":0.003,"simulated":true},"geometry":{"type":"Polygon","coordinates":[[[114.20379999999996,22.350399999999997],[114.20539999999995,22.350399999999997],[114.20539999999995,22.351999999999997],[114.20379999999996,22.351999999999997],[114.20379999999996,22.350399999999997]]]}},{"type":"Feature","properties":{"id":"lu-kowloon-wong-tai-sin-09-14","class":"built_up","vegetationFraction":0.062,"pavedFraction":0.95,"waterFraction":0.021,"simulated":true},"geometry":{"type":"Polygon","coordinates":[[[114.20539999999995,22.350399999999997],[114.20699999999995,22.350399999999997],[114.20699999999995,22.351999999999997],[114.20539999999995,22.351999999999997],[114.20539999999995,22.350399999999997]]]}},{"type":"Feature","properties":{"id":"lu-kowloon-wong-tai-sin-09-15","class":"built_up","vegetationFraction":0.037,"pavedFraction":0.779,"waterFraction":0.034,"simulated":true},"geometry":{"type":"Polygon","coordinates":[[[114.20699999999995,22.350399999999997],[114.20859999999995,22.350399999999997],[114.20859999999995,22.351999999999997],[114.20699999999995,22.351999999999997],[114.20699999999995,22.350399999999997]]]}},{"type":"Feature","properties":{"id":"lu-kowloon-wong-tai-sin-09-16","class":"built_up","vegetationFraction":0.031,"pavedFraction":0.95,"waterFraction":0.044,"simulated":true},"geometry":{"type":"Polygon","coordinates":[[[114.20859999999995,22.350399999999997],[114.21019999999994,22.350399999999997],[114.21019999999994,22.351999999999997],[114.20859999999995,22.351999999999997],[114.20859999999995,22.350399999999997]]]}},{"type":"Feature","properties":{"id":"lu-kowloon-wong-tai-sin-09-17","class":"built_up","vegetationFraction":0.044,"pavedFraction":0.741,"waterFraction":0.034,"simulated":true},"geometry":{"type":"Polygon","coordinates":[[[114.21019999999994,22.350399999999997],[114.21179999999994,22.350399999999997],[114.21179999999994,22.351999999999997],[114.21019999999994,22.351999999999997],[114.21019999999994,22.350399999999997]]]}},{"type":"Feature","properties":{"id":"lu-kowloon-wong-tai-sin-09-18","class":"built_up","vegetationFraction":0.045,"pavedFraction":0.774,"waterFraction":0.045,"simulated":true},"geometry":{"type":"Polygon","coordinates":[[[114.21179999999994,22.350399999999997],[114.21339999999994,22.350399999999997],[114.21339999999994,22.351999999999997],[114.21179999999994,22.351999999999997],[114.21179999999994,22.350399999999997]]]}},{"type":"Feature","properties":{"id":"lu-kowloon-wong-tai-sin-10-00","class":"built_up","vegetationFraction":0.192,"pavedFraction":0.658,"waterFraction":0.016,"simulated":true},"geometry":{"type":"Polygon","coordinates":[[[114.183,22.351999999999997],[114.1846,22.351999999999997],[114.1846,22.353599999999997],[114.183,22.353599999999997],[114.183,22.351999999999997]]]}},{"type":"Feature","properties":{"id":"lu-kowloon-wong-tai-sin-10-01","class":"built_up","vegetationFraction":0.16,"pavedFraction":0.482,"waterFraction":0.003,"simulated":true},"geometry":{"type":"Polygon","coordinates":[[[114.1846,22.351999999999997],[114.1862,22.351999999999997],[114.1862,22.353599999999997],[114.1846,22.353599999999997],[114.1846,22.351999999999997]]]}},{"type":"Feature","properties":{"id":"lu-kowloon-wong-tai-sin-10-02","class":"urban_open_space","vegetationFraction":0.28,"pavedFraction":0.548,"waterFraction":0.017,"simulated":true},"geometry":{"type":"Polygon","coordinates":[[[114.1862,22.351999999999997],[114.1878,22.351999999999997],[114.1878,22.353599999999997],[114.1862,22.353599999999997],[114.1862,22.351999999999997]]]}},{"type":"Feature","properties":{"id":"lu-kowloon-wong-tai-sin-10-03","class":"built_up","vegetationFraction":0.132,"pavedFraction":0.736,"waterFraction":0.051,"simulated":true},"geometry":{"type":"Polygon","coordinates":[[[114.1878,22.351999999999997],[114.18939999999999,22.351999999999997],[114.18939999999999,22.353599999999997],[114.1878,22.353599999999997],[114.1878,22.351999999999997]]]}},{"type":"Feature","properties":{"id":"lu-kowloon-wong-tai-sin-10-04","class":"built_up","vegetationFraction":0.141,"pavedFraction":0.615,"waterFraction":0.045,"simulated":true},"geometry":{"type":"Polygon","coordinates":[[[114.18939999999999,22.351999999999997],[114.19099999999999,22.351999999999997],[114.19099999999999,22.353599999999997],[114.18939999999999,22.353599999999997],[114.18939999999999,22.351999999999997]]]}},{"type":"Feature","properties":{"id":"lu-kowloon-wong-tai-sin-10-05","class":"built_up","vegetationFraction":0.106,"pavedFraction":0.505,"waterFraction":0.005,"simulated":true},"geometry":{"type":"Polygon","coordinates":[[[114.19099999999999,22.351999999999997],[114.19259999999998,22.351999999999997],[114.19259999999998,22.353599999999997],[114.19099999999999,22.353599999999997],[114.19099999999999,22.351999999999997]]]}},{"type":"Feature","properties":{"id":"lu-kowloon-wong-tai-sin-10-06","class":"built_up","vegetationFraction":0.165,"pavedFraction":0.695,"waterFraction":0.041,"simulated":true},"geometry":{"type":"Polygon","coordinates":[[[114.19259999999998,22.351999999999997],[114.19419999999998,22.351999999999997],[114.19419999999998,22.353599999999997],[114.19259999999998,22.353599999999997],[114.19259999999998,22.351999999999997]]]}},{"type":"Feature","properties":{"id":"lu-kowloon-wong-tai-sin-10-07","class":"urban_open_space","vegetationFraction":0.262,"pavedFraction":0.675,"waterFraction":0.008,"simulated":true},"geometry":{"type":"Polygon","coordinates":[[[114.19419999999998,22.351999999999997],[114.19579999999998,22.351999999999997],[114.19579999999998,22.353599999999997],[114.19419999999998,22.353599999999997],[114.19419999999998,22.351999999999997]]]}},{"type":"Feature","properties":{"id":"lu-kowloon-wong-tai-sin-10-08","class":"urban_open_space","vegetationFraction":0.264,"pavedFraction":0.584,"waterFraction":0.057,"simulated":true},"geometry":{"type":"Polygon","coordinates":[[[114.19579999999998,22.351999999999997],[114.19739999999997,22.351999999999997],[114.19739999999997,22.353599999999997],[114.19579999999998,22.353599999999997],[114.19579999999998,22.351999999999997]]]}},{"type":"Feature","properties":{"id":"lu-kowloon-wong-tai-sin-10-09","class":"built_up","vegetationFraction":0.243,"pavedFraction":0.592,"waterFraction":0.046,"simulated":true},"geometry":{"type":"Polygon","coordinates":[[[114.19739999999997,22.351999999999997],[114.19899999999997,22.351999999999997],[114.19899999999997,22.353599999999997],[114.19739999999997,22.353599999999997],[114.19739999999997,22.351999999999997]]]}},{"type":"Feature","properties":{"id":"lu-kowloon-wong-tai-sin-10-10","class":"built_up","vegetationFraction":0.157,"pavedFraction":0.625,"waterFraction":0.009,"simulated":true},"geometry":{"type":"Polygon","coordinates":[[[114.19899999999997,22.351999999999997],[114.20059999999997,22.351999999999997],[114.20059999999997,22.353599999999997],[114.19899999999997,22.353599999999997],[114.19899999999997,22.351999999999997]]]}},{"type":"Feature","properties":{"id":"lu-kowloon-wong-tai-sin-10-11","class":"urban_open_space","vegetationFraction":0.279,"pavedFraction":0.509,"waterFraction":0.013,"simulated":true},"geometry":{"type":"Polygon","coordinates":[[[114.20059999999997,22.351999999999997],[114.20219999999996,22.351999999999997],[114.20219999999996,22.353599999999997],[114.20059999999997,22.353599999999997],[114.20059999999997,22.351999999999997]]]}},{"type":"Feature","properties":{"id":"lu-kowloon-wong-tai-sin-10-12","class":"built_up","vegetationFraction":0.104,"pavedFraction":0.489,"waterFraction":0.029,"simulated":true},"geometry":{"type":"Polygon","coordinates":[[[114.20219999999996,22.351999999999997],[114.20379999999996,22.351999999999997],[114.20379999999996,22.353599999999997],[114.20219999999996,22.353599999999997],[114.20219999999996,22.351999999999997]]]}},{"type":"Feature","properties":{"id":"lu-kowloon-wong-tai-sin-10-13","class":"built_up","vegetationFraction":0.108,"pavedFraction":0.584,"waterFraction":0.001,"simulated":true},"geometry":{"type":"Polygon","coordinates":[[[114.20379999999996,22.351999999999997],[114.20539999999995,22.351999999999997],[114.20539999999995,22.353599999999997],[114.20379999999996,22.353599999999997],[114.20379999999996,22.351999999999997]]]}},{"type":"Feature","properties":{"id":"lu-kowloon-wong-tai-sin-10-14","class":"built_up","vegetationFraction":0.232,"pavedFraction":0.621,"waterFraction":0.047,"simulated":true},"geometry":{"type":"Polygon","coordinates":[[[114.20539999999995,22.351999999999997],[114.20699999999995,22.351999999999997],[114.20699999999995,22.353599999999997],[114.20539999999995,22.353599999999997],[114.20539999999995,22.351999999999997]]]}},{"type":"Feature","properties":{"id":"lu-kowloon-wong-tai-sin-10-15","class":"urban_open_space","vegetationFraction":0.263,"pavedFraction":0.599,"waterFraction":0.056,"simulated":true},"geometry":{"type":"Polygon","coordinates":[[[114.20699999999995,22.351999999999997],[114.20859999999995,22.351999999999997],[114.20859999999995,22.353599999999997],[114.20699999999995,22.353599999999997],[114.20699999999995,22.351999999999997]]]}},{"type":"Feature","properties":{"id":"lu-kowloon-wong-tai-sin-10-16","class":"built_up","vegetationFraction":0.145,"pavedFraction":0.704,"waterFraction":0.045,"simulated":true},"geometry":{"type":"Polygon","coordinates":[[[114.20859999999995,22.351999999999997],[114.21019999999994,22.351999999999997],[114.21019999999994,22.353599999999997],[114.20859999999995,22.353599999999997],[114.20859999999995,22.351999999999997]]]}},{"type":"Feature","properties":{"id":"lu-kowloon-wong-tai-sin-10-17","class":"built_up","vegetationFraction":0.137,"pavedFraction":0.642,"waterFraction":0.024,"simulated":true},"geometry":{"type":"Polygon","coordinates":[[[114.21019999999994,22.351999999999997],[114.21179999999994,22.351999999999997],[114.21179999999994,22.353599999999997],[114.21019999999994,22.353599999999997],[114.21019999999994,22.351999999999997]]]}},{"type":"Feature","properties":{"id":"lu-kowloon-wong-tai-sin-10-18","class":"urban_open_space","vegetationFraction":0.267,"pavedFraction":0.608,"waterFraction":0.017,"simulated":true},"geometry":{"type":"Polygon","coordinates":[[[114.21179999999994,22.351999999999997],[114.21339999999994,22.351999999999997],[114.21339999999994,22.353599999999997],[114.21179999999994,22.353599999999997],[114.21179999999994,22.351999999999997]]]}},{"type":"Feature","properties":{"id":"lu-kowloon-wong-tai-sin-11-00","class":"urban_open_space","vegetationFraction":0.269,"pavedFraction":0.701,"waterFraction":0.058,"simulated":true},"geometry":{"type":"Polygon","coordinates":[[[114.183,22.353599999999997],[114.1846,22.353599999999997],[114.1846,22.355199999999996],[114.183,22.355199999999996],[114.183,22.353599999999997]]]}},{"type":"Feature","properties":{"id":"lu-kowloon-wong-tai-sin-11-01","class":"built_up","vegetationFraction":0.168,"pavedFraction":0.667,"waterFraction":0.032,"simulated":true},"geometry":{"type":"Polygon","coordinates":[[[114.1846,22.353599999999997],[114.1862,22.353599999999997],[114.1862,22.355199999999996],[114.1846,22.355199999999996],[114.1846,22.353599999999997]]]}},{"type":"Feature","properties":{"id":"lu-kowloon-wong-tai-sin-11-02","class":"urban_open_space","vegetationFraction":0.275,"pavedFraction":0.742,"waterFraction":0.005,"simulated":true},"geometry":{"type":"Polygon","coordinates":[[[114.1862,22.353599999999997],[114.1878,22.353599999999997],[114.1878,22.355199999999996],[114.1862,22.355199999999996],[114.1862,22.353599999999997]]]}},{"type":"Feature","properties":{"id":"lu-kowloon-wong-tai-sin-11-03","class":"built_up","vegetationFraction":0.176,"pavedFraction":0.574,"waterFraction":0.015,"simulated":true},"geometry":{"type":"Polygon","coordinates":[[[114.1878,22.353599999999997],[114.18939999999999,22.353599999999997],[114.18939999999999,22.355199999999996],[114.1878,22.355199999999996],[114.1878,22.353599999999997]]]}},{"type":"Feature","properties":{"id":"lu-kowloon-wong-tai-sin-11-04","class":"built_up","vegetationFraction":0.216,"pavedFraction":0.581,"waterFraction":0.01,"simulated":true},"geometry":{"type":"Polygon","coordinates":[[[114.18939999999999,22.353599999999997],[114.19099999999999,22.353599999999997],[114.19099999999999,22.355199999999996],[114.18939999999999,22.355199999999996],[114.18939999999999,22.353599999999997]]]}},{"type":"Feature","properties":{"id":"lu-kowloon-wong-tai-sin-11-05","class":"built_up","vegetationFraction":0.175,"pavedFraction":0.554,"waterFraction":0.059,"simulated":true},"geometry":{"type":"Polygon","coordinates":[[[114.19099999999999,22.353599999999997],[114.19259999999998,22.353599999999997],[114.19259999999998,22.355199999999996],[114.19099999999999,22.355199999999996],[114.19099999999999,22.353599999999997]]]}},{"type":"Feature","properties":{"id":"lu-kowloon-wong-tai-sin-11-06","class":"built_up","vegetationFraction":0.247,"pavedFraction":0.673,"waterFraction":0.058,"simulated":true},"geometry":{"type":"Polygon","coordinates":[[[114.19259999999998,22.353599999999997],[114.19419999999998,22.353599999999997],[114.19419999999998,22.355199999999996],[114.19259999999998,22.355199999999996],[114.19259999999998,22.353599999999997]]]}},{"type":"Feature","properties":{"id":"lu-kowloon-wong-tai-sin-11-07","class":"built_up","vegetationFraction":0.108,"pavedFraction":0.545,"waterFraction":0.024,"simulated":true},"geometry":{"type":"Polygon","coordinates":[[[114.19419999999998,22.353599999999997],[114.19579999999998,22.353599999999997],[114.19579999999998,22.355199999999996],[114.19419999999998,22.355199999999996],[114.19419999999998,22.353599999999997]]]}},{"type":"Feature","properties":{"id":"lu-kowloon-wong-tai-sin-11-08","class":"built_up","vegetationFraction":0.224,"pavedFraction":0.554,"waterFraction":0.009,"simulated":true},"geometry":{"type":"Polygon","coordinates":[[[114.19579999999998,22.353599999999997],[114.19739999999997,22.353599999999997],[114.19739999999997,22.355199999999996],[114.19579999999998,22.355199999999996],[114.19579999999998,22.353599999999997]]]}},{"type":"Feature","properties":{"id":"lu-kowloon-wong-tai-sin-11-09","class":"built_up","vegetationFraction":0.133,"pavedFraction":0.533,"waterFraction":0.056,"simulated":true},"geometry":{"type":"Polygon","coordinates":[[[114.19739999999997,22.353599999999997],[114.19899999999997,22.353599999999997],[114.19899999999997,22.355199999999996],[114.19739999999997,22.355199999999996],[114.19739999999997,22.353599999999997]]]}},{"type":"Feature","properties":{"id":"lu-kowloon-wong-tai-sin-11-10","class":"urban_open_space","vegetationFraction":0.26,"pavedFraction":0.694,"waterFraction":0.014,"simulated":true},"geometry":{"type":"Polygon","coordinates":[[[114.19899999999997,22.353599999999997],[114.20059999999997,22.353599999999997],[114.20059999999997,22.355199999999996],[114.19899999999997,22.355199999999996],[114.19899999999997,22.353599999999997]]]}},{"type":"Feature","properties":{"id":"lu-kowloon-wong-tai-sin-11-11","class":"built_up","vegetationFraction":0.198,"pavedFraction":0.606,"waterFraction":0.037,"simulated":true},"geometry":{"type":"Polygon","coordinates":[[[114.20059999999997,22.353599999999997],[114.20219999999996,22.353599999999997],[114.20219999999996,22.355199999999996],[114.20059999999997,22.355199999999996],[114.20059999999997,22.353599999999997]]]}},{"type":"Feature","properties":{"id":"lu-kowloon-wong-tai-sin-11-12","class":"built_up","vegetationFraction":0.248,"pavedFraction":0.584,"waterFraction":0.046,"simulated":true},"geometry":{"type":"Polygon","coordinates":[[[114.20219999999996,22.353599999999997],[114.20379999999996,22.353599999999997],[114.20379999999996,22.355199999999996],[114.20219999999996,22.355199999999996],[114.20219999999996,22.353599999999997]]]}},{"type":"Feature","properties":{"id":"lu-kowloon-wong-tai-sin-11-13","class":"built_up","vegetationFraction":0.137,"pavedFraction":0.525,"waterFraction":0.019,"simulated":true},"geometry":{"type":"Polygon","coordinates":[[[114.20379999999996,22.353599999999997],[114.20539999999995,22.353599999999997],[114.20539999999995,22.355199999999996],[114.20379999999996,22.355199999999996],[114.20379999999996,22.353599999999997]]]}},{"type":"Feature","properties":{"id":"lu-kowloon-wong-tai-sin-11-14","class":"urban_open_space","vegetationFraction":0.272,"pavedFraction":0.516,"waterFraction":0.04,"simulated":true},"geometry":{"type":"Polygon","coordinates":[[[114.20539999999995,22.353599999999997],[114.20699999999995,22.353599999999997],[114.20699999999995,22.355199999999996],[114.20539999999995,22.355199999999996],[114.20539999999995,22.353599999999997]]]}},{"type":"Feature","properties":{"id":"lu-kowloon-wong-tai-sin-11-15","class":"built_up","vegetationFraction":0.147,"pavedFraction":0.704,"waterFraction":0.05,"simulated":true},"geometry":{"type":"Polygon","coordinates":[[[114.20699999999995,22.353599999999997],[114.20859999999995,22.353599999999997],[114.20859999999995,22.355199999999996],[114.20699999999995,22.355199999999996],[114.20699999999995,22.353599999999997]]]}},{"type":"Feature","properties":{"id":"lu-kowloon-wong-tai-sin-11-16","class":"built_up","vegetationFraction":0.174,"pavedFraction":0.722,"waterFraction":0.028,"simulated":true},"geometry":{"type":"Polygon","coordinates":[[[114.20859999999995,22.353599999999997],[114.21019999999994,22.353599999999997],[114.21019999999994,22.355199999999996],[114.20859999999995,22.355199999999996],[114.20859999999995,22.353599999999997]]]}},{"type":"Feature","properties":{"id":"lu-kowloon-wong-tai-sin-11-17","class":"built_up","vegetationFraction":0.135,"pavedFraction":0.686,"waterFraction":0.021,"simulated":true},"geometry":{"type":"Polygon","coordinates":[[[114.21019999999994,22.353599999999997],[114.21179999999994,22.353599999999997],[114.21179999999994,22.355199999999996],[114.21019999999994,22.355199999999996],[114.21019999999994,22.353599999999997]]]}},{"type":"Feature","properties":{"id":"lu-kowloon-wong-tai-sin-11-18","class":"built_up","vegetationFraction":0.243,"pavedFraction":0.519,"waterFraction":0.009,"simulated":true},"geometry":{"type":"Polygon","coordinates":[[[114.21179999999994,22.353599999999997],[114.21339999999994,22.353599999999997],[114.21339999999994,22.355199999999996],[114.21179999999994,22.355199999999996],[114.21179999999994,22.353599999999997]]]}}]}