{"type":"FeatureCollection","features":[{"type":"Feature","properties":{"id":"lu-central-western-00-00","class":"built_up","vegetationFraction":0.132,"pavedFraction":0.743,"waterFraction":0.013,"simulated":true},"geometry":{"type":"Polygon","coordinates":[[[114.128,22.278],[114.1296,22.278],[114.1296,22.2796],[114.128,22.2796],[114.128,22.278]]]}},{"type":"Feature","properties":{"id":"lu-central-western-00-01","class":"built_up","vegetationFraction":0.066,"pavedFraction":0.739,"waterFraction":0.047,"simulated":true},"geometry":{"type":"Polygon","coordinates":[[[114.1296,22.278],[114.13119999999999,22.278],[114.13119999999999,22.2796],[114.1296,22.2796],[114.1296,22.278]]]}},{"type":"Feature","properties":{"id":"lu-central-western-00-02","class":"built_up","vegetationFraction":0.158,"pavedFraction":0.564,"waterFraction":0.037,"simulated":true},"geometry":{"type":"Polygon","coordinates":[[[114.13119999999999,22.278],[114.13279999999999,22.278],[114.13279999999999,22.2796],[114.13119999999999,22.2796],[114.13119999999999,22.278]]]}},{"type":"Feature","properties":{"id":"lu-central-western-00-03","class":"built_up","vegetationFraction":0.111,"pavedFraction":0.558,"waterFraction":0.009,"simulated":true},"geometry":{"type":"Polygon","coordinates":[[[114.13279999999999,22.278],[114.13439999999999,22.278],[114.13439999999999,22.2796],[114.13279999999999,22.2796],[114.13279999999999,22.278]]]}},{"type":"Feature","properties":{"id":"lu-central-western-00-04","class":"built_up","vegetationFraction":0.07,"pavedFraction":0.79,"waterFraction":0.046,"simulated":true},"geometry":{"type":"Polygon","coordinates":[[[114.13439999999999,22.278],[114.13599999999998,22.278],[114.13599999999998,22.2796],[114.13439999999999,22.2796],[114.13439999999999,22.278]]]}},{"type":"Feature","properties":{"id":"lu-central-western-00-05","class":"built_up","vegetationFraction":0.168,"pavedFraction":0.61,"waterFraction":0.031,"simulated":true},"geometry":{"type":"Polygon","coordinates":[[[114.13599999999998,22.278],[114.13759999999998,22.278],[114.13759999999998,22.2796],[114.13599999999998,22.2796],[114.13599999999998,22.278]]]}},{"type":"Feature","properties":{"id":"lu-central-western-00-06","class":"built_up","vegetationFraction":0.136,"pavedFraction":0.75,"waterFraction":0.055,"simulated":true},"geometry":{"type":"Polygon","coordinates":[[[114.13759999999998,22.278],[114.13919999999997,22.278],[114.13919999999997,22.2796],[114.13759999999998,22.2796],[114.13759999999998,22.278]]]}},{"type":"Feature","properties":{"id":"lu-central-western-00-07","class":"built_up","vegetationFraction":0.148,"pavedFraction":0.715,"waterFraction":0.039,"simulated":true},"geometry":{"type":"Polygon","coordinates":[[[114.13919999999997,22.278],[114.14079999999997,22.278],[114.14079999999997,22.2796],[114.13919999999997,22.2796],[114.13919999999997,22.278]]]}},{"type":"Feature","properties":{"id":"lu-central-western-00-08","class":"built_up","vegetationFraction":0.127,"pavedFraction":0.748,"waterFraction":0.023,"simulated":true},"geometry":{"type":"Polygon","coordinates":[[[114.14079999999997,22.278],[114.14239999999997,22.278],[114.14239999999997,22.2796],[114.14079999999997,22.2796],[114.14079999999997,22.278]]]}},{"type":"Feature","properties":{"id":"lu-central-western-00-09","class":"built_up","vegetationFraction":0.108,"pavedFraction":0.645,"waterFraction":0.057,"simulated":true},"geometry":{"type":"Polygon","coordinates":[[[114.14239999999997,22.278],[114.14399999999996,22.278],[114.14399999999996,22.2796],[114.14239999999997,22.2796],[114.14239999999997,22.278]]]}},{"type":"Feature","properties":{"id":"lu-central-western-00-10","class":"built_up","vegetationFraction":0.066,"pavedFraction":0.646,"waterFraction":0.006,"simulated":true},"geometry":{"type":"Polygon","coordinates":[[[114.14399999999996,22.278],[114.14559999999996,22.278],[114.14559999999996,22.2796],[114.14399999999996,22.2796],[114.14399999999996,22.278]]]}},{"type":"Feature","properties":{"id":"lu-central-western-00-11","class":"built_up","vegetationFraction":0.108,"pavedFraction":0.703,"waterFraction":0.015,"simulated":true},"geometry":{"type":"Polygon","coordinates":[[[114.14559999999996,22.278],[114.14719999999996,22.278],[114.14719999999996,22.2796],[114.14559999999996,22.2796],[114.14559999999996,22.278]]]}},{"type":"Feature","properties":{"id":"lu-central-western-00-12","class":"built_up","vegetationFraction":0.146,"pavedFraction":0.602,"waterFraction":0.016,"simulated":true},"geometry":{"type":"Polygon","coordinates":[[[114.14719999999996,22.278],[114.14879999999995,22.278],[114.14879999999995,22.2796],[114.14719999999996,22.2796],[114.14719999999996,22.278]]]}},{"type":"Feature","properties":{"id":"lu-central-western-01-00","class":"built_up","vegetationFraction":0.072,"pavedFraction":0.736,"waterFraction":0.024,"simulated":true},"geometry":{"type":"Polygon","coordinates":[[[114.128,22.2796],[114.1296,22.2796],[114.1296,22.2812],[114.128,22.2812],[114.128,22.2796]]]}},{"type":"Feature","properties":{"id":"lu-central-western-01-01","class":"built_up","vegetationFraction":0.064,"pavedFraction":0.703,"waterFraction":0.042,"simulated":true},"geometry":{"type":"Polygon","coordinates":[[[114.1296,22.2796],[114.13119999999999,22.2796],[114.13119999999999,22.2812],[114.1296,22.2812],[114.1296,22.2796]]]}},{"type":"Feature","properties":{"id":"lu-central-western-01-02","class":"built_up","vegetationFraction":0.096,"pavedFraction":0.562,"waterFraction":0.007,"simulated":true},"geometry":{"type":"Polygon","coordinates":[[[114.13119999999999,22.2796],[114.13279999999999,22.2796],[114.13279999999999,22.2812],[114.13119999999999,22.2812],[114.13119999999999,22.2796]]]}},{"type":"Feature","properties":{"id":"lu-central-western-01-03","class":"built_up","vegetationFraction":0.099,"pavedFraction":0.716,"waterFraction":0.049,"simulated":true},"geometry":{"type":"Polygon","coordinates":[[[114.13279999999999,22.2796],[114.13439999999999,22.2796],[114.13439999999999,22.2812],[114.13279999999999,22.2812],[114.13279999999999,22.2796]]]}},{"type":"Feature","properties":{"id":"lu-central-western-01-04","class":"built_up","vegetationFraction":0.072,"pavedFraction":0.756,"waterFraction":0.028,"simulated":true},"geometry":{"type":"Polygon","coordinates":[[[114.13439999999999,22.2796],[114.13599999999998,22.2796],[114.13599999999998,22.2812],[114.13439999999999,22.2812],[114.13439999999999,22.2796]]]}},{"type":"Feature","properties":{"id":"lu-central-western-01-05","class":"built_up","vegetationFraction":0.145,"pavedFraction":0.671,"waterFraction":0.022,"simulated":true},"geometry":{"type":"Polygon","coordinates":[[[114.13599999999998,22.2796],[114.13759999999998,22.2796],[114.13759999999998,22.2812],[114.13599999999998,22.2812],[114.13599999999998,22.2796]]]}},{"type":"Feature","properties":{"id":"lu-central-western-01-06","class":"built_up","vegetationFraction":0.11,"pavedFraction":0.779,"waterFraction":0.041,"simulated":true},"geometry":{"type":"Polygon","coordinates":[[[114.13759999999998,22.2796],[114.13919999999997,22.2796],[114.13919999999997,22.2812],[114.13759999999998,22.2812],[114.13759999999998,22.2796]]]}},{"type":"Feature","properties":{"id":"lu-central-western-01-07","class":"green_space","vegetationFraction":0.78,"pavedFraction":0.1,"waterFraction":0.035,"simulated":true},"geometry":{"type":"Polygon","coordinates":[[[114.13919999999997,22.2796],[114.14079999999997,22.2796],[114.14079999999997,22.2812],[114.13919999999997,22.2812],[114.13919999999997,22.2796]]]}},{"type":"Feature","properties":{"id":"lu-central-western-01-08","class":"green_space","vegetationFraction":0.78,"pavedFraction":0.1,"waterFraction":0.01,"simulated":true},"geometry":{"type":"Polygon","coordinates":[[[114.14079999999997,22.2796],[114.14239999999997,22.2796],[114.14239999999997,22.2812],[114.14079999999997,22.2812],[114.14079999999997,22.2796]]]}},{"type":"Feature","properties":{"id":"lu-central-western-01-09","class":"green_space","vegetationFraction":0.78,"pavedFraction":0.1,"waterFraction":0.0,"simulated":true},"geometry":{"type":"Polygon","coordinates":[[[114.14239999999997,22.2796],[114.14399999999996,22.2796],[114.14399999999996,22.2812],[114.14239999999997,22.2812],[114.14239999999997,22.2796]]]}},{"type":"Feature","properties":{"id":"lu-central-western-01-10","class":"built_up","vegetationFraction":0.115,"pavedFraction":0.705,"waterFraction":0.035,"simulated":true},"geometry":{"type":"Polygon","coordinates":[[[114.14399999999996,22.2796],[114.14559999999996,22.2796],[114.14559999999996,22.2812],[114.14399999999996,22.2812],[114.14399999999996,22.2796]]]}},{"type":"Feature","properties":{"id":"lu-central-western-01-11","class":"built_up","vegetationFraction":0.09,"pavedFraction":0.639,"waterFraction":0.041,"simulated":true},"geometry":{"type":"Polygon","coordinates":[[[114.14559999999996,22.2796],[114.14719999999996,22.2796],[114.14719999999996,22.2812],[114.14559999999996,22.2812],[114.14559999999996,22.2796]]]}},{"type":"Feature","properties":{"id":"lu-central-western-01-12","class":"built_up","vegetationFraction":0.147,"pavedFraction":0.792,"waterFraction":0.023,"simulated":true},"geometry":{"type":"Polygon","coordinates":[[[114.14719999999996,22.2796],[114.14879999999995,22.2796],[114.14879999999995,22.2812],[114.14719999999996,22.2812],[114.14719999999996,22.2796]]]}},{"type":"Feature","properties":{"id":"lu-central-western-02-00","class":"built_up","vegetationFraction":0.128,"pavedFraction":0.614,"waterFraction":0.029,"simulated":true},"geometry":{"type":"Polygon","coordinates":[[[114.128,22.2812],[114.1296,22.2812],[114.1296,22.282799999999998],[114.128,22.282799999999998],[114.128,22.2812]]]}},{"type":"Feature","properties":{"id":"lu-central-western-02-01","class":"built_up","vegetationFraction":0.119,"pavedFraction":0.784,"waterFraction":0.017,"simulated":true},"geometry":{"type":"Polygon","coordinates":[[[114.1296,22.2812],[114.13119999999999,22.2812],[114.13119999999999,22.282799999999998],[114.1296,22.282799999999998],[114.1296,22.2812]]]}},{"type":"Feature","properties":{"id":"lu-central-western-02-02","class":"built_up","vegetationFraction":0.105,"pavedFraction":0.558,"waterFraction":0.035,"simulated":true},"geometry":{"type":"Polygon","coordinates":[[[114.13119999999999,22.2812],[114.13279999999999,22.2812],[114.13279999999999,22.282799999999998],[114.13119999999999,22.282799999999998],[114.13119999999999,22.2812]]]}},{"type":"Feature","properties":{"id":"lu-central-western-02-03","class":"built_up","vegetationFraction":0.179,"pavedFraction":0.592,"waterFraction":0.01,"simulated":true},"geometry":{"type":"Polygon","coordinates":[[[114.13279999999999,22.2812],[114.13439999999999,22.2812],[114.13439999999999,22.282799999999998],[114.13279999999999,22.282799999999998],[114.13279999999999,22.2812]]]}},{"type":"Feature","properties":{"id":"lu-central-western-02-04","class":"built_up","vegetationFraction":0.103,"pavedFraction":0.582,"waterFraction":0.039,"simulated":true},"geometry":{"type":"Polygon","coordinates":[[[114.13439999999999,22.2812],[114.13599999999998,22.2812],[114.13599999999998,22.282799999999998],[114.13439999999999,22.282799999999998],[114.13439999999999,22.2812]]]}},{"type":"Feature","properties":{"id":"lu-central-western-02-05","class":"built_up","vegetationFraction":0.077,"pavedFraction":0.718,"waterFraction":0.049,"simulated":true},"geometry":{"type":"Polygon","coordinates":[[[114.13599999999998,22.2812],[114.13759999999998,22.2812],[114.13759999999998,22.282799999999998],[114.13599999999998,22.282799999999998],[114.13599999999998,22.2812]]]}},{"type":"Feature","properties":{"id":"lu-central-western-02-06","class":"built_up","vegetationFraction":0.154,"pavedFraction":0.698,"waterFraction":0.055,"simulated":true},"geometry":{"type":"Polygon","coordinates":[[[114.13759999999998,22.2812],[114.13919999999997,22.2812],[114.13919999999997,22.282799999999998],[114.13759999999998,22.282799999999998],[114.13759999999998,22.2812]]]}},{"type":"Feature","properties":{"id":"lu-central-western-02-07","class":"green_space","vegetationFraction":0.78,"pavedFraction":0.1,"waterFraction":0.05,"simulated":true},"geometry":{"type":"Polygon","coordinates":[[[114.13919999999997,22.2812],[114.14079999999997,22.2812],[114.14079999999997,22.282799999999998],[114.13919999999997,22.282799999999998],[114.13919999999997,22.2812]]]}},{"type":"Feature","properties":{"id":"lu-central-western-02-08","class":"green_space","vegetationFraction":0.78,"pavedFraction":0.1,"waterFraction":0.014,"simulated":true},"geometry":{"type":"Polygon","coordinates":[[[114.14079999999997,22.2812],[114.14239999999997,22.2812],[114.14239999999997,22.282799999999998],[114.14079999999997,22.282799999999998],[114.14079999999997,22.2812]]]}},{"type":"Feature","properties":{"id":"lu-central-western-02-09","class":"green_space","vegetationFraction":0.78,"pavedFraction":0.1,"waterFraction":0.038,"simulated":true},"geometry":{"type":"Polygon","coordinates":[[[114.14239999999997,22.2812],[114.14399999999996,22.2812],[114.14399999999996,22.282799999999998],[114.14239999999997,22.282799999999998],[114.14239999999997,22.2812]]]}},{"type":"Feature","properties":{"id":"lu-central-western-02-10","class":"built_up","vegetationFraction":0.148,"pavedFraction":0.728,"waterFraction":0.043,"simulated":true},"geometry":{"type":"Polygon","coordinates":[[[114.14399999999996,22.2812],[114.14559999999996,22.2812],[114.14559999999996,22.282799999999998],[114.14399999999996,22.282799999999998],[114.14399999999996,22.2812]]]}},{"type":"Feature","properties":{"id":"lu-central-western-02-11","class":"built_up","vegetationFraction":0.15,"pavedFraction":0.625,"waterFraction":0.033,"simulated":true},"geometry":{"type":"Polygon","coordinates":[[[114.14559999999996,22.2812],[114.14719999999996,22.2812],[114.14719999999996,22.282799999999998],[114.14559999999996,22.282799999999998],[114.14559999999996,22.2812]]]}},{"type":"Feature","properties":{"id":"lu-central-western-02-12","class":"built_up","vegetationFraction":0.129,"pavedFraction":0.562,"waterFraction":0.058,"simulated":true},"geometry":{"type":"Polygon","coordinates":[[[114.14719999999996,22.2812],[114.14879999999995,22.2812],[114.14879999999995,22.282799999999998],[114.14719999999996,22.282799999999998],[114.14719999999996,22.2812]]]}},{"type":"Feature","properties":{"id":"lu-central-western-03-00","class":"built_up","vegetationFraction":0.124,"pavedFraction":0.817,"waterFraction":0.027,"simulated":true},"geometry":{"type":"Polygon","coordinates":[[[114.128,22.282799999999998],[114.1296,22.282799999999998],[114.1296,22.284399999999998],[114.128,22.284399999999998],[114.128,22.282799999999998]]]}},{"type":"Feature","properties":{"id":"lu-central-western-03-01","class":"built_up","vegetationFraction":0.178,"pavedFraction":0.646,"waterFraction":0.051,"simulated":true},"geometry":{"type":"Polygon","coordinates":[[[114.1296,22.282799999999998],[114.13119999999999,22.282799999999998],[114.13119999999999,22.284399999999998],[114.1296,22.284399999999998],[114.1296,22.282799999999998]]]}},{"type":"Feature","properties":{"id":"lu-central-western-03-02","class":"built_up","vegetationFraction":0.123,"pavedFraction":0.603,"waterFraction":0.013,"simulated":true},"geometry":{"type":"Polygon","coordinates":[[[114.13119999999999,22.282799999999998],[114.13279999999999,22.282799999999998],[114.13279999999999,22.284399999999998],[114.13119999999999,22.284399999999998],[114.13119999999999,22.282799999999998]]]}},{"type":"Feature","properties":{"id":"lu-central-western-03-03","class":"built_up","vegetationFraction":0.076,"pavedFraction":0.615,"waterFraction":0.056,"simulated":true},"geometry":{"type":"Polygon","coordinates":[[[114.13279999999999,22.282799999999998],[114.13439999999999,22.282799999999998],[114.13439999999999,22.284399999999998],[114.13279999999999,22.284399999999998],[114.13279999999999,22.282799999999998]]]}},{"type":"Feature","properties":{"id":"lu-central-western-03-04","class":"built_up","vegetationFraction":0.115,"pavedFraction":0.791,"waterFraction":0.047,"simulated":true},"geometry":{"type":"Polygon","coordinates":[[[114.13439999999999,22.282799999999998],[114.13599999999998,22.282799999999998],[114.13599999999998,22.284399999999998],[114.13439999999999,22.284399999999998],[114.13439999999999,22.282799999999998]]]}},{"type":"Feature","properties":{"id":"lu-central-western-03-05","class":"built_up","vegetationFraction":0.153,"pavedFraction":0.564,"waterFraction":0.059,"simulated":true},"geometry":{"type":"Polygon","coordinates":[[[114.13599999999998,22.282799999999998],[114.13759999999998,22.282799999999998],[114.13759999999998,22.284399999999998],[114.13599999999998,22.284399999999998],[114.13599999999998,22.282799999999998]]]}},{"type":"Feature","properties":{"id":"lu-central-western-03-06","class":"built_up","vegetationFraction":0.157,"pavedFraction":0.817,"waterFraction":0.032,"simulated":true},"geometry":{"type":"Polygon","coordinates":[[[114.13759999999998,22.282799999999998],[114.13919999999997,22.282799999999998],[114.13919999999997,22.284399999999998],[114.13759999999998,22.284399999999998],[114.13759999999998,22.282799999999998]]]}},{"type":"Feature","properties":{"id":"lu-central-western-03-07","class":"built_up","vegetationFraction":0.16,"pavedFraction":0.838,"waterFraction":0.046,"simulated":true},"geometry":{"type":"Polygon","coordinates":[[[114.13919999999997,22.282799999999998],[114.14079999999997,22.282799999999998],[114.14079999999997,22.284399999999998],[114.13919999999997,22.284399999999998],[114.13919999999997,22.282799999999998]]]}},{"type":"Feature","properties":{"id":"lu-central-western-03-08","class":"built_up","vegetationFraction":0.066,"pavedFraction":0.606,"waterFraction":0.045,"simulated":true},"geometry":{"type":"Polygon","coordinates":[[[114.14079999999997,22.282799999999998],[114.14239999999997,22.282799999999998],[114.14239999999997,22.284399999999998],[114.14079999999997,22.284399999999998],[114.14079999999997,22.282799999999998]]]}},{"type":"Feature","properties":{"id":"lu-central-western-03-09","class":"built_up","vegetationFraction":0.127,"pavedFraction":0.67,"waterFraction":0.051,"simulated":true},"geometry":{"type":"Polygon","coordinates":[[[114.14239999999997,22.282799999999998],[114.14399999999996,22.282799999999998],[114.14399999999996,22.284399999999998],[114.14239999999997,22.284399999999998],[114.14239999999997,22.282799999999998]]]}},{"type":"Feature","properties":{"id":"lu-central-western-03-10","class":"built_up","vegetationFraction":0.175,"pavedFraction":0.663,"waterFraction":0.034,"simulated":true},"geometry":{"type":"Polygon","coordinates":[[[114.14399999999996,22.282799999999998],[114.14559999999996,22.282799999999998],[114.14559999999996,22.284399999999998],[114.14399999999996,22.284399999999998],[114.14399999999996,22.282799999999998]]]}},{"type":"Feature","properties":{"id":"lu-central-western-03-11","class":"built_up","vegetationFraction":0.168,"pavedFraction":0.599,"waterFraction":0.035,"simulated":true},"geometry":{"type":"Polygon","coordinates":[[[114.14559999999996,22.282799999999998],[114.14719999999996,22.282799999999998],[114.14719999999996,22.284399999999998],[114.14559999999996,22.284399999999998],[114.14559999999996,22.282799999999998]]]}},{"type":"Feature","properties":{"id":"lu-central-western-03-12","class":"built_up","vegetationFraction":0.129,"pavedFraction":0.832,"waterFraction":0.016,"simulated":true},"geometry":{"type":"Polygon","coordinates":[[[114.14719999999996,22.282799999999998],[114.14879999999995,22.282799999999998],[114.14879999999995,22.284399999999998],[114.14719999999996,22.284399999999998],[114.14719999999996,22.282799999999998]]]}},{"type":"Feature","properties":{"id":"lu-central-western-04-00","class":"built_up","vegetationFraction":0.108,"pavedFraction":0.746,"waterFraction":0.043,"simulated":true},"geometry":{"type":"Polygon","coordinates":[[[114.128,22.284399999999998],[114.1296,22.284399999999998],[114.1296,22.285999999999998],[114.128,22.285999999999998],[114.128,22.284399999999998]]]}},{"type":"Feature","properties":{"id":"lu-central-western-04-01","class":"built_up","vegetationFraction":0.07,"pavedFraction":0.666,"waterFraction":0.049,"simulated":true},"geometry":{"type":"Polygon","coordinates":[[[114.1296,22.284399999999998],[114.13119999999999,22.284399999999998],[114.13119999999999,22.285999999999998],[114.1296,22.285999999999998],[114.1296,22.284399999999998]]]}},{"type":"Feature","properties":{"id":"lu-central-western-04-02","class":"built_up","vegetationFraction":0.084,"pavedFraction":0.822,"waterFraction":0.033,"simulated":true},"geometry":{"type":"Polygon","coordinates":[[[114.13119999999999,22.284399999999998],[114.13279999999999,22.284399999999998],[114.13279999999999,22.285999999999998],[114.13119999999999,22.285999999999998],[114.13119999999999,22.284399999999998]]]}},{"type":"Feature","properties":{"id":"lu-central-western-04-03","class":"built_up","vegetationFraction":0.074,"pavedFraction":0.572,"waterFraction":0.057,"simulated":true},"geometry":{"type":"Polygon","coordinates":[[[114.13279999999999,22.284399999999998],[114.13439999999999,22.284399999999998],[114.13439999999999,22.285999999999998],[114.13279999999999,22.285999999999998],[114.13279999999999,22.284399999999998]]]}},{"type":"Feature","properties":{"id":"lu-central-western-04-04","class":"built_up","vegetationFraction":0.153,"pavedFraction":0.657,"waterFraction":0.056,"simulated":true},"geometry":{"type":"Polygon","coordinates":[[[114.13439999999999,22.284399999999998],[114.13599999999998,22.284399999999998],[114.13599999999998,22.285999999999998],[114.13439999999999,22.285999999999998],[114.13439999999999,22.284399999999998]]]}},{"type":"Feature","properties":{"id":"lu-central-western-04-05","class":"built_up","vegetationFraction":0.134,"pavedFraction":0.698,"waterFraction":0.06,"simulated":true},"geometry":{"type":"Polygon","coordinates":[[[114.13599999999998,22.284399999999998],[114.13759999999998,22.284399999999998],[114.13759999999998,22.285999999999998],[114.13599999999998,22.285999999999998],[114.13599999999998,22.284399999999998]]]}},{"type":"Feature","properties":{"id":"lu-central-western-04-06","class":"built_up","vegetationFraction":0.064,"pavedFraction":0.604,"waterFraction":0.033,"simulated":true},"geometry":{"type":"Polygon","coordinates":[[[114.13759999999998,22.284399999999998],[114.13919999999997,22.284399999999998],[114.13919999999997,22.285999999999998],[114.13759999999998,22.285999999999998],[114.13759999999998,22.284399999999998]]]}},{"type":"Feature","properties":{"id":"lu-central-western-04-07","class":"built_up","vegetationFraction":0.071,"pavedFraction":0.824,"waterFraction":0.032,"simulated":true},"geometry":{"type":"Polygon","coordinates":[[[114.13919999999997,22.284399999999998],[114.14079999999997,22.284399999999998],[114.14079999999997,22.285999999999998],[114.13919999999997,22.285999999999998],[114.13919999999997,22.284399999999998]]]}},{"type":"Feature","properties":{"id":"lu-central-western-04-08","class":"built_up","vegetationFraction":0.097,"pavedFraction":0.735,"waterFraction":0.053,"simulated":true},"geometry":{"type":"Polygon","coordinates":[[[114.14079999999997,22.284399999999998],[114.14239999999997,22.284399999999998],[114.14239999999997,22.285999999999998],[114.14079999999997,22.285999999999998],[114.14079999999997,22.284399999999998]]]}},{"type":"Feature","properties":{"id":"lu-central-western-04-09","class":"built_up","vegetationFraction":0.092,"pavedFraction":0.595,"waterFraction":0.053,"simulated":true},"geometry":{"type":"Polygon","coordinates":[[[114.14239999999997,22.284399999999998],[114.14399999999996,22.284399999999998],[114.14399999999996,22.285999999999998],[114.14239999999997,22.285999999999998],[114.14239999999997,22.284399999999998]]]}},{"type":"Feature","properties":{"id":"lu-central-western-04-10","class":"built_up","vegetationFraction":0.18,"pavedFraction":0.817,"waterFraction":0.018,"simulated":true},"geometry":{"type":"Polygon","coordinates":[[[114.14399999999996,22.284399999999998],[114.14559999999996,22.284399999999998],[114.14559999999996,22.285999999999998],[114.14399999999996,22.285999999999998],[114.14399999999996,22.284399999999998]]]}},{"type":"Feature","properties":{"id":"lu-central-western-04-11","class":"built_up","vegetationFraction":0.174,"pavedFraction":0.555,"waterFraction":0.007,"simulated":true},"geometry":{"type":"Polygon","coordinates":[[[114.14559999999996,22.284399999999998],[114.14719999999996,22.284399999999998],[114.14719999999996,22.285999999999998],[114.14559999999996,22.285999999999998],[114.14559999999996,22.284399999999998]]]}},{"type":"Feature","properties":{"id":"lu-central-western-04-12","class":"built_up","vegetationFraction":0.124,"pavedFraction":0.772,"waterFraction":0.007,"simulated":true},"geometry":{"type":"Polygon","coordinates":[[[114.14719999999996,22.284399999999998],[114.14879999999995,22.284399999999998],[114.14879999999995,22.285999999999998],[114.14719999999996,22.285999999999998],[114.14719999999996,22.284399999999998]]]}},{"type":"Feature","properties":{"id":"lu-central-western-05-00","class":"built_up","vegetationFraction":0.105,"pavedFraction":0.796,"waterFraction":0.052,"simulated":true},"geometry":{"type":"Polygon","coordinates":[[[114.128,22.285999999999998],[114.1296,22.285999999999998],[114.1296,22.287599999999998],[114.128,22.287599999999998],[114.128,22.285999999999998]]]}},{"type":"Feature","properties":{"id":"lu-central-western-05-01","class":"built_up","vegetationFraction":0.152,"pavedFraction":0.657,"waterFraction":0.053,"simulated":true},"geometry":{"type":"Polygon","coordinates":[[[114.1296,22.285999999999998],[114.13119999999999,22.285999999999998],[114.13119999999999,22.287599999999998],[114.1296,22.287599999999998],[114.1296,22.285999999999998]]]}},{"type":"Feature","properties":{"id":"lu-central-western-05-02","class":"built_up","vegetationFraction":0.1,"pavedFraction":0.643,"waterFraction":0.054,"simulated":true},"geometry":{"type":"Polygon","coordinates":[[[114.13119999999999,22.285999999999998],[114.13279999999999,22.285999999999998],[114.13279999999999,22.287599999999998],[114.13119999999999,22.287599999999998],[114.13119999999999,22.285999999999998]]]}},{"type":"Feature","properties":{"id":"lu-central-western-05-03","class":"built_up","vegetationFraction":0.165,"pavedFraction":0.717,"waterFraction":0.057,"simulated":true},"geometry":{"type":"Polygon","coordinates":[[[114.13279999999999,22.285999999999998],[114.13439999999999,22.285999999999998],[114.13439999999999,22.287599999999998],[114.13279999999999,22.287599999999998],[114.13279999999999,22.285999999999998]]]}},{"type":"Feature","properties":{"id":"lu-central-western-05-04","class":"built_up","vegetationFraction":0.118,"pavedFraction":0.588,"waterFraction":0.028,"simulated":true},"geometry":{"type":"Polygon","coordinates":[[[114.13439999999999,22.285999999999998],[114.13599999999998,22.285999999999998],[114.13599999999998,22.287599999999998],[114.13439999999999,22.287599999999998],[114.13439999999999,22.285999999999998]]]}},{"type":"Feature","properties":{"id":"lu-central-western-05-05","class":"built_up","vegetationFraction":0.139,"pavedFraction":0.552,"waterFraction":0.06,"simulated":true},"geometry":{"type":"Polygon","coordinates":[[[114.13599999999998,22.285999999999998],[114.13759999999998,22.285999999999998],[114.13759999999998,22.287599999999998],[114.13599999999998,22.287599999999998],[114.13599999999998,22.285999999999998]]]}},{"type":"Feature","properties":{"id":"lu-central-western-05-06","class":"built_up","vegetationFraction":0.133,"pavedFraction":0.732,"waterFraction":0.013,"simulated":true},"geometry":{"type":"Polygon","coordinates":[[[114.13759999999998,22.285999999999998],[114.13919999999997,22.285999999999998],[114.13919999999997,22.287599999999998],[114.13759999999998,22.287599999999998],[114.13759999999998,22.285999999999998]]]}},{"type":"Feature","properties":{"id":"lu-central-western-05-07","class":"built_up","vegetationFraction":0.18,"pavedFraction":0.77,"waterFraction":0.019,"simulated":true},"geometry":{"type":"Polygon","coordinates":[[[114.13919999999997,22.285999999999998],[114.14079999999997,22.285999999999998],[114.14079999999997,22.287599999999998],[114.13919999999997,22.287599999999998],[114.13919999999997,22.285999999999998]]]}},{"type":"Feature","properties":{"id":"lu-central-western-05-08","class":"built_up","vegetationFraction":0.111,"pavedFraction":0.663,"waterFraction":0.036,"simulated":true},"geometry":{"type":"Polygon","coordinates":[[[114.14079999999997,22.285999999999998],[114.14239999999997,22.285999999999998],[114.14239999999997,22.287599999999998],[114.14079999999997,22.287599999999998],[114.14079999999997,22.285999999999998]]]}},{"type":"Feature","properties":{"id":"lu-central-western-05-09","class":"built_up","vegetationFraction":0.149,"pavedFraction":0.834,"waterFraction":0.059,"simulated":true},"geometry":{"type":"Polygon","coordinates":[[[114.14239999999997,22.285999999999998],[114.14399999999996,22.285999999999998],[114.14399999999996,22.287599999999998],[114.14239999999997,22.287599999999998],[114.14239999999997,22.285999999999998]]]}},{"type":"Feature","properties":{"id":"lu-central-western-05-10","class":"built_up","vegetationFraction":0.153,"pavedFraction":0.756,"waterFraction":0.011,"simulated":true},"geometry":{"type":"Polygon","coordinates":[[[114.14399999999996,22.285999999999998],[114.14559999999996,22.285999999999998],[114.14559999999996,22.287599999999998],[114.14399999999996,22.287599999999998],[114.14399999999996,22.285999999999998]]]}},{"type":"Feature","properties":{"id":"lu-central-western-05-11","class":"built_up","vegetationFraction":0.158,"pavedFraction":0.732,"waterFraction":0.036,"simulated":true},"geometry":{"type":"Polygon","coordinates":[[[114.14559999999996,22.285999999999998],[114.14719999999996,22.285999999999998],[114.14719999999996,22.287599999999998],[114.14559999999996,22.287599999999998],[114.14559999999996,22.285999999999998]]]}},{"type":"Feature","properties":{"id":"lu-central-western-05-12","class":"built_up","vegetationFraction":0.175,"pavedFraction":0.826,"waterFraction":0.008,"simulated":true},"geometry":{"type":"Polygon","coordinates":[[[114.14719999999996,22.285999999999998],[114.14879999999995,22.285999999999998],[114.14879999999995,22.287599999999998],[114.14719999999996,22.287599999999998],[114.14719999999996,22.285999999999998]]]}},{"type":"Feature","properties":{"id":"lu-central-western-06-00","class":"built_up","vegetationFraction":0.047,"pavedFraction":0.95,"waterFraction":0.011,"simulated":true},"geometry":{"type":"Polygon","coordinates":[[[114.128,22.287599999999998],[114.1296,22.287599999999998],[114.1296,22.289199999999997],[114.128,22.289199999999997],[114.128,22.287599999999998]]]}},{"type":"Feature","properties":{"id":"lu-central-western-06-01","class":"green_space","vegetationFraction":0.78,"pavedFraction":0.1,"waterFraction":0.045,"simulated":true},"geometry":{"type":"Polygon","coordinates":[[[114.1296,22.287599999999998],[114.13119999999999,22.287599999999998],[114.13119999999999,22.289199999999997],[114.1296,22.289199999999997],[114.1296,22.287599999999998]]]}},{"type":"Feature","properties":{"id":"lu-central-western-06-02","class":"green_space","vegetationFraction":0.78,"pavedFraction":0.1,"waterFraction":0.049,"simulated":true},"geometry":{"type":"Polygon","coordinates":[[[114.13119999999999,22.287599999999998],[114.13279999999999,22.287599999999998],[114.13279999999999,22.289199999999997],[114.13119999999999,22.289199999999997],[114.13119999999999,22.287599999999998]]]}},{"type":"Feature","properties":{"id":"lu-central-western-06-03","class":"green_space","vegetationFraction":0.78,"pavedFraction":0.1,"waterFraction":0.035,"simulated":true},"geometry":{"type":"Polygon","coordinates":[[[114.13279999999999,22.287599999999998],[114.13439999999999,22.287599999999998],[114.13439999999999,22.289199999999997],[114.13279999999999,22.289199999999997],[114.13279999999999,22.287599999999998]]]}},{"type":"Feature","properties":{"id":"lu-central-western-06-04","class":"green_space","vegetationFraction":0.78,"pavedFraction":0.1,"waterFraction":0.057,"simulated":true},"geometry":{"type":"Polygon","coordinates":[[[114.13439999999999,22.287599999999998],[114.13599999999998,22.287599999999998],[114.13599999999998,22.289199999999997],[114.13439999999999,22.289199999999997],[114.13439999999999,22.287599999999998]]]}},{"type":"Feature","properties":{"id":"lu-central-western-06-05","class":"built_up","vegetationFraction":0.029,"pavedFraction":0.831,"waterFraction":0.035,"simulated":true},"geometry":{"type":"Polygon","coordinates":[[[114.13599999999998,22.287599999999998],[114.13759999999998,22.287599999999998],[114.13759999999998,22.289199999999997],[114.13599999999998,22.289199999999997],[114.13599999999998,22.287599999999998]]]}},{"type":"Feature","properties":{"id":"lu-central-western-06-06","class":"built_up","vegetationFraction":0.037,"pavedFraction":0.898,"waterFraction":0.048,"simulated":true},"geometry":{"type":"Polygon","coordinates":[[[114.13759999999998,22.287599999999998],[114.13919999999997,22.287599999999998],[114.13919999999997,22.289199999999997],[114.13759999999998,22.289199999999997],[114.13759999999998,22.287599999999998]]]}},{"type":"Feature","properties":{"id":"lu-central-western-06-07","class":"built_up","vegetationFraction":0.054,"pavedFraction":0.949,"waterFraction":0.004,"simulated":true},"geometry":{"type":"Polygon","coordinates":[[[114.13919999999997,22.287599999999998],[114.14079999999997,22.287599999999998],[114.14079999999997,22.289199999999997],[114.13919999999997,22.289199999999997],[114.13919999999997,22.287599999999998]]]}},{"type":"Feature","properties":{"id":"lu-central-western-06-08","class":"built_up","vegetationFraction":0.046,"pavedFraction":0.95,"waterFraction":0.038,"simulated":true},"geometry":{"type":"Polygon","coordinates":[[[114.14079999999997,22.287599999999998],[114.14239999999997,22.287599999999998],[114.14239999999997,22.289199999999997],[114.14079999999997,22.289199999999997],[114.14079999999997,22.287599999999998]]]}},{"type":"Feature","properties":{"id":"lu-central-western-06-09","class":"built_up","vegetationFraction":0.042,"pavedFraction":0.8,"waterFraction":0.044,"simulated":true},"geometry":{"type":"Polygon","coordinates":[[[114.14239999999997,22.287599999999998],[114.14399999999996,22.287599999999998],[114.14399999999996,22.289199999999997],[114.14239999999997,22.289199999999997],[114.14239999999997,22.287599999999998]]]}},{"type":"Feature","properties":{"id":"lu-central-western-06-10","class":"built_up","vegetationFraction":0.047,"pavedFraction":0.95,"waterFraction":0.042,"simulated":true},"geometry":{"type":"Polygon","coordinates":[[[114.14399999999996,22.287599999999998],[114.14559999999996,22.287599999999998],[114.14559999999996,22.289199999999997],[114.14399999999996,22.289199999999997],[114.14399999999996,22.287599999999998]]]}},{"type":"Feature","properties":{"id":"lu-central-western-06-11","class":"built_up","vegetationFraction":0.024,"pavedFraction":0.95,"waterFraction":0.052,"simulated":true},"geometry":{"type":"Polygon","coordinates":[[[114.14559999999996,22.287599999999998],[114.14719999999996,22.287599999999998],[114.14719999999996,22.289199999999997],[114.14559999999996,22.289199999999997],[114.14559999999996,22.287599999999998]]]}},{"type":"Feature","properties":{"id":"lu-central-western-06-12","class":"built_up","vegetationFraction":0.048,"pavedFraction":0.95,"waterFraction":0.022,"simulated":true},"geometry":{"type":"Polygon","coordinates":[[[114.14719999999996,22.287599999999998],[114.14879999999995,22.287599999999998],[114.14879999999995,22.289199999999997],[114.14719999999996,22.289199999999997],[114.14719999999996,22.287599999999998]]]}},{"type":"Feature","properties":{"id":"lu-central-western-07-00","class":"built_up","vegetationFraction":0.045,"pavedFraction":0.95,"waterFraction":0.018,"simulated":true},"geometry":{"type":"Polygon","coordinates":[[[114.128,22.289199999999997],[114.1296,22.289199999999997],[114.1296,22.290799999999997],[114.128,22.290799999999997],[114.128,22.289199999999997]]]}},{"type":"Feature","properties":{"id":"lu-central-western-07-01","class":"green_space","vegetationFraction":0.78,"pavedFraction":0.1,"waterFraction":0.04,"simulated":true},"geometry":{"type":"Polygon","coordinates":[[[114.1296,22.289199999999997],[114.13119999999999,22.289199999999997],[114.13119999999999,22.290799999999997],[114.1296,22.290799999999997],[114.1296,22.289199999999997]]]}},{"type":"Feature","properties":{"id":"lu-central-western-07-02","class":"green_space","vegetationFraction":0.78,"pavedFraction":0.1,"waterFraction":0.02,"simulated":true},"geometry":{"type":"Polygon","coordinates":[[[114.13119999999999,22.289199999999997],[114.13279999999999,22.289199999999997],[114.13279999999999,22.290799999999997],[114.13119999999999,22.290799999999997],[114.13119999999999,22.289199999999997]]]}},{"type":"Feature","properties":{"id":"lu-central-western-07-03","class":"green_space","vegetationFraction":0.78,"pavedFraction":0.1,"waterFraction":0.052,"simulated":true},"geometry":{"type":"Polygon","coordinates":[[[114.13279999999999,22.289199999999997],[114.13439999999999,22.289199999999997],[114.13439999999999,22.290799999999997],[114.13279999999999,22.290799999999997],[114.13279999999999,22.289199999999997]]]}},{"type":"Feature","properties":{"id":"lu-central-western-07-04","class":"green_space","vegetationFraction":0.78,"pavedFraction":0.1,"waterFraction":0.057,"simulated":true},"geometry":{"type":"Polygon","coordinates":[[[114.13439999999999,22.289199999999997],[114.13599999999998,22.289199999999997],[114.13599999999998,22.290799999999997],[114.13439999999999,22.290799999999997],[114.13439999999999,22.289199999999997]]]}},{"type":"Feature","properties":{"id":"lu-central-western-07-05","class":"built_up","vegetationFraction":0.05,"pavedFraction":0.893,"waterFraction":0.043,"simulated":true},"geometry":{"type":"Polygon","coordinates":[[[114.13599999999998,22.289199999999997],[114.13759999999998,22.289199999999997],[114.13759999999998,22.290799999999997],[114.13599999999998,22.290799999999997],[114.13599999999998,22.289199999999997]]]}},{"type":"Feature","properties":{"id":"lu-central-western-07-06","class":"built_up","vegetationFraction":0.02,"pavedFraction":0.922,"waterFraction":0.054,"simulated":true},"geometry":{"type":"Polygon","coordinates":[[[114.13759999999998,22.289199999999997],[114.13919999999997,22.289199999999997],[114.13919999999997,22.290799999999997],[114.13759999999998,22.290799999999997],[114.13759999999998,22.289199999999997]]]}},{"type":"Feature","properties":{"id":"lu-central-western-07-07","class":"built_up","vegetationFraction":0.037,"pavedFraction":0.918,"waterFraction":0.054,"simulated":true},"geometry":{"type":"Polygon","coordinates":[[[114.13919999999997,22.289199999999997],[114.14079999999997,22.289199999999997],[114.14079999999997,22.290799999999997],[114.13919999999997,22.290799999999997],[114.13919999999997,22.289199999999997]]]}},{"type":"Feature","properties":{"id":"lu-central-western-07-08","class":"built_up","vegetationFraction":0.046,"pavedFraction":0.946,"waterFraction":0.022,"simulated":true},"geometry":{"type":"Polygon","coordinates":[[[114.14079999999997,22.289199999999997],[114.14239999999997,22.289199999999997],[114.14239999999997,22.290799999999997],[114.14079999999997,22.290799999999997],[114.14079999999997,22.289199999999997]]]}},{"type":"Feature","properties":{"id":"lu-central-western-07-09","class":"built_up","vegetationFraction":0.054,"pavedFraction":0.932,"waterFraction":0.051,"simulated":true},"geometry":{"type":"Polygon","coordinates":[[[114.14239999999997,22.289199999999997],[114.14399999999996,22.289199999999997],[114.14399999999996,22.290799999999997],[114.14239999999997,22.290799999999997],[114.14239999999997,22.289199999999997]]]}},{"type":"Feature","properties":{"id":"lu-central-western-07-10","class":"built_up","vegetationFraction":0.04,"pavedFraction":0.95,"waterFraction":0.053,"simulated":true},"geometry":{"type":"Polygon","coordinates":[[[114.14399999999996,22.289199999999997],[114.14559999999996,22.289199999999997],[114.14559999999996,22.290799999999997],[114.14399999999996,22.290799999999997],[114.14399999999996,22.289199999999997]]]}},{"type":"Feature","properties":{"id":"lu-central-western-07-11","class":"built_up","vegetationFraction":0.039,"pavedFraction":0.882,"waterFraction":0.051,"simulated":true},"geometry":{"type":"Polygon","coordinates":[[[114.14559999999996,22.289199999999997],[114.14719999999996,22.289199999999997],[114.14719999999996,22.290799999999997],[114.14559999999996,22.290799999999997],[114.14559999999996,22.289199999999997]]]}},{"type":"Feature","properties":{"id":"lu-central-western-07-12","class":"built_up","vegetationFraction":0.034,"pavedFraction":0.95,"waterFraction":0.056,"simulated":true},"geometry":{"type":"Polygon","coordinates":[[[114.14719999999996,22.289199999999997],[114.14879999999995,22.289199999999997],[114.14879999999995,22.290799999999997],[114.14719999999996,22.290799999999997],[114.14719999999996,22.289199999999997]]]}},{"type":"Feature","properties":{"id":"lu-central-western-08-00","class":"built_up","vegetationFraction":0.112,"pavedFraction":0.701,"waterFraction":0.02,"simulated":true},"geometry":{"type":"Polygon","coordinates":[[[114.128,22.290799999999997],[114.1296,22.290799999999997],[114.1296,22.292399999999997],[114.128,22.292399999999997],[114.128,22.290799999999997]]]}},{"type":"Feature","properties":{"id":"lu-central-western-08-01","class":"built_up","vegetationFraction":0.165,"pavedFraction":0.684,"waterFraction":0.014,"simulated":true},"geometry":{"type":"Polygon","coordinates":[[[114.1296,22.290799999999997],[114.13119999999999,22.290799999999997],[114.13119999999999,22.292399999999997],[114.1296,22.292399999999997],[114.1296,22.290799999999997]]]}},{"type":"Feature","properties":{"id":"lu-central-western-08-02","class":"built_up","vegetationFraction":0.064,"pavedFraction":0.759,"waterFraction":0.002,"simulated":true},"geometry":{"type":"Polygon","coordinates":[[[114.13119999999999,22.290799999999997],[114.13279999999999,22.290799999999997],[114.13279999999999,22.292399999999997],[114.13119999999999,22.292399999999997],[114.13119999999999,22.290799999999997]]]}},{"type":"Feature","properties":{"id":"lu-central-western-08-03","class":"built_up","vegetationFraction":0.094,"pavedFraction":0.585,"waterFraction":0.052,"simulated":true},"geometry":{"type":"Polygon","coordinates":[[[114.13279999999999,22.290799999999997],[114.13439999999999,22.290799999999997],[114.13439999999999,22.292399999999997],[114.13279999999999,22.292399999999997],[114.13279999999999,22.290799999999997]]]}},{"type":"Feature","properties":{"id":"lu-central-western-08-04","class":"built_up","vegetationFraction":0.179,"pavedFraction":0.818,"waterFraction":0.021,"simulated":true},"geometry":{"type":"Polygon","coordinates":[[[114.13439999999999,22.290799999999997],[114.13599999999998,22.290799999999997],[114.13599999999998,22.292399999999997],[114.13439999999999,22.292399999999997],[114.13439999999999,22.290799999999997]]]}},{"type":"Feature","properties":{"id":"lu-central-western-08-05","class":"built_up","vegetationFraction":0.178,"pavedFraction":0.565,"waterFraction":0.046,"simulated":true},"geometry":{"type":"Polygon","coordinates":[[[114.13599999999998,22.290799999999997],[114.13759999999998,22.290799999999997],[114.13759999999998,22.292399999999997],[114.13599999999998,22.292399999999997],[114.13599999999998,22.290799999999997]]]}},{"type":"Feature","properties":{"id":"lu-central-western-08-06","class":"built_up","vegetationFraction":0.091,"pavedFraction":0.743,"waterFraction":0.038,"simulated":true},"geometry":{"type":"Polygon","coordinates":[[[114.13759999999998,22.290799999999997],[114.13919999999997,22.290799999999997],[114.13919999999997,22.292399999999997],[114.13759999999998,22.292399999999997],[114.13759999999998,22.290799999999997]]]}},{"type":"Feature","properties":{"id":"lu-central-western-08-07","class":"built_up","vegetationFraction":0.126,"pavedFraction":0.796,"waterFraction":0.045,"simulated":true},"geometry":{"type":"Polygon","coordinates":[[[114.13919999999997,22.290799999999997],[114.14079999999997,22.290799999999997],[114.14079999999997,22.292399999999997],[114.13919999999997,22.292399999999997],[114.13919999999997,22.290799999999997]]]}},{"type":"Feature","properties":{"id":"lu-central-western-08-08","class":"built_up","vegetationFraction":0.06,"pavedFraction":0.739,"waterFraction":0.011,"simulated":true},"geometry":{"type":"Polygon","coordinates":[[[114.14079999999997,22.290799999999997],[114.14239999999997,22.290799999999997],[114.14239999999997,22.292399999999997],[114.14079999999997,22.292399999999997],[114.14079999999997,22.290799999999997]]]}},{"type":"Feature","properties":{"id":"lu-central-western-08-09","class":"built_up","vegetationFraction":0.168,"pavedFraction":0.806,"waterFraction":0.004,"simulated":true},"geometry":{"type":"Polygon","coordinates":[[[114.14239999999997,22.290799999999997],[114.14399999999996,22.290799999999997],[114.14399999999996,22.292399999999997],[114.14239999999997,22.292399999999997],[114.14239999999997,22.290799999999997]]]}},{"type":"Feature","properties":{"id":"lu-central-western-08-10","class":"built_up","vegetationFraction":0.081,"pavedFraction":0.662,"waterFraction":0.039,"simulated":true},"geometry":{"type":"Polygon","coordinates":[[[114.14399999999996,22.290799999999997],[114.14559999999996,22.290799999999997],[114.14559999999996,22.292399999999997],[114.14399999999996,22.292399999999997],[114.14399999999996,22.290799999999997]]]}},{"type":"Feature","properties":{"id":"lu-central-western-08-11","class":"built_up","vegetationFraction":0.088,"pavedFraction":0.823,"waterFraction":0.044,"simulated":true},"geometry":{"type":"Polygon","coordinates":[[[114.14559999999996,22.290799999999997],[114.14719999999996,22.290799999999997],[114.14719999999996,22.292399999999997],[114.14559999999996,22.292399999999997],[114.14559999999996,22.290799999999997]]]}},{"type":"Feature","properties":{"id":"lu-central-western-08-12","class":"built_up","vegetationFraction":0.104,"pavedFraction":0.55,"waterFraction":0.022,"simulated":true},"geometry":{"type":"Polygon","coordinates":[[[114.14719999999996,22.290799999999997],[114.14879999999995,22.290799999999997],[114.14879999999995,22.292399999999997],[114.14719999999996,22.292399999999997],[114.14719999999996,22.290799999999997]]]}}]}