{"type":"FeatureCollection","features":[{"type":"Feature","properties":{"id":"lu-kowloon-yau-tsim-00-00","class":"built_up","vegetationFraction":0.065,"pavedFraction":0.684,"waterFraction":0.048,"simulated":true},"geometry":{"type":"Polygon","coordinates":[[[114.164,22.296],[114.1656,22.296],[114.1656,22.2976],[114.164,22.2976],[114.164,22.296]]]}},{"type":"Feature","properties":{"id":"lu-kowloon-yau-tsim-00-01","class":"built_up","vegetationFraction":0.087,"pavedFraction":0.597,"waterFraction":0.045,"simulated":true},"geometry":{"type":"Polygon","coordinates":[[[114.1656,22.296],[114.1672,22.296],[114.1672,22.2976],[114.1656,22.2976],[114.1656,22.296]]]}},{"type":"Feature","properties":{"id":"lu-kowloon-yau-tsim-00-02","class":"built_up","vegetationFraction":0.082,"pavedFraction":0.659,"waterFraction":0.047,"simulated":true},"geometry":{"type":"Polygon","coordinates":[[[114.1672,22.296],[114.16879999999999,22.296],[114.16879999999999,22.2976],[114.1672,22.2976],[114.1672,22.296]]]}},{"type":"Feature","properties":{"id":"lu-kowloon-yau-tsim-00-03","class":"built_up","vegetationFraction":0.167,"pavedFraction":0.715,"waterFraction":0.024,"simulated":true},"geometry":{"type":"Polygon","coordinates":[[[114.16879999999999,22.296],[114.17039999999999,22.296],[114.17039999999999,22.2976],[114.16879999999999,22.2976],[114.16879999999999,22.296]]]}},{"type":"Feature","properties":{"id":"lu-kowloon-yau-tsim-00-04","class":"built_up","vegetationFraction":0.132,"pavedFraction":0.817,"waterFraction":0.016,"simulated":true},"geometry":{"type":"Polygon","coordinates":[[[114.17039999999999,22.296],[114.17199999999998,22.296],[114.17199999999998,22.2976],[114.17039999999999,22.2976],[114.17039999999999,22.296]]]}},{"type":"Feature","properties":{"id":"lu-kowloon-yau-tsim-00-05","class":"built_up","vegetationFraction":0.15,"pavedFraction":0.565,"waterFraction":0.043,"simulated":true},"geometry":{"type":"Polygon","coordinates":[[[114.17199999999998,22.296],[114.17359999999998,22.296],[114.17359999999998,22.2976],[114.17199999999998,22.2976],[114.17199999999998,22.296]]]}},{"type":"Feature","properties":{"id":"lu-kowloon-yau-tsim-00-06","class":"built_up","vegetationFraction":0.149,"pavedFraction":0.742,"waterFraction":0.005,"simulated":true},"geometry":{"type":"Polygon","coordinates":[[[114.17359999999998,22.296],[114.17519999999998,22.296],[114.17519999999998,22.2976],[114.17359999999998,22.2976],[114.17359999999998,22.296]]]}},{"type":"Feature","properties":{"id":"lu-kowloon-yau-tsim-00-07","class":"built_up","vegetationFraction":0.164,"pavedFraction":0.592,"waterFraction":0.004,"simulated":true},"geometry":{"type":"Polygon","coordinates":[[[114.17519999999998,22.296],[114.17679999999997,22.296],[114.17679999999997,22.2976],[114.17519999999998,22.2976],[114.17519999999998,22.296]]]}},{"type":"Feature","properties":{"id":"lu-kowloon-yau-tsim-00-08","class":"built_up","vegetationFraction":0.071,"pavedFraction":0.579,"waterFraction":0.0,"simulated":true},"geometry":{"type":"Polygon","coordinates":[[[114.17679999999997,22.296],[114.17839999999997,22.296],[114.17839999999997,22.2976],[114.17679999999997,22.2976],[114.17679999999997,22.296]]]}},{"type":"Feature","properties":{"id":"lu-kowloon-yau-tsim-00-09","class":"built_up","vegetationFraction":0.178,"pavedFraction":0.81,"waterFraction":0.031,"simulated":true},"geometry":{"type":"Polygon","coordinates":[[[114.17839999999997,22.296],[114.17999999999996,22.296],[114.17999999999996,22.2976],[114.17839999999997,22.2976],[114.17839999999997,22.296]]]}},{"type":"Feature","properties":{"id":"lu-kowloon-yau-tsim-00-10","class":"built_up","vegetationFraction":0.127,"pavedFraction":0.589,"waterFraction":0.003,"simulated":true},"geometry":{"type":"Polygon","coordinates":[[[114.17999999999996,22.296],[114.18159999999996,22.296],[114.18159999999996,22.2976],[114.17999999999996,22.2976],[114.17999999999996,22.296]]]}},{"type":"Feature","properties":{"id":"lu-kowloon-yau-tsim-01-00","class":"built_up","vegetationFraction":0.092,"pavedFraction":0.59,"waterFraction":0.028,"simulated":true},"geometry":{"type":"Polygon","coordinates":[[[114.164,22.2976],[114.1656,22.2976],[114.1656,22.2992],[114.164,22.2992],[114.164,22.2976]]]}},{"type":"Feature","properties":{"id":"lu-kowloon-yau-tsim-01-01","class":"built_up","vegetationFraction":0.1,"pavedFraction":0.803,"waterFraction":0.041,"simulated":true},"geometry":{"type":"Polygon","coordinates":[[[114.1656,22.2976],[114.1672,22.2976],[114.1672,22.2992],[114.1656,22.2992],[114.1656,22.2976]]]}},{"type":"Feature","properties":{"id":"lu-kowloon-yau-tsim-01-02","class":"built_up","vegetationFraction":0.121,"pavedFraction":0.768,"waterFraction":0.025,"simulated":true},"geometry":{"type":"Polygon","coordinates":[[[114.1672,22.2976],[114.16879999999999,22.2976],[114.16879999999999,22.2992],[114.1672,22.2992],[114.1672,22.2976]]]}},{"type":"Feature","properties":{"id":"lu-kowloon-yau-tsim-01-03","class":"green_space","vegetationFraction":0.78,"pavedFraction":0.1,"waterFraction":0.058,"simulated":true},"geometry":{"type":"Polygon","coordinates":[[[114.16879999999999,22.2976],[114.17039999999999,22.2976],[114.17039999999999,22.2992],[114.16879999999999,22.2992],[114.16879999999999,22.2976]]]}},{"type":"Feature","properties":{"id":"lu-kowloon-yau-tsim-01-04","class":"green_space","vegetationFraction":0.78,"pavedFraction":0.1,"waterFraction":0.03,"simulated":true},"geometry":{"type":"Polygon","coordinates":[[[114.17039999999999,22.2976],[114.17199999999998,22.2976],[114.17199999999998,22.2992],[114.17039999999999,22.2992],[114.17039999999999,22.2976]]]}},{"type":"Feature","properties":{"id":"lu-kowloon-yau-tsim-01-05","class":"built_up","vegetationFraction":0.134,"pavedFraction":0.776,"waterFraction":0.056,"simulated":true},"geometry":{"type":"Polygon","coordinates":[[[114.17199999999998,22.2976],[114.17359999999998,22.2976],[114.17359999999998,22.2992],[114.17199999999998,22.2992],[114.17199999999998,22.2976]]]}},{"type":"Feature","properties":{"id":"lu-kowloon-yau-tsim-01-06","class":"built_up","vegetationFraction":0.124,"pavedFraction":0.728,"waterFraction":0.021,"simulated":true},"geometry":{"type":"Polygon","coordinates":[[[114.17359999999998,22.2976],[114.17519999999998,22.2976],[114.17519999999998,22.2992],[114.17359999999998,22.2992],[114.17359999999998,22.2976]]]}},{"type":"Feature","properties":{"id":"lu-kowloon-yau-tsim-01-07","class":"built_up","vegetationFraction":0.068,"pavedFraction":0.739,"waterFraction":0.009,"simulated":true},"geometry":{"type":"Polygon","coordinates":[[[114.17519999999998,22.2976],[114.17679999999997,22.2976],[114.17679999999997,22.2992],[114.17519999999998,22.2992],[114.17519999999998,22.2976]]]}},{"type":"Feature","properties":{"id":"lu-kowloon-yau-tsim-01-08","class":"built_up","vegetationFraction":0.107,"pavedFraction":0.715,"waterFraction":0.055,"simulated":true},"geometry":{"type":"Polygon","coordinates":[[[114.17679999999997,22.2976],[114.17839999999997,22.2976],[114.17839999999997,22.2992],[114.17679999999997,22.2992],[114.17679999999997,22.2976]]]}},{"type":"Feature","properties":{"id":"lu-kowloon-yau-tsim-01-09","class":"built_up","vegetationFraction":0.106,"pavedFraction":0.581,"waterFraction":0.02,"simulated":true},"geometry":{"type":"Polygon","coordinates":[[[114.17839999999997,22.2976],[114.17999999999996,22.2976],[114.17999999999996,22.2992],[114.17839999999997,22.2992],[114.17839999999997,22.2976]]]}},{"type":"Feature","properties":{"id":"lu-kowloon-yau-tsim-01-10","class":"built_up","vegetationFraction":0.18,"pavedFraction":0.709,"waterFraction":0.001,"simulated":true},"geometry":{"type":"Polygon","coordinates":[[[114.17999999999996,22.2976],[114.18159999999996,22.2976],[114.18159999999996,22.2992],[114.17999999999996,22.2992],[114.17999999999996,22.2976]]]}},{"type":"Feature","properties":{"id":"lu-kowloon-yau-tsim-02-00","class":"built_up","vegetationFraction":0.092,"pavedFraction":0.582,"waterFraction":0.04,"simulated":true},"geometry":{"type":"Polygon","coordinates":[[[114.164,22.2992],[114.1656,22.2992],[114.1656,22.3008],[114.164,22.3008],[114.164,22.2992]]]}},{"type":"Feature","properties":{"id":"lu-kowloon-yau-tsim-02-01","class":"built_up","vegetationFraction":0.092,"pavedFraction":0.57,"waterFraction":0.051,"simulated":true},"geometry":{"type":"Polygon","coordinates":[[[114.1656,22.2992],[114.1672,22.2992],[114.1672,22.3008],[114.1656,22.3008],[114.1656,22.2992]]]}},{"type":"Feature","properties":{"id":"lu-kowloon-yau-tsim-02-02","class":"built_up","vegetationFraction":0.168,"pavedFraction":0.558,"waterFraction":0.013,"simulated":true},"geometry":{"type":"Polygon","coordinates":[[[114.1672,22.2992],[114.16879999999999,22.2992],[114.16879999999999,22.3008],[114.1672,22.3008],[114.1672,22.2992]]]}},{"type":"Feature","properties":{"id":"lu-kowloon-yau-tsim-02-03","class":"green_space","vegetationFraction":0.78,"pavedFraction":0.1,"waterFraction":0.028,"simulated":true},"geometry":{"type":"Polygon","coordinates":[[[114.16879999999999,22.2992],[114.17039999999999,22.2992],[114.17039999999999,22.3008],[114.16879999999999,22.3008],[114.16879999999999,22.2992]]]}},{"type":"Feature","properties":{"id":"lu-kowloon-yau-tsim-02-04","class":"green_space","vegetationFraction":0.78,"pavedFraction":0.1,"waterFraction":0.032,"simulated":true},"geometry":{"type":"Polygon","coordinates":[[[114.17039999999999,22.2992],[114.17199999999998,22.2992],[114.17199999999998,22.3008],[114.17039999999999,22.3008],[114.17039999999999,22.2992]]]}},{"type":"Feature","properties":{"id":"lu-kowloon-yau-tsim-02-05","class":"built_up","vegetationFraction":0.068,"pavedFraction":0.655,"waterFraction":0.028,"simulated":true},"geometry":{"type":"Polygon","coordinates":[[[114.17199999999998,22.2992],[114.17359999999998,22.2992],[114.17359999999998,22.3008],[114.17199999999998,22.3008],[114.17199999999998,22.2992]]]}},{"type":"Feature","properties":{"id":"lu-kowloon-yau-tsim-02-06","class":"built_up","vegetationFraction":0.105,"pavedFraction":0.815,"waterFraction":0.058,"simulated":true},"geometry":{"type":"Polygon","coordinates":[[[114.17359999999998,22.2992],[114.17519999999998,22.2992],[114.17519999999998,22.3008],[114.17359999999998,22.3008],[114.17359999999998,22.2992]]]}},{"type":"Feature","properties":{"id":"lu-kowloon-yau-tsim-02-07","class":"built_up","vegetationFraction":0.156,"pavedFraction":0.737,"waterFraction":0.043,"simulated":true},"geometry":{"type":"Polygon","coordinates":[[[114.17519999999998,22.2992],[114.17679999999997,22.2992],[114.17679999999997,22.3008],[114.17519999999998,22.3008],[114.17519999999998,22.2992]]]}},{"type":"Feature","properties":{"id":"lu-kowloon-yau-tsim-02-08","class":"built_up","vegetationFraction":0.175,"pavedFraction":0.605,"waterFraction":0.003,"simulated":true},"geometry":{"type":"Polygon","coordinates":[[[114.17679999999997,22.2992],[114.17839999999997,22.2992],[114.17839999999997,22.3008],[114.17679999999997,22.3008],[114.17679999999997,22.2992]]]}},{"type":"Feature","properties":{"id":"lu-kowloon-yau-tsim-02-09","class":"built_up","vegetationFraction":0.1,"pavedFraction":0.815,"waterFraction":0.0,"simulated":true},"geometry":{"type":"Polygon","coordinates":[[[114.17839999999997,22.2992],[114.17999999999996,22.2992],[114.17999999999996,22.3008],[114.17839999999997,22.3008],[114.17839999999997,22.2992]]]}},{"type":"Feature","properties":{"id":"lu-kowloon-yau-tsim-02-10","class":"built_up","vegetationFraction":0.062,"pavedFraction":0.714,"waterFraction":0.021,"simulated":true},"geometry":{"type":"Polygon","coordinates":[[[114.17999999999996,22.2992],[114.18159999999996,22.2992],[114.18159999999996,22.3008],[114.17999999999996,22.3008],[114.17999999999996,22.2992]]]}},{"type":"Feature","properties":{"id":"lu-kowloon-yau-tsim-03-00","class":"built_up","vegetationFraction":0.178,"pavedFraction":0.554,"waterFraction":0.04,"simulated":true},"geometry":{"type":"Polygon","coordinates":[[[114.164,22.3008],[114.1656,22.3008],[114.1656,22.3024],[114.164,22.3024],[114.164,22.3008]]]}},{"type":"Feature","properties":{"id":"lu-kowloon-yau-tsim-03-01","class":"built_up","vegetationFraction":0.133,"pavedFraction":0.584,"waterFraction":0.023,"simulated":true},"geometry":{"type":"Polygon","coordinates":[[[114.1656,22.3008],[114.1672,22.3008],[114.1672,22.3024],[114.1656,22.3024],[114.1656,22.3008]]]}},{"type":"Feature","properties":{"id":"lu-kowloon-yau-tsim-03-02","class":"built_up","vegetationFraction":0.066,"pavedFraction":0.704,"waterFraction":0.055,"simulated":true},"geometry":{"type":"Polygon","coordinates":[[[114.1672,22.3008],[114.16879999999999,22.3008],[114.16879999999999,22.3024],[114.1672,22.3024],[114.1672,22.3008]]]}},{"type":"Feature","properties":{"id":"lu-kowloon-yau-tsim-03-03","class":"built_up","vegetationFraction":0.134,"pavedFraction":0.817,"waterFraction":0.036,"simulated":true},"geometry":{"type":"Polygon","coordinates":[[[114.16879999999999,22.3008],[114.17039999999999,22.3008],[114.17039999999999,22.3024],[114.16879999999999,22.3024],[114.16879999999999,22.3008]]]}},{"type":"Feature","properties":{"id":"lu-kowloon-yau-tsim-03-04","class":"built_up","vegetationFraction":0.065,"pavedFraction":0.581,"waterFraction":0.058,"simulated":true},"geometry":{"type":"Polygon","coordinates":[[[114.17039999999999,22.3008],[114.17199999999998,22.3008],[114.17199999999998,22.3024],[114.17039999999999,22.3024],[114.17039999999999,22.3008]]]}},{"type":"Feature","properties":{"id":"lu-kowloon-yau-tsim-03-05","class":"built_up","vegetationFraction":0.129,"pavedFraction":0.614,"waterFraction":0.055,"simulated":true},"geometry":{"type":"Polygon","coordinates":[[[114.17199999999998,22.3008],[114.17359999999998,22.3008],[114.17359999999998,22.3024],[114.17199999999998,22.3024],[114.17199999999998,22.3008]]]}},{"type":"Feature","properties":{"id":"lu-kowloon-yau-tsim-03-06","class":"built_up","vegetationFraction":0.085,"pavedFraction":0.844,"waterFraction":0.046,"simulated":true},"geometry":{"type":"Polygon","coordinates":[[[114.17359999999998,22.3008],[114.17519999999998,22.3008],[114.17519999999998,22.3024],[114.17359999999998,22.3024],[114.17359999999998,22.3008]]]}},{"type":"Feature","properties":{"id":"lu-kowloon-yau-tsim-03-07","class":"built_up","vegetationFraction":0.14,"pavedFraction":0.631,"waterFraction":0.055,"simulated":true},"geometry":{"type":"Polygon","coordinates":[[[114.17519999999998,22.3008],[114.17679999999997,22.3008],[114.17679999999997,22.3024],[114.17519999999998,22.3024],[114.17519999999998,22.3008]]]}},{"type":"Feature","properties":{"id":"lu-kowloon-yau-tsim-03-08","class":"built_up","vegetationFraction":0.074,"pavedFraction":0.821,"waterFraction":0.019,"simulated":true},"geometry":{"type":"Polygon","coordinates":[[[114.17679999999997,22.3008],[114.17839999999997,22.3008],[114.17839999999997,22.3024],[114.17679999999997,22.3024],[114.17679999999997,22.3008]]]}},{"type":"Feature","properties":{"id":"lu-kowloon-yau-tsim-03-09","class":"built_up","vegetationFraction":0.076,"pavedFraction":0.757,"waterFraction":0.036,"simulated":true},"geometry":{"type":"Polygon","coordinates":[[[114.17839999999997,22.3008],[114.17999999999996,22.3008],[114.17999999999996,22.3024],[114.17839999999997,22.3024],[114.17839999999997,22.3008]]]}},{"type":"Feature","properties":{"id":"lu-kowloon-yau-tsim-03-10","class":"built_up","vegetationFraction":0.136,"pavedFraction":0.677,"waterFraction":0.015,"simulated":true},"geometry":{"type":"Polygon","coordinates":[[[114.17999999999996,22.3008],[114.18159999999996,22.3008],[114.18159999999996,22.3024],[114.17999999999996,22.3024],[114.17999999999996,22.3008]]]}},{"type":"Feature","properties":{"id":"lu-kowloon-yau-tsim-04-00","class":"built_up","vegetationFraction":0.113,"pavedFraction":0.585,"waterFraction":0.046,"simulated":true},"geometry":{"type":"Polygon","coordinates":[[[114.164,22.3024],[114.1656,22.3024],[114.1656,22.304],[114.164,22.304],[114.164,22.3024]]]}},{"type":"Feature","properties":{"id":"lu-kowloon-yau-tsim-04-01","class":"built_up","vegetationFraction":0.159,"pavedFraction":0.597,"waterFraction":0.012,"simulated":true},"geometry":{"type":"Polygon","coordinates":[[[114.1656,22.3024],[114.1672,22.3024],[114.1672,22.304],[114.1656,22.304],[114.1656,22.3024]]]}},{"type":"Feature","properties":{"id":"lu-kowloon-yau-tsim-04-02","class":"built_up","vegetationFraction":0.124,"pavedFraction":0.65,"waterFraction":0.018,"simulated":true},"geometry":{"type":"Polygon","coordinates":[[[114.1672,22.3024],[114.16879999999999,22.3024],[114.16879999999999,22.304],[114.1672,22.304],[114.1672,22.3024]]]}},{"type":"Feature","properties":{"id":"lu-kowloon-yau-tsim-04-03","class":"built_up","vegetationFraction":0.168,"pavedFraction":0.766,"waterFraction":0.041,"simulated":true},"geometry":{"type":"Polygon","coordinates":[[[114.16879999999999,22.3024],[114.17039999999999,22.3024],[114.17039999999999,22.304],[114.16879999999999,22.304],[114.16879999999999,22.3024]]]}},{"type":"Feature","properties":{"id":"lu-kowloon-yau-tsim-04-04","class":"built_up","vegetationFraction":0.093,"pavedFraction":0.832,"waterFraction":0.034,"simulated":true},"geometry":{"type":"Polygon","coordinates":[[[114.17039999999999,22.3024],[114.17199999999998,22.3024],[114.17199999999998,22.304],[114.17039999999999,22.304],[114.17039999999999,22.3024]]]}},{"type":"Feature","properties":{"id":"lu-kowloon-yau-tsim-04-05","class":"built_up","vegetationFraction":0.097,"pavedFraction":0.781,"waterFraction":0.049,"simulated":true},"geometry":{"type":"Polygon","coordinates":[[[114.17199999999998,22.3024],[114.17359999999998,22.3024],[114.17359999999998,22.304],[114.17199999999998,22.304],[114.17199999999998,22.3024]]]}},{"type":"Feature","properties":{"id":"lu-kowloon-yau-tsim-04-06","class":"built_up","vegetationFraction":0.072,"pavedFraction":0.623,"waterFraction":0.033,"simulated":true},"geometry":{"type":"Polygon","coordinates":[[[114.17359999999998,22.3024],[114.17519999999998,22.3024],[114.17519999999998,22.304],[114.17359999999998,22.304],[114.17359999999998,22.3024]]]}},{"type":"Feature","properties":{"id":"lu-kowloon-yau-tsim-04-07","class":"built_up","vegetationFraction":0.153,"pavedFraction":0.842,"waterFraction":0.03,"simulated":true},"geometry":{"type":"Polygon","coordinates":[[[114.17519999999998,22.3024],[114.17679999999997,22.3024],[114.17679999999997,22.304],[114.17519999999998,22.304],[114.17519999999998,22.3024]]]}},{"type":"Feature","properties":{"id":"lu-kowloon-yau-tsim-04-08","class":"built_up","vegetationFraction":0.128,"pavedFraction":0.568,"waterFraction":0.016,"simulated":true},"geometry":{"type":"Polygon","coordinates":[[[114.17679999999997,22.3024],[114.17839999999997,22.3024],[114.17839999999997,22.304],[114.17679999999997,22.304],[114.17679999999997,22.3024]]]}},{"type":"Feature","properties":{"id":"lu-kowloon-yau-tsim-04-09","class":"built_up","vegetationFraction":0.065,"pavedFraction":0.651,"waterFraction":0.049,"simulated":true},"geometry":{"type":"Polygon","coordinates":[[[114.17839999999997,22.3024],[114.17999999999996,22.3024],[114.17999999999996,22.304],[114.17839999999997,22.304],[114.17839999999997,22.3024]]]}},{"type":"Feature","properties":{"id":"lu-kowloon-yau-tsim-04-10","class":"built_up","vegetationFraction":0.062,"pavedFraction":0.646,"waterFraction":0.042,"simulated":true},"geometry":{"type":"Polygon","coordinates":[[[114.17999999999996,22.3024],[114.18159999999996,22.3024],[114.18159999999996,22.304],[114.17999999999996,22.304],[114.17999999999996,22.3024]]]}},{"type":"Feature","properties":{"id":"lu-kowloon-yau-tsim-05-00","class":"built_up","vegetationFraction":0.074,"pavedFraction":0.724,"waterFraction":0.009,"simulated":true},"geometry":{"type":"Polygon","coordinates":[[[114.164,22.304],[114.1656,22.304],[114.1656,22.3056],[114.164,22.3056],[114.164,22.304]]]}},{"type":"Feature","properties":{"id":"lu-kowloon-yau-tsim-05-01","class":"built_up","vegetationFraction":0.116,"pavedFraction":0.836,"waterFraction":0.06,"simulated":true},"geometry":{"type":"Polygon","coordinates":[[[114.1656,22.304],[114.1672,22.304],[114.1672,22.3056],[114.1656,22.3056],[114.1656,22.304]]]}},{"type":"Feature","properties":{"id":"lu-kowloon-yau-tsim-05-02","class":"built_up","vegetationFraction":0.09,"pavedFraction":0.831,"waterFraction":0.029,"simulated":true},"geometry":{"type":"Polygon","coordinates":[[[114.1672,22.304],[114.16879999999999,22.304],[114.16879999999999,22.3056],[114.1672,22.3056],[114.1672,22.304]]]}},{"type":"Feature","properties":{"id":"lu-kowloon-yau-tsim-05-03","class":"built_up","vegetationFraction":0.106,"pavedFraction":0.835,"waterFraction":0.015,"simulated":true},"geometry":{"type":"Polygon","coordinates":[[[114.16879999999999,22.304],[114.17039999999999,22.304],[114.17039999999999,22.3056],[114.16879999999999,22.3056],[114.16879999999999,22.304]]]}},{"type":"Feature","properties":{"id":"lu-kowloon-yau-tsim-05-04","class":"built_up","vegetationFraction":0.153,"pavedFraction":0.568,"waterFraction":0.022,"simulated":true},"geometry":{"type":"Polygon","coordinates":[[[114.17039999999999,22.304],[114.17199999999998,22.304],[114.17199999999998,22.3056],[114.17039999999999,22.3056],[114.17039999999999,22.304]]]}},{"type":"Feature","properties":{"id":"lu-kowloon-yau-tsim-05-05","class":"built_up","vegetationFraction":0.096,"pavedFraction":0.723,"waterFraction":0.033,"simulated":true},"geometry":{"type":"Polygon","coordinates":[[[114.17199999999998,22.304],[114.17359999999998,22.304],[114.17359999999998,22.3056],[114.17199999999998,22.3056],[114.17199999999998,22.304]]]}},{"type":"Feature","properties":{"id":"lu-kowloon-yau-tsim-05-06","class":"built_up","vegetationFraction":0.111,"pavedFraction":0.741,"waterFraction":0.053,"simulated":true},"geometry":{"type":"Polygon","coordinates":[[[114.17359999999998,22.304],[114.17519999999998,22.304],[114.17519999999998,22.3056],[114.17359999999998,22.3056],[114.17359999999998,22.304]]]}},{"type":"Feature","properties":{"id":"lu-kowloon-yau-tsim-05-07","class":"built_up","vegetationFraction":0.065,"pavedFraction":0.686,"waterFraction":0.02,"simulated":true},"geometry":{"type":"Polygon","coordinates":[[[114.17519999999998,22.304],[114.17679999999997,22.304],[114.17679999999997,22.3056],[114.17519999999998,22.3056],[114.17519999999998,22.304]]]}},{"type":"Feature","properties":{"id":"lu-kowloon-yau-tsim-05-08","class":"built_up","vegetationFraction":0.097,"pavedFraction":0.808,"waterFraction":0.008,"simulated":true},"geometry":{"type":"Polygon","coordinates":[[[114.17679999999997,22.304],[114.17839999999997,22.304],[114.17839999999997,22.3056],[114.17679999999997,22.3056],[114.17679999999997,22.304]]]}},{"type":"Feature","properties":{"id":"lu-kowloon-yau-tsim-05-09","class":"built_up","vegetationFraction":0.11,"pavedFraction":0.709,"waterFraction":0.009,"simulated":true},"geometry":{"type":"Polygon","coordinates":[[[114.17839999999997,22.304],[114.17999999999996,22.304],[114.17999999999996,22.3056],[114.17839999999997,22.3056],[114.17839999999997,22.304]]]}},{"type":"Feature","properties":{"id":"lu-kowloon-yau-tsim-05-10","class":"built_up","vegetationFraction":0.069,"pavedFraction":0.723,"waterFraction":0.033,"simulated":true},"geometry":{"type":"Polygon","coordinates":[[[114.17999999999996,22.304],[114.18159999999996,22.304],[114.18159999999996,22.3056],[114.17999999999996,22.3056],[114.17999999999996,22.304]]]}},{"type":"Feature","properties":{"id":"lu-kowloon-yau-tsim-06-00","class":"built_up","vegetationFraction":0.035,"pavedFraction":0.853,"waterFraction":0.055,"simulated":true},"geometry":{"type":"Polygon","coordinates":[[[114.164,22.3056],[114.1656,22.3056],[114.1656,22.307199999999998],[114.164,22.307199999999998],[114.164,22.3056]]]}},{"type":"Feature","properties":{"id":"lu-kowloon-yau-tsim-06-01","class":"built_up","vegetationFraction":0.037,"pavedFraction":0.921,"waterFraction":0.041,"simulated":true},"geometry":{"type":"Polygon","coordinates":[[[114.1656,22.3056],[114.1672,22.3056],[114.1672,22.307199999999998],[114.1656,22.307199999999998],[114.1656,22.3056]]]}},{"type":"Feature","properties":{"id":"lu-kowloon-yau-tsim-06-02","class":"built_up","vegetationFraction":0.036,"pavedFraction":0.944,"waterFraction":0.023,"simulated":true},"geometry":{"type":"Polygon","coordinates":[[[114.1672,22.3056],[114.16879999999999,22.3056],[114.16879999999999,22.307199999999998],[114.1672,22.307199999999998],[114.1672,22.3056]]]}},{"type":"Feature","properties":{"id":"lu-kowloon-yau-tsim-06-03","class":"built_up","vegetationFraction":0.02,"pavedFraction":0.95,"waterFraction":0.004,"simulated":true},"geometry":{"type":"Polygon","coordinates":[[[114.16879999999999,22.3056],[114.17039999999999,22.3056],[114.17039999999999,22.307199999999998],[114.16879999999999,22.307199999999998],[114.16879999999999,22.3056]]]}},{"type":"Feature","properties":{"id":"lu-kowloon-yau-tsim-06-04","class":"built_up","vegetationFraction":0.041,"pavedFraction":0.95,"waterFraction":0.037,"simulated":true},"geometry":{"type":"Polygon","coordinates":[[[114.17039999999999,22.3056],[114.17199999999998,22.3056],[114.17199999999998,22.307199999999998],[114.17039999999999,22.307199999999998],[114.17039999999999,22.3056]]]}},{"type":"Feature","properties":{"id":"lu-kowloon-yau-tsim-06-05","class":"built_up","vegetationFraction":0.032,"pavedFraction":0.95,"waterFraction":0.021,"simulated":true},"geometry":{"type":"Polygon","coordinates":[[[114.17199999999998,22.3056],[114.17359999999998,22.3056],[114.17359999999998,22.307199999999998],[114.17199999999998,22.307199999999998],[114.17199999999998,22.3056]]]}},{"type":"Feature","properties":{"id":"lu-kowloon-yau-tsim-06-06","class":"green_space","vegetationFraction":0.78,"pavedFraction":0.1,"waterFraction":0.043,"simulated":true},"geometry":{"type":"Polygon","coordinates":[[[114.17359999999998,22.3056],[114.17519999999998,22.3056],[114.17519999999998,22.307199999999998],[114.17359999999998,22.307199999999998],[114.17359999999998,22.3056]]]}},{"type":"Feature","properties":{"id":"lu-kowloon-yau-tsim-06-07","class":"green_space","vegetationFraction":0.78,"pavedFraction":0.1,"waterFraction":0.0,"simulated":true},"geometry":{"type":"Polygon","coordinates":[[[114.17519999999998,22.3056],[114.17679999999997,22.3056],[114.17679999999997,22.307199999999998],[114.17519999999998,22.307199999999998],[114.17519999999998,22.3056]]]}},{"type":"Feature","properties":{"id":"lu-kowloon-yau-tsim-06-08","class":"green_space","vegetationFraction":0.78,"pavedFraction":0.1,"waterFraction":0.013,"simulated":true},"geometry":{"type":"Polygon","coordinates":[[[114.17679999999997,22.3056],[114.17839999999997,22.3056],[114.17839999999997,22.307199999999998],[114.17679999999997,22.307199999999998],[114.17679999999997,22.3056]]]}},{"type":"Feature","properties":{"id":"lu-kowloon-yau-tsim-06-09","class":"built_up","vegetationFraction":0.029,"pavedFraction":0.95,"waterFraction":0.02,"simulated":true},"geometry":{"type":"Polygon","coordinates":[[[114.17839999999997,22.3056],[114.17999999999996,22.3056],[114.17999999999996,22.307199999999998],[114.17839999999997,22.307199999999998],[114.17839999999997,22.3056]]]}},{"type":"Feature","properties":{"id":"lu-kowloon-yau-tsim-06-10","class":"built_up","vegetationFraction":0.035,"pavedFraction":0.862,"waterFraction":0.026,"simulated":true},"geometry":{"type":"Polygon","coordinates":[[[114.17999999999996,22.3056],[114.18159999999996,22.3056],[114.18159999999996,22.307199999999998],[114.17999999999996,22.307199999999998],[114.17999999999996,22.3056]]]}},{"type":"Feature","properties":{"id":"lu-kowloon-yau-tsim-07-00","class":"built_up","vegetationFraction":0.028,"pavedFraction":0.95,"waterFraction":0.028,"simulated":true},"geometry":{"type":"Polygon","coordinates":[[[114.164,22.307199999999998],[114.1656,22.307199999999998],[114.1656,22.308799999999998],[114.164,22.308799999999998],[114.164,22.307199999999998]]]}},{"type":"Feature","properties":{"id":"lu-kowloon-yau-tsim-07-01","class":"built_up","vegetationFraction":0.027,"pavedFraction":0.801,"waterFraction":0.038,"simulated":true},"geometry":{"type":"Polygon","coordinates":[[[114.1656,22.307199999999998],[114.1672,22.307199999999998],[114.1672,22.308799999999998],[114.1656,22.308799999999998],[114.1656,22.307199999999998]]]}},{"type":"Feature","properties":{"id":"lu-kowloon-yau-tsim-07-02","class":"built_up","vegetationFraction":0.049,"pavedFraction":0.849,"waterFraction":0.003,"simulated":true},"geometry":{"type":"Polygon","coordinates":[[[114.1672,22.307199999999998],[114.16879999999999,22.307199999999998],[114.16879999999999,22.308799999999998],[114.1672,22.308799999999998],[114.1672,22.307199999999998]]]}},{"type":"Feature","properties":{"id":"lu-kowloon-yau-tsim-07-03","class":"built_up","vegetationFraction":0.049,"pavedFraction":0.916,"waterFraction":0.029,"simulated":true},"geometry":{"type":"Polygon","coordinates":[[[114.16879999999999,22.307199999999998],[114.17039999999999,22.307199999999998],[114.17039999999999,22.308799999999998],[114.16879999999999,22.308799999999998],[114.16879999999999,22.307199999999998]]]}},{"type":"Feature","properties":{"id":"lu-kowloon-yau-tsim-07-04","class":"built_up","vegetationFraction":0.036,"pavedFraction":0.851,"waterFraction":0.008,"simulated":true},"geometry":{"type":"Polygon","coordinates":[[[114.17039999999999,22.307199999999998],[114.17199999999998,22.307199999999998],[114.17199999999998,22.308799999999998],[114.17039999999999,22.308799999999998],[114.17039999999999,22.307199999999998]]]}},{"type":"Feature","properties":{"id":"lu-kowloon-yau-tsim-07-05","class":"built_up","vegetationFraction":0.039,"pavedFraction":0.884,"waterFraction":0.003,"simulated":true},"geometry":{"type":"Polygon","coordinates":[[[114.17199999999998,22.307199999999998],[114.17359999999998,22.307199999999998],[114.17359999999998,22.308799999999998],[114.17199999999998,22.308799999999998],[114.17199999999998,22.307199999999998]]]}},{"type":"Feature","properties":{"id":"lu-kowloon-yau-tsim-07-06","class":"green_space","vegetationFraction":0.78,"pavedFraction":0.1,"waterFraction":0.023,"simulated":true},"geometry":{"type":"Polygon","coordinates":[[[114.17359999999998,22.307199999999998],[114.17519999999998,22.307199999999998],[114.17519999999998,22.308799999999998],[114.17359999999998,22.308799999999998],[114.17359999999998,22.307199999999998]]]}},{"type":"Feature","properties":{"id":"lu-kowloon-yau-tsim-07-07","class":"green_space","vegetationFraction":0.78,"pavedFraction":0.1,"waterFraction":0.011,"simulated":true},"geometry":{"type":"Polygon","coordinates":[[[114.17519999999998,22.307199999999998],[114.17679999999997,22.307199999999998],[114.17679999999997,22.308799999999998],[114.17519999999998,22.308799999999998],[114.17519999999998,22.307199999999998]]]}},{"type":"Feature","properties":{"id":"lu-kowloon-yau-tsim-07-08","class":"green_space","vegetationFraction":0.78,"pavedFraction":0.1,"waterFraction":0.034,"simulated":true},"geometry":{"type":"Polygon","coordinates":[[[114.17679999999997,22.307199999999998],[114.17839999999997,22.307199999999998],[114.17839999999997,22.308799999999998],[114.17679999999997,22.308799999999998],[114.17679999999997,22.307199999999998]]]}},{"type":"Feature","properties":{"id":"lu-kowloon-yau-tsim-07-09","class":"built_up","vegetationFraction":0.023,"pavedFraction":0.95,"waterFraction":0.01,"simulated":true},"geometry":{"type":"Polygon","coordinates":[[[114.17839999999997,22.307199999999998],[114.17999999999996,22.307199999999998],[114.17999999999996,22.308799999999998],[114.17839999999997,22.308799999999998],[114.17839999999997,22.307199999999998]]]}},{"type":"Feature","properties":{"id":"lu-kowloon-yau-tsim-07-10","class":"built_up","vegetationFraction":0.052,"pavedFraction":0.95,"waterFraction":0.022,"simulated":true},"geometry":{"type":"Polygon","coordinates":[[[114.17999999999996,22.307199999999998],[114.18159999999996,22.307199999999998],[114.18159999999996,22.308799999999998],[114.17999999999996,22.308799999999998],[114.17999999999996,22.307199999999998]]]}},{"type":"Feature","properties":{"id":"lu-kowloon-yau-tsim-08-00","class":"built_up","vegetationFraction":0.063,"pavedFraction":0.736,"waterFraction":0.023,"simulated":true},"geometry":{"type":"Polygon","coordinates":[[[114.164,22.308799999999998],[114.1656,22.308799999999998],[114.1656,22.310399999999998],[114.164,22.310399999999998],[114.164,22.308799999999998]]]}},{"type":"Feature","properties":{"id":"lu-kowloon-yau-tsim-08-01","class":"built_up","vegetationFraction":0.126,"pavedFraction":0.568,"waterFraction":0.024,"simulated":true},"geometry":{"type":"Polygon","coordinates":[[[114.1656,22.308799999999998],[114.1672,22.308799999999998],[114.1672,22.310399999999998],[114.1656,22.310399999999998],[114.1656,22.308799999999998]]]}},{"type":"Feature","properties":{"id":"lu-kowloon-yau-tsim-08-02","class":"built_up","vegetationFraction":0.154,"pavedFraction":0.785,"waterFraction":0.018,"simulated":true},"geometry":{"type":"Polygon","coordinates":[[[114.1672,22.308799999999998],[114.16879999999999,22.308799999999998],[114.16879999999999,22.310399999999998],[114.1672,22.310399999999998],[114.1672,22.308799999999998]]]}},{"type":"Feature","properties":{"id":"lu-kowloon-yau-tsim-08-03","class":"built_up","vegetationFraction":0.084,"pavedFraction":0.684,"waterFraction":0.056,"simulated":true},"geometry":{"type":"Polygon","coordinates":[[[114.16879999999999,22.308799999999998],[114.17039999999999,22.308799999999998],[114.17039999999999,22.310399999999998],[114.16879999999999,22.310399999999998],[114.16879999999999,22.308799999999998]]]}},{"type":"Feature","properties":{"id":"lu-kowloon-yau-tsim-08-04","class":"built_up","vegetationFraction":0.166,"pavedFraction":0.651,"waterFraction":0.041,"simulated":true},"geometry":{"type":"Polygon","coordinates":[[[114.17039999999999,22.308799999999998],[114.17199999999998,22.308799999999998],[114.17199999999998,22.310399999999998],[114.17039999999999,22.310399999999998],[114.17039999999999,22.308799999999998]]]}},{"type":"Feature","properties":{"id":"lu-kowloon-yau-tsim-08-05","class":"built_up","vegetationFraction":0.114,"pavedFraction":0.642,"waterFraction":0.038,"simulated":true},"geometry":{"type":"Polygon","coordinates":[[[114.17199999999998,22.308799999999998],[114.17359999999998,22.308799999999998],[114.17359999999998,22.310399999999998],[114.17199999999998,22.310399999999998],[114.17199999999998,22.308799999999998]]]}},{"type":"Feature","properties":{"id":"lu-kowloon-yau-tsim-08-06","class":"built_up","vegetationFraction":0.076,"pavedFraction":0.657,"waterFraction":0.027,"simulated":true},"geometry":{"type":"Polygon","coordinates":[[[114.17359999999998,22.308799999999998],[114.17519999999998,22.308799999999998],[114.17519999999998,22.310399999999998],[114.17359999999998,22.310399999999998],[114.17359999999998,22.308799999999998]]]}},{"type":"Feature","properties":{"id":"lu-kowloon-yau-tsim-08-07","class":"built_up","vegetationFraction":0.107,"pavedFraction":0.557,"waterFraction":0.018,"simulated":true},"geometry":{"type":"Polygon","coordinates":[[[114.17519999999998,22.308799999999998],[114.17679999999997,22.308799999999998],[114.17679999999997,22.310399999999998],[114.17519999999998,22.310399999999998],[114.17519999999998,22.308799999999998]]]}},{"type":"Feature","properties":{"id":"lu-kowloon-yau-tsim-08-08","class":"built_up","vegetationFraction":0.144,"pavedFraction":0.664,"waterFraction":0.027,"simulated":true},"geometry":{"type":"Polygon","coordinates":[[[114.17679999999997,22.308799999999998],[114.17839999999997,22.308799999999998],[114.17839999999997,22.310399999999998],[114.17679999999997,22.310399999999998],[114.17679999999997,22.308799999999998]]]}},{"type":"Feature","properties":{"id":"lu-kowloon-yau-tsim-08-09","class":"built_up","vegetationFraction":0.069,"pavedFraction":0.777,"waterFraction":0.029,"simulated":true},"geometry":{"type":"Polygon","coordinates":[[[114.17839999999997,22.308799999999998],[114.17999999999996,22.308799999999998],[114.17999999999996,22.310399999999998],[114.17839999999997,22.310399999999998],[114.17839999999997,22.308799999999998]]]}},{"type":"Feature","properties":{"id":"lu-kowloon-yau-tsim-08-10","class":"built_up","vegetationFraction":0.068,"pavedFraction":0.669,"waterFraction":0.014,"simulated":true},"geometry":{"type":"Polygon","coordinates":[[[114.17999999999996,22.308799999999998],[114.18159999999996,22.308799999999998],[114.18159999999996,22.310399999999998],[114.17999999999996,22.310399999999998],[114.17999999999996,22.308799999999998]]]}}]}