{"type":"FeatureCollection","features":[{"type":"Feature","properties":{"id":"lu-eastern-00-00","class":"built_up","vegetationFraction":0.09,"pavedFraction":0.801,"waterFraction":0.05,"simulated":true},"geometry":{"type":"Polygon","coordinates":[[[114.2,22.28],[114.2016,22.28],[114.2016,22.2816],[114.2,22.2816],[114.2,22.28]]]}},{"type":"Feature","properties":{"id":"lu-eastern-00-01","class":"built_up","vegetationFraction":0.154,"pavedFraction":0.621,"waterFraction":0.001,"simulated":true},"geometry":{"type":"Polygon","coordinates":[[[114.2016,22.28],[114.2032,22.28],[114.2032,22.2816],[114.2016,22.2816],[114.2016,22.28]]]}},{"type":"Feature","properties":{"id":"lu-eastern-00-02","class":"built_up","vegetationFraction":0.142,"pavedFraction":0.618,"waterFraction":0.012,"simulated":true},"geometry":{"type":"Polygon","coordinates":[[[114.2032,22.28],[114.20479999999999,22.28],[114.20479999999999,22.2816],[114.2032,22.2816],[114.2032,22.28]]]}},{"type":"Feature","properties":{"id":"lu-eastern-00-03","class":"built_up","vegetationFraction":0.18,"pavedFraction":0.614,"waterFraction":0.041,"simulated":true},"geometry":{"type":"Polygon","coordinates":[[[114.20479999999999,22.28],[114.20639999999999,22.28],[114.20639999999999,22.2816],[114.20479999999999,22.2816],[114.20479999999999,22.28]]]}},{"type":"Feature","properties":{"id":"lu-eastern-00-04","class":"built_up","vegetationFraction":0.154,"pavedFraction":0.765,"waterFraction":0.044,"simulated":true},"geometry":{"type":"Polygon","coordinates":[[[114.20639999999999,22.28],[114.20799999999998,22.28],[114.20799999999998,22.2816],[114.20639999999999,22.2816],[114.20639999999999,22.28]]]}},{"type":"Feature","properties":{"id":"lu-eastern-00-05","class":"built_up","vegetationFraction":0.118,"pavedFraction":0.832,"waterFraction":0.049,"simulated":true},"geometry":{"type":"Polygon","coordinates":[[[114.20799999999998,22.28],[114.20959999999998,22.28],[114.20959999999998,22.2816],[114.20799999999998,22.2816],[114.20799999999998,22.28]]]}},{"type":"Feature","properties":{"id":"lu-eastern-00-06","class":"built_up","vegetationFraction":0.082,"pavedFraction":0.618,"waterFraction":0.06,"simulated":true},"geometry":{"type":"Polygon","coordinates":[[[114.20959999999998,22.28],[114.21119999999998,22.28],[114.21119999999998,22.2816],[114.20959999999998,22.2816],[114.20959999999998,22.28]]]}},{"type":"Feature","properties":{"id":"lu-eastern-00-07","class":"built_up","vegetationFraction":0.153,"pavedFraction":0.817,"waterFraction":0.032,"simulated":true},"geometry":{"type":"Polygon","coordinates":[[[114.21119999999998,22.28],[114.21279999999997,22.28],[114.21279999999997,22.2816],[114.21119999999998,22.2816],[114.21119999999998,22.28]]]}},{"type":"Feature","properties":{"id":"lu-eastern-00-08","class":"built_up","vegetationFraction":0.121,"pavedFraction":0.712,"waterFraction":0.006,"simulated":true},"geometry":{"type":"Polygon","coordinates":[[[114.21279999999997,22.28],[114.21439999999997,22.28],[114.21439999999997,22.2816],[114.21279999999997,22.2816],[114.21279999999997,22.28]]]}},{"type":"Feature","properties":{"id":"lu-eastern-00-09","class":"built_up","vegetationFraction":0.078,"pavedFraction":0.796,"waterFraction":0.033,"simulated":true},"geometry":{"type":"Polygon","coordinates":[[[114.21439999999997,22.28],[114.21599999999997,22.28],[114.21599999999997,22.2816],[114.21439999999997,22.2816],[114.21439999999997,22.28]]]}},{"type":"Feature","properties":{"id":"lu-eastern-00-10","class":"built_up","vegetationFraction":0.161,"pavedFraction":0.724,"waterFraction":0.048,"simulated":true},"geometry":{"type":"Polygon","coordinates":[[[114.21599999999997,22.28],[114.21759999999996,22.28],[114.21759999999996,22.2816],[114.21599999999997,22.2816],[114.21599999999997,22.28]]]}},{"type":"Feature","properties":{"id":"lu-eastern-00-11","class":"built_up","vegetationFraction":0.087,"pavedFraction":0.655,"waterFraction":0.055,"simulated":true},"geometry":{"type":"Polygon","coordinates":[[[114.21759999999996,22.28],[114.21919999999996,22.28],[114.21919999999996,22.2816],[114.21759999999996,22.2816],[114.21759999999996,22.28]]]}},{"type":"Feature","properties":{"id":"lu-eastern-00-12","class":"built_up","vegetationFraction":0.139,"pavedFraction":0.625,"waterFraction":0.019,"simulated":true},"geometry":{"type":"Polygon","coordinates":[[[114.21919999999996,22.28],[114.22079999999995,22.28],[114.22079999999995,22.2816],[114.21919999999996,22.2816],[114.21919999999996,22.28]]]}},{"type":"Feature","properties":{"id":"lu-eastern-00-13","class":"built_up","vegetationFraction":0.136,"pavedFraction":0.749,"waterFraction":0.056,"simulated":true},"geometry":{"type":"Polygon","coordinates":[[[114.22079999999995,22.28],[114.22239999999995,22.28],[114.22239999999995,22.2816],[114.22079999999995,22.2816],[114.22079999999995,22.28]]]}},{"type":"Feature","properties":{"id":"lu-eastern-00-14","class":"built_up","vegetationFraction":0.114,"pavedFraction":0.614,"waterFraction":0.024,"simulated":true},"geometry":{"type":"Polygon","coordinates":[[[114.22239999999995,22.28],[114.22399999999995,22.28],[114.22399999999995,22.2816],[114.22239999999995,22.2816],[114.22239999999995,22.28]]]}},{"type":"Feature","properties":{"id":"lu-eastern-00-15","class":"built_up","vegetationFraction":0.062,"pavedFraction":0.77,"waterFraction":0.029,"simulated":true},"geometry":{"type":"Polygon","coordinates":[[[114.22399999999995,22.28],[114.22559999999994,22.28],[114.22559999999994,22.2816],[114.22399999999995,22.2816],[114.22399999999995,22.28]]]}},{"type":"Feature","properties":{"id":"lu-eastern-00-16","class":"built_up","vegetationFraction":0.069,"pavedFraction":0.782,"waterFraction":0.055,"simulated":true},"geometry":{"type":"Polygon","coordinates":[[[114.22559999999994,22.28],[114.22719999999994,22.28],[114.22719999999994,22.2816],[114.22559999999994,22.2816],[114.22559999999994,22.28]]]}},{"type":"Feature","properties":{"id":"lu-eastern-00-17","class":"built_up","vegetationFraction":0.179,"pavedFraction":0.706,"waterFraction":0.016,"simulated":true},"geometry":{"type":"Polygon","coordinates":[[[114.22719999999994,22.28],[114.22879999999994,22.28],[114.22879999999994,22.2816],[114.22719999999994,22.2816],[114.22719999999994,22.28]]]}},{"type":"Feature","properties":{"id":"lu-eastern-00-18","class":"built_up","vegetationFraction":0.083,"pavedFraction":0.599,"waterFraction":0.022,"simulated":true},"geometry":{"type":"Polygon","coordinates":[[[114.22879999999994,22.28],[114.23039999999993,22.28],[114.23039999999993,22.2816],[114.22879999999994,22.2816],[114.22879999999994,22.28]]]}},{"type":"Feature","properties":{"id":"lu-eastern-00-19","class":"built_up","vegetationFraction":0.173,"pavedFraction":0.559,"waterFraction":0.028,"simulated":true},"geometry":{"type":"Polygon","coordinates":[[[114.23039999999993,22.28],[114.23199999999993,22.28],[114.23199999999993,22.2816],[114.23039999999993,22.2816],[114.23039999999993,22.28]]]}},{"type":"Feature","properties":{"id":"lu-eastern-00-20","class":"built_up","vegetationFraction":0.1,"pavedFraction":0.704,"waterFraction":0.012,"simulated":true},"geometry":{"type":"Polygon","coordinates":[[[114.23199999999993,22.28],[114.23359999999992,22.28],[114.23359999999992,22.2816],[114.23199999999993,22.2816],[114.23199999999993,22.28]]]}},{"type":"Feature","properties":{"id":"lu-eastern-01-00","class":"built_up","vegetationFraction":0.145,"pavedFraction":0.811,"waterFraction":0.013,"simulated":true},"geometry":{"type":"Polygon","coordinates":[[[114.2,22.2816],[114.2016,22.2816],[114.2016,22.2832],[114.2,22.2832],[114.2,22.2816]]]}},{"type":"Feature","properties":{"id":"lu-eastern-01-01","class":"built_up","vegetationFraction":0.06,"pavedFraction":0.785,"waterFraction":0.025,"simulated":true},"geometry":{"type":"Polygon","coordinates":[[[114.2016,22.2816],[114.2032,22.2816],[114.2032,22.2832],[114.2016,22.2832],[114.2016,22.2816]]]}},{"type":"Feature","properties":{"id":"lu-eastern-01-02","class":"built_up","vegetationFraction":0.091,"pavedFraction":0.581,"waterFraction":0.03,"simulated":true},"geometry":{"type":"Polygon","coordinates":[[[114.2032,22.2816],[114.20479999999999,22.2816],[114.20479999999999,22.2832],[114.2032,22.2832],[114.2032,22.2816]]]}},{"type":"Feature","properties":{"id":"lu-eastern-01-03","class":"built_up","vegetationFraction":0.179,"pavedFraction":0.596,"waterFraction":0.052,"simulated":true},"geometry":{"type":"Polygon","coordinates":[[[114.20479999999999,22.2816],[114.20639999999999,22.2816],[114.20639999999999,22.2832],[114.20479999999999,22.2832],[114.20479999999999,22.2816]]]}},{"type":"Feature","properties":{"id":"lu-eastern-01-04","class":"built_up","vegetationFraction":0.179,"pavedFraction":0.616,"waterFraction":0.029,"simulated":true},"geometry":{"type":"Polygon","coordinates":[[[114.20639999999999,22.2816],[114.20799999999998,22.2816],[114.20799999999998,22.2832],[114.20639999999999,22.2832],[114.20639999999999,22.2816]]]}},{"type":"Feature","properties":{"id":"lu-eastern-01-05","class":"built_up","vegetationFraction":0.164,"pavedFraction":0.742,"waterFraction":0.017,"simulated":true},"geometry":{"type":"Polygon","coordinates":[[[114.20799999999998,22.2816],[114.20959999999998,22.2816],[114.20959999999998,22.2832],[114.20799999999998,22.2832],[114.20799999999998,22.2816]]]}},{"type":"Feature","properties":{"id":"lu-eastern-01-06","class":"built_up","vegetationFraction":0.076,"pavedFraction":0.685,"waterFraction":0.036,"simulated":true},"geometry":{"type":"Polygon","coordinates":[[[114.20959999999998,22.2816],[114.21119999999998,22.2816],[114.21119999999998,22.2832],[114.20959999999998,22.2832],[114.20959999999998,22.2816]]]}},{"type":"Feature","properties":{"id":"lu-eastern-01-07","class":"built_up","vegetationFraction":0.126,"pavedFraction":0.839,"waterFraction":0.007,"simulated":true},"geometry":{"type":"Polygon","coordinates":[[[114.21119999999998,22.2816],[114.21279999999997,22.2816],[114.21279999999997,22.2832],[114.21119999999998,22.2832],[114.21119999999998,22.2816]]]}},{"type":"Feature","properties":{"id":"lu-eastern-01-08","class":"built_up","vegetationFraction":0.172,"pavedFraction":0.697,"waterFraction":0.046,"simulated":true},"geometry":{"type":"Polygon","coordinates":[[[114.21279999999997,22.2816],[114.21439999999997,22.2816],[114.21439999999997,22.2832],[114.21279999999997,22.2832],[114.21279999999997,22.2816]]]}},{"type":"Feature","properties":{"id":"lu-eastern-01-09","class":"built_up","vegetationFraction":0.13,"pavedFraction":0.661,"waterFraction":0.031,"simulated":true},"geometry":{"type":"Polygon","coordinates":[[[114.21439999999997,22.2816],[114.21599999999997,22.2816],[114.21599999999997,22.2832],[114.21439999999997,22.2832],[114.21439999999997,22.2816]]]}},{"type":"Feature","properties":{"id":"lu-eastern-01-10","class":"built_up","vegetationFraction":0.138,"pavedFraction":0.761,"waterFraction":0.059,"simulated":true},"geometry":{"type":"Polygon","coordinates":[[[114.21599999999997,22.2816],[114.21759999999996,22.2816],[114.21759999999996,22.2832],[114.21599999999997,22.2832],[114.21599999999997,22.2816]]]}},{"type":"Feature","properties":{"id":"lu-eastern-01-11","class":"built_up","vegetationFraction":0.165,"pavedFraction":0.648,"waterFraction":0.056,"simulated":true},"geometry":{"type":"Polygon","coordinates":[[[114.21759999999996,22.2816],[114.21919999999996,22.2816],[114.21919999999996,22.2832],[114.21759999999996,22.2832],[114.21759999999996,22.2816]]]}},{"type":"Feature","properties":{"id":"lu-eastern-01-12","class":"green_space","vegetationFraction":0.78,"pavedFraction":0.1,"waterFraction":0.05,"simulated":true},"geometry":{"type":"Polygon","coordinates":[[[114.21919999999996,22.2816],[114.22079999999995,22.2816],[114.22079999999995,22.2832],[114.21919999999996,22.2832],[114.21919999999996,22.2816]]]}},{"type":"Feature","properties":{"id":"lu-eastern-01-13","class":"green_space","vegetationFraction":0.78,"pavedFraction":0.1,"waterFraction":0.04,"simulated":true},"geometry":{"type":"Polygon","coordinates":[[[114.22079999999995,22.2816],[114.22239999999995,22.2816],[114.22239999999995,22.2832],[114.22079999999995,22.2832],[114.22079999999995,22.2816]]]}},{"type":"Feature","properties":{"id":"lu-eastern-01-14","class":"green_space","vegetationFraction":0.78,"pavedFraction":0.1,"waterFraction":0.033,"simulated":true},"geometry":{"type":"Polygon","coordinates":[[[114.22239999999995,22.2816],[114.22399999999995,22.2816],[114.22399999999995,22.2832],[114.22239999999995,22.2832],[114.22239999999995,22.2816]]]}},{"type":"Feature","properties":{"id":"lu-eastern-01-15","class":"green_space","vegetationFraction":0.78,"pavedFraction":0.1,"waterFraction":0.056,"simulated":true},"geometry":{"type":"Polygon","coordinates":[[[114.22399999999995,22.2816],[114.22559999999994,22.2816],[114.22559999999994,22.2832],[114.22399999999995,22.2832],[114.22399999999995,22.2816]]]}},{"type":"Feature","properties":{"id":"lu-eastern-01-16","class":"green_space","vegetationFraction":0.78,"pavedFraction":0.1,"waterFraction":0.055,"simulated":true},"geometry":{"type":"Polygon","coordinates":[[[114.22559999999994,22.2816],[114.22719999999994,22.2816],[114.22719999999994,22.2832],[114.22559999999994,22.2832],[114.22559999999994,22.2816]]]}},{"type":"Feature","properties":{"id":"lu-eastern-01-17","class":"green_space","vegetationFraction":0.78,"pavedFraction":0.1,"waterFraction":0.048,"simulated":true},"geometry":{"type":"Polygon","coordinates":[[[114.22719999999994,22.2816],[114.22879999999994,22.2816],[114.22879999999994,22.2832],[114.22719999999994,22.2832],[114.22719999999994,22.2816]]]}},{"type":"Feature","properties":{"id":"lu-eastern-01-18","class":"built_up","vegetationFraction":0.091,"pavedFraction":0.591,"waterFraction":0.04,"simulated":true},"geometry":{"type":"Polygon","coordinates":[[[114.22879999999994,22.2816],[114.23039999999993,22.2816],[114.23039999999993,22.2832],[114.22879999999994,22.2832],[114.22879999999994,22.2816]]]}},{"type":"Feature","properties":{"id":"lu-eastern-01-19","class":"built_up","vegetationFraction":0.107,"pavedFraction":0.783,"waterFraction":0.051,"simulated":true},"geometry":{"type":"Polygon","coordinates":[[[114.23039999999993,22.2816],[114.23199999999993,22.2816],[114.23199999999993,22.2832],[114.23039999999993,22.2832],[114.23039999999993,22.2816]]]}},{"type":"Feature","properties":{"id":"lu-eastern-01-20","class":"built_up","vegetationFraction":0.084,"pavedFraction":0.815,"waterFraction":0.056,"simulated":true},"geometry":{"type":"Polygon","coordinates":[[[114.23199999999993,22.2816],[114.23359999999992,22.2816],[114.23359999999992,22.2832],[114.23199999999993,22.2832],[114.23199999999993,22.2816]]]}},{"type":"Feature","properties":{"id":"lu-eastern-02-00","class":"built_up","vegetationFraction":0.131,"pavedFraction":0.77,"waterFraction":0.002,"simulated":true},"geometry":{"type":"Polygon","coordinates":[[[114.2,22.2832],[114.2016,22.2832],[114.2016,22.2848],[114.2,22.2848],[114.2,22.2832]]]}},{"type":"Feature","properties":{"id":"lu-eastern-02-01","class":"built_up","vegetationFraction":0.092,"pavedFraction":0.699,"waterFraction":0.052,"simulated":true},"geometry":{"type":"Polygon","coordinates":[[[114.2016,22.2832],[114.2032,22.2832],[114.2032,22.2848],[114.2016,22.2848],[114.2016,22.2832]]]}},{"type":"Feature","properties":{"id":"lu-eastern-02-02","class":"built_up","vegetationFraction":0.111,"pavedFraction":0.626,"waterFraction":0.004,"simulated":true},"geometry":{"type":"Polygon","coordinates":[[[114.2032,22.2832],[114.20479999999999,22.2832],[114.20479999999999,22.2848],[114.2032,22.2848],[114.2032,22.2832]]]}},{"type":"Feature","properties":{"id":"lu-eastern-02-03","class":"built_up","vegetationFraction":0.108,"pavedFraction":0.835,"waterFraction":0.044,"simulated":true},"geometry":{"type":"Polygon","coordinates":[[[114.20479999999999,22.2832],[114.20639999999999,22.2832],[114.20639999999999,22.2848],[114.20479999999999,22.2848],[114.20479999999999,22.2832]]]}},{"type":"Feature","properties":{"id":"lu-eastern-02-04","class":"built_up","vegetationFraction":0.174,"pavedFraction":0.643,"waterFraction":0.026,"simulated":true},"geometry":{"type":"Polygon","coordinates":[[[114.20639999999999,22.2832],[114.20799999999998,22.2832],[114.20799999999998,22.2848],[114.20639999999999,22.2848],[114.20639999999999,22.2832]]]}},{"type":"Feature","properties":{"id":"lu-eastern-02-05","class":"built_up","vegetationFraction":0.18,"pavedFraction":0.843,"waterFraction":0.051,"simulated":true},"geometry":{"type":"Polygon","coordinates":[[[114.20799999999998,22.2832],[114.20959999999998,22.2832],[114.20959999999998,22.2848],[114.20799999999998,22.2848],[114.20799999999998,22.2832]]]}},{"type":"Feature","properties":{"id":"lu-eastern-02-06","class":"built_up","vegetationFraction":0.166,"pavedFraction":0.689,"waterFraction":0.05,"simulated":true},"geometry":{"type":"Polygon","coordinates":[[[114.20959999999998,22.2832],[114.21119999999998,22.2832],[114.21119999999998,22.2848],[114.20959999999998,22.2848],[114.20959999999998,22.2832]]]}},{"type":"Feature","properties":{"id":"lu-eastern-02-07","class":"built_up","vegetationFraction":0.144,"pavedFraction":0.641,"waterFraction":0.038,"simulated":true},"geometry":{"type":"Polygon","coordinates":[[[114.21119999999998,22.2832],[114.21279999999997,22.2832],[114.21279999999997,22.2848],[114.21119999999998,22.2848],[114.21119999999998,22.2832]]]}},{"type":"Feature","properties":{"id":"lu-eastern-02-08","class":"built_up","vegetationFraction":0.16,"pavedFraction":0.844,"waterFraction":0.035,"simulated":true},"geometry":{"type":"Polygon","coordinates":[[[114.21279999999997,22.2832],[114.21439999999997,22.2832],[114.21439999999997,22.2848],[114.21279999999997,22.2848],[114.21279999999997,22.2832]]]}},{"type":"Feature","properties":{"id":"lu-eastern-02-09","class":"built_up","vegetationFraction":0.077,"pavedFraction":0.843,"waterFraction":0.014,"simulated":true},"geometry":{"type":"Polygon","coordinates":[[[114.21439999999997,22.2832],[114.21599999999997,22.2832],[114.21599999999997,22.2848],[114.21439999999997,22.2848],[114.21439999999997,22.2832]]]}},{"type":"Feature","properties":{"id":"lu-eastern-02-10","class":"built_up","vegetationFraction":0.077,"pavedFraction":0.814,"waterFraction":0.027,"simulated":true},"geometry":{"type":"Polygon","coordinates":[[[114.21599999999997,22.2832],[114.21759999999996,22.2832],[114.21759999999996,22.2848],[114.21599999999997,22.2848],[114.21599999999997,22.2832]]]}},{"type":"Feature","properties":{"id":"lu-eastern-02-11","class":"built_up","vegetationFraction":0.116,"pavedFraction":0.81,"waterFraction":0.038,"simulated":true},"geometry":{"type":"Polygon","coordinates":[[[114.21759999999996,22.2832],[114.21919999999996,22.2832],[114.21919999999996,22.2848],[114.21759999999996,22.2848],[114.21759999999996,22.2832]]]}},{"type":"Feature","properties":{"id":"lu-eastern-02-12","class":"green_space","vegetationFraction":0.78,"pavedFraction":0.1,"waterFraction":0.008,"simulated":true},"geometry":{"type":"Polygon","coordinates":[[[114.21919999999996,22.2832],[114.22079999999995,22.2832],[114.22079999999995,22.2848],[114.21919999999996,22.2848],[114.21919999999996,22.2832]]]}},{"type":"Feature","properties":{"id":"lu-eastern-02-13","class":"green_space","vegetationFraction":0.78,"pavedFraction":0.1,"waterFraction":0.042,"simulated":true},"geometry":{"type":"Polygon","coordinates":[[[114.22079999999995,22.2832],[114.22239999999995,22.2832],[114.22239999999995,22.2848],[114.22079999999995,22.2848],[114.22079999999995,22.2832]]]}},{"type":"Feature","properties":{"id":"lu-eastern-02-14","class":"green_space","vegetationFraction":0.78,"pavedFraction":0.1,"waterFraction":0.035,"simulated":true},"geometry":{"type":"Polygon","coordinates":[[[114.22239999999995,22.2832],[114.22399999999995,22.2832],[114.22399999999995,22.2848],[114.22239999999995,22.2848],[114.22239999999995,22.2832]]]}},{"type":"Feature","properties":{"id":"lu-eastern-02-15","class":"green_space","vegetationFraction":0.78,"pavedFraction":0.1,"waterFraction":0.04,"simulated":true},"geometry":{"type":"Polygon","coordinates":[[[114.22399999999995,22.2832],[114.22559999999994,22.2832],[114.22559999999994,22.2848],[114.22399999999995,22.2848],[114.22399999999995,22.2832]]]}},{"type":"Feature","properties":{"id":"lu-eastern-02-16","class":"green_space","vegetationFraction":0.78,"pavedFraction":0.1,"waterFraction":0.007,"simulated":true},"geometry":{"type":"Polygon","coordinates":[[[114.22559999999994,22.2832],[114.22719999999994,22.2832],[114.22719999999994,22.2848],[114.22559999999994,22.2848],[114.22559999999994,22.2832]]]}},{"type":"Feature","properties":{"id":"lu-eastern-02-17","class":"green_space","vegetationFraction":0.78,"pavedFraction":0.1,"waterFraction":0.053,"simulated":true},"geometry":{"type":"Polygon","coordinates":[[[114.22719999999994,22.2832],[114.22879999999994,22.2832],[114.22879999999994,22.2848],[114.22719999999994,22.2848],[114.22719999999994,22.2832]]]}},{"type":"Feature","properties":{"id":"lu-eastern-02-18","class":"built_up","vegetationFraction":0.136,"pavedFraction":0.779,"waterFraction":0.053,"simulated":true},"geometry":{"type":"Polygon","coordinates":[[[114.22879999999994,22.2832],[114.23039999999993,22.2832],[114.23039999999993,22.2848],[114.22879999999994,22.2848],[114.22879999999994,22.2832]]]}},{"type":"Feature","properties":{"id":"lu-eastern-02-19","class":"built_up","vegetationFraction":0.067,"pavedFraction":0.649,"waterFraction":0.034,"simulated":true},"geometry":{"type":"Polygon","coordinates":[[[114.23039999999993,22.2832],[114.23199999999993,22.2832],[114.23199999999993,22.2848],[114.23039999999993,22.2848],[114.23039999999993,22.2832]]]}},{"type":"Feature","properties":{"id":"lu-eastern-02-20","class":"built_up","vegetationFraction":0.124,"pavedFraction":0.597,"waterFraction":0.022,"simulated":true},"geometry":{"type":"Polygon","coordinates":[[[114.23199999999993,22.2832],[114.23359999999992,22.2832],[114.23359999999992,22.2848],[114.23199999999993,22.2848],[114.23199999999993,22.2832]]]}},{"type":"Feature","properties":{"id":"lu-eastern-03-00","class":"built_up","vegetationFraction":0.094,"pavedFraction":0.659,"waterFraction":0.024,"simulated":true},"geometry":{"type":"Polygon","coordinates":[[[114.2,22.2848],[114.2016,22.2848],[114.2016,22.2864],[114.2,22.2864],[114.2,22.2848]]]}},{"type":"Feature","properties":{"id":"lu-eastern-03-01","class":"built_up","vegetationFraction":0.107,"pavedFraction":0.683,"waterFraction":0.004,"simulated":true},"geometry":{"type":"Polygon","coordinates":[[[114.2016,22.2848],[114.2032,22.2848],[114.2032,22.2864],[114.2016,22.2864],[114.2016,22.2848]]]}},{"type":"Feature","properties":{"id":"lu-eastern-03-02","class":"built_up","vegetationFraction":0.081,"pavedFraction":0.59,"waterFraction":0.053,"simulated":true},"geometry":{"type":"Polygon","coordinates":[[[114.2032,22.2848],[114.20479999999999,22.2848],[114.20479999999999,22.2864],[114.2032,22.2864],[114.2032,22.2848]]]}},{"type":"Feature","properties":{"id":"lu-eastern-03-03","class":"built_up","vegetationFraction":0.063,"pavedFraction":0.663,"waterFraction":0.022,"simulated":true},"geometry":{"type":"Polygon","coordinates":[[[114.20479999999999,22.2848],[114.20639999999999,22.2848],[114.20639999999999,22.2864],[114.20479999999999,22.2864],[114.20479999999999,22.2848]]]}},{"type":"Feature","properties":{"id":"lu-eastern-03-04","class":"built_up","vegetationFraction":0.161,"pavedFraction":0.689,"waterFraction":0.045,"simulated":true},"geometry":{"type":"Polygon","coordinates":[[[114.20639999999999,22.2848],[114.20799999999998,22.2848],[114.20799999999998,22.2864],[114.20639999999999,22.2864],[114.20639999999999,22.2848]]]}},{"type":"Feature","properties":{"id":"lu-eastern-03-05","class":"built_up","vegetationFraction":0.08,"pavedFraction":0.763,"waterFraction":0.004,"simulated":true},"geometry":{"type":"Polygon","coordinates":[[[114.20799999999998,22.2848],[114.20959999999998,22.2848],[114.20959999999998,22.2864],[114.20799999999998,22.2864],[114.20799999999998,22.2848]]]}},{"type":"Feature","properties":{"id":"lu-eastern-03-06","class":"built_up","vegetationFraction":0.153,"pavedFraction":0.798,"waterFraction":0.047,"simulated":true},"geometry":{"type":"Polygon","coordinates":[[[114.20959999999998,22.2848],[114.21119999999998,22.2848],[114.21119999999998,22.2864],[114.20959999999998,22.2864],[114.20959999999998,22.2848]]]}},{"type":"Feature","properties":{"id":"lu-eastern-03-07","class":"built_up","vegetationFraction":0.084,"pavedFraction":0.774,"waterFraction":0.006,"simulated":true},"geometry":{"type":"Polygon","coordinates":[[[114.21119999999998,22.2848],[114.21279999999997,22.2848],[114.21279999999997,22.2864],[114.21119999999998,22.2864],[114.21119999999998,22.2848]]]}},{"type":"Feature","properties":{"id":"lu-eastern-03-08","class":"built_up","vegetationFraction":0.124,"pavedFraction":0.59,"waterFraction":0.055,"simulated":true},"geometry":{"type":"Polygon","coordinates":[[[114.21279999999997,22.2848],[114.21439999999997,22.2848],[114.21439999999997,22.2864],[114.21279999999997,22.2864],[114.21279999999997,22.2848]]]}},{"type":"Feature","properties":{"id":"lu-eastern-03-09","class":"built_up","vegetationFraction":0.179,"pavedFraction":0.796,"waterFraction":0.011,"simulated":true},"geometry":{"type":"Polygon","coordinates":[[[114.21439999999997,22.2848],[114.21599999999997,22.2848],[114.21599999999997,22.2864],[114.21439999999997,22.2864],[114.21439999999997,22.2848]]]}},{"type":"Feature","properties":{"id":"lu-eastern-03-10","class":"built_up","vegetationFraction":0.132,"pavedFraction":0.788,"waterFraction":0.006,"simulated":true},"geometry":{"type":"Polygon","coordinates":[[[114.21599999999997,22.2848],[114.21759999999996,22.2848],[114.21759999999996,22.2864],[114.21599999999997,22.2864],[114.21599999999997,22.2848]]]}},{"type":"Feature","properties":{"id":"lu-eastern-03-11","class":"built_up","vegetationFraction":0.172,"pavedFraction":0.721,"waterFraction":0.006,"simulated":true},"geometry":{"type":"Polygon","coordinates":[[[114.21759999999996,22.2848],[114.21919999999996,22.2848],[114.21919999999996,22.2864],[114.21759999999996,22.2864],[114.21759999999996,22.2848]]]}},{"type":"Feature","properties":{"id":"lu-eastern-03-12","class":"green_space","vegetationFraction":0.78,"pavedFraction":0.1,"waterFraction":0.038,"simulated":true},"geometry":{"type":"Polygon","coordinates":[[[114.21919999999996,22.2848],[114.22079999999995,22.2848],[114.22079999999995,22.2864],[114.21919999999996,22.2864],[114.21919999999996,22.2848]]]}},{"type":"Feature","properties":{"id":"lu-eastern-03-13","class":"green_space","vegetationFraction":0.78,"pavedFraction":0.1,"waterFraction":0.024,"simulated":true},"geometry":{"type":"Polygon","coordinates":[[[114.22079999999995,22.2848],[114.22239999999995,22.2848],[114.22239999999995,22.2864],[114.22079999999995,22.2864],[114.22079999999995,22.2848]]]}},{"type":"Feature","properties":{"id":"lu-eastern-03-14","class":"green_space","vegetationFraction":0.78,"pavedFraction":0.1,"waterFraction":0.056,"simulated":true},"geometry":{"type":"Polygon","coordinates":[[[114.22239999999995,22.2848],[114.22399999999995,22.2848],[114.22399999999995,22.2864],[114.22239999999995,22.2864],[114.22239999999995,22.2848]]]}},{"type":"Feature","properties":{"id":"lu-eastern-03-15","class":"green_space","vegetationFraction":0.78,"pavedFraction":0.1,"waterFraction":0.037,"simulated":true},"geometry":{"type":"Polygon","coordinates":[[[114.22399999999995,22.2848],[114.22559999999994,22.2848],[114.22559999999994,22.2864],[114.22399999999995,22.2864],[114.22399999999995,22.2848]]]}},{"type":"Feature","properties":{"id":"lu-eastern-03-16","class":"green_space","vegetationFraction":0.78,"pavedFraction":0.1,"waterFraction":0.058,"simulated":true},"geometry":{"type":"Polygon","coordinates":[[[114.22559999999994,22.2848],[114.22719999999994,22.2848],[114.22719999999994,22.2864],[114.22559999999994,22.2864],[114.22559999999994,22.2848]]]}},{"type":"Feature","properties":{"id":"lu-eastern-03-17","class":"green_space","vegetationFraction":0.78,"pavedFraction":0.1,"waterFraction":0.002,"simulated":true},"geometry":{"type":"Polygon","coordinates":[[[114.22719999999994,22.2848],[114.22879999999994,22.2848],[114.22879999999994,22.2864],[114.22719999999994,22.2864],[114.22719999999994,22.2848]]]}},{"type":"Feature","properties":{"id":"lu-eastern-03-18","class":"built_up","vegetationFraction":0.161,"pavedFraction":0.675,"waterFraction":0.037,"simulated":true},"geometry":{"type":"Polygon","coordinates":[[[114.22879999999994,22.2848],[114.23039999999993,22.2848],[114.23039999999993,22.2864],[114.22879999999994,22.2864],[114.22879999999994,22.2848]]]}},{"type":"Feature","properties":{"id":"lu-eastern-03-19","class":"built_up","vegetationFraction":0.064,"pavedFraction":0.669,"waterFraction":0.026,"simulated":true},"geometry":{"type":"Polygon","coordinates":[[[114.23039999999993,22.2848],[114.23199999999993,22.2848],[114.23199999999993,22.2864],[114.23039999999993,22.2864],[114.23039999999993,22.2848]]]}},{"type":"Feature","properties":{"id":"lu-eastern-03-20","class":"built_up","vegetationFraction":0.15,"pavedFraction":0.564,"waterFraction":0.048,"simulated":true},"geometry":{"type":"Polygon","coordinates":[[[114.23199999999993,22.2848],[114.23359999999992,22.2848],[114.23359999999992,22.2864],[114.23199999999993,22.2864],[114.23199999999993,22.2848]]]}},{"type":"Feature","properties":{"id":"lu-eastern-04-00","class":"built_up","vegetationFraction":0.061,"pavedFraction":0.561,"waterFraction":0.005,"simulated":true},"geometry":{"type":"Polygon","coordinates":[[[114.2,22.2864],[114.2016,22.2864],[114.2016,22.288],[114.2,22.288],[114.2,22.2864]]]}},{"type":"Feature","properties":{"id":"lu-eastern-04-01","class":"built_up","vegetationFraction":0.132,"pavedFraction":0.676,"waterFraction":0.035,"simulated":true},"geometry":{"type":"Polygon","coordinates":[[[114.2016,22.2864],[114.2032,22.2864],[114.2032,22.288],[114.2016,22.288],[114.2016,22.2864]]]}},{"type":"Feature","properties":{"id":"lu-eastern-04-02","class":"built_up","vegetationFraction":0.065,"pavedFraction":0.706,"waterFraction":0.013,"simulated":true},"geometry":{"type":"Polygon","coordinates":[[[114.2032,22.2864],[114.20479999999999,22.2864],[114.20479999999999,22.288],[114.2032,22.288],[114.2032,22.2864]]]}},{"type":"Feature","properties":{"id":"lu-eastern-04-03","class":"built_up","vegetationFraction":0.162,"pavedFraction":0.768,"waterFraction":0.011,"simulated":true},"geometry":{"type":"Polygon","coordinates":[[[114.20479999999999,22.2864],[114.20639999999999,22.2864],[114.20639999999999,22.288],[114.20479999999999,22.288],[114.20479999999999,22.2864]]]}},{"type":"Feature","properties":{"id":"lu-eastern-04-04","class":"built_up","vegetationFraction":0.099,"pavedFraction":0.605,"waterFraction":0.023,"simulated":true},"geometry":{"type":"Polygon","coordinates":[[[114.20639999999999,22.2864],[114.20799999999998,22.2864],[114.20799999999998,22.288],[114.20639999999999,22.288],[114.20639999999999,22.2864]]]}},{"type":"Feature","properties":{"id":"lu-eastern-04-05","class":"built_up","vegetationFraction":0.109,"pavedFraction":0.597,"waterFraction":0.011,"simulated":true},"geometry":{"type":"Polygon","coordinates":[[[114.20799999999998,22.2864],[114.20959999999998,22.2864],[114.20959999999998,22.288],[114.20799999999998,22.288],[114.20799999999998,22.2864]]]}},{"type":"Feature","properties":{"id":"lu-eastern-04-06","class":"built_up","vegetationFraction":0.119,"pavedFraction":0.598,"waterFraction":0.04,"simulated":true},"geometry":{"type":"Polygon","coordinates":[[[114.20959999999998,22.2864],[114.21119999999998,22.2864],[114.21119999999998,22.288],[114.20959999999998,22.288],[114.20959999999998,22.2864]]]}},{"type":"Feature","properties":{"id":"lu-eastern-04-07","class":"built_up","vegetationFraction":0.143,"pavedFraction":0.783,"waterFraction":0.021,"simulated":true},"geometry":{"type":"Polygon","coordinates":[[[114.21119999999998,22.2864],[114.21279999999997,22.2864],[114.21279999999997,22.288],[114.21119999999998,22.288],[114.21119999999998,22.2864]]]}},{"type":"Feature","properties":{"id":"lu-eastern-04-08","class":"built_up","vegetationFraction":0.071,"pavedFraction":0.563,"waterFraction":0.044,"simulated":true},"geometry":{"type":"Polygon","coordinates":[[[114.21279999999997,22.2864],[114.21439999999997,22.2864],[114.21439999999997,22.288],[114.21279999999997,22.288],[114.21279999999997,22.2864]]]}},{"type":"Feature","properties":{"id":"lu-eastern-04-09","class":"built_up","vegetationFraction":0.105,"pavedFraction":0.683,"waterFraction":0.049,"simulated":true},"geometry":{"type":"Polygon","coordinates":[[[114.21439999999997,22.2864],[114.21599999999997,22.2864],[114.21599999999997,22.288],[114.21439999999997,22.288],[114.21439999999997,22.2864]]]}},{"type":"Feature","properties":{"id":"lu-eastern-04-10","class":"built_up","vegetationFraction":0.152,"pavedFraction":0.714,"waterFraction":0.021,"simulated":true},"geometry":{"type":"Polygon","coordinates":[[[114.21599999999997,22.2864],[114.21759999999996,22.2864],[114.21759999999996,22.288],[114.21599999999997,22.288],[114.21599999999997,22.2864]]]}},{"type":"Feature","properties":{"id":"lu-eastern-04-11","class":"built_up","vegetationFraction":0.116,"pavedFraction":0.597,"waterFraction":0.006,"simulated":true},"geometry":{"type":"Polygon","coordinates":[[[114.21759999999996,22.2864],[114.21919999999996,22.2864],[114.21919999999996,22.288],[114.21759999999996,22.288],[114.21759999999996,22.2864]]]}},{"type":"Feature","properties":{"id":"lu-eastern-04-12","class":"built_up","vegetationFraction":0.159,"pavedFraction":0.816,"waterFraction":0.001,"simulated":true},"geometry":{"type":"Polygon","coordinates":[[[114.21919999999996,22.2864],[114.22079999999995,22.2864],[114.22079999999995,22.288],[114.21919999999996,22.288],[114.21919999999996,22.2864]]]}},{"type":"Feature","properties":{"id":"lu-eastern-04-13","class":"built_up","vegetationFraction":0.075,"pavedFraction":0.801,"waterFraction":0.035,"simulated":true},"geometry":{"type":"Polygon","coordinates":[[[114.22079999999995,22.2864],[114.22239999999995,22.2864],[114.22239999999995,22.288],[114.22079999999995,22.288],[114.22079999999995,22.2864]]]}},{"type":"Feature","properties":{"id":"lu-eastern-04-14","class":"built_up","vegetationFraction":0.141,"pavedFraction":0.678,"waterFraction":0.013,"simulated":true},"geometry":{"type":"Polygon","coordinates":[[[114.22239999999995,22.2864],[114.22399999999995,22.2864],[114.22399999999995,22.288],[114.22239999999995,22.288],[114.22239999999995,22.2864]]]}},{"type":"Feature","properties":{"id":"lu-eastern-04-15","class":"built_up","vegetationFraction":0.15,"pavedFraction":0.738,"waterFraction":0.038,"simulated":true},"geometry":{"type":"Polygon","coordinates":[[[114.22399999999995,22.2864],[114.22559999999994,22.2864],[114.22559999999994,22.288],[114.22399999999995,22.288],[114.22399999999995,22.2864]]]}},{"type":"Feature","properties":{"id":"lu-eastern-04-16","class":"built_up","vegetationFraction":0.145,"pavedFraction":0.759,"waterFraction":0.01,"simulated":true},"geometry":{"type":"Polygon","coordinates":[[[114.22559999999994,22.2864],[114.22719999999994,22.2864],[114.22719999999994,22.288],[114.22559999999994,22.288],[114.22559999999994,22.2864]]]}},{"type":"Feature","properties":{"id":"lu-eastern-04-17","class":"built_up","vegetationFraction":0.148,"pavedFraction":0.784,"waterFraction":0.04,"simulated":true},"geometry":{"type":"Polygon","coordinates":[[[114.22719999999994,22.2864],[114.22879999999994,22.2864],[114.22879999999994,22.288],[114.22719999999994,22.288],[114.22719999999994,22.2864]]]}},{"type":"Feature","properties":{"id":"lu-eastern-04-18","class":"built_up","vegetationFraction":0.094,"pavedFraction":0.671,"waterFraction":0.011,"simulated":true},"geometry":{"type":"Polygon","coordinates":[[[114.22879999999994,22.2864],[114.23039999999993,22.2864],[114.23039999999993,22.288],[114.22879999999994,22.288],[114.22879999999994,22.2864]]]}},{"type":"Feature","properties":{"id":"lu-eastern-04-19","class":"built_up","vegetationFraction":0.104,"pavedFraction":0.684,"waterFraction":0.044,"simulated":true},"geometry":{"type":"Polygon","coordinates":[[[114.23039999999993,22.2864],[114.23199999999993,22.2864],[114.23199999999993,22.288],[114.23039999999993,22.288],[114.23039999999993,22.2864]]]}},{"type":"Feature","properties":{"id":"lu-eastern-04-20","class":"built_up","vegetationFraction":0.098,"pavedFraction":0.67,"waterFraction":0.012,"simulated":true},"geometry":{"type":"Polygon","coordinates":[[[114.23199999999993,22.2864],[114.23359999999992,22.2864],[114.23359999999992,22.288],[114.23199999999993,22.288],[114.23199999999993,22.2864]]]}},{"type":"Feature","properties":{"id":"lu-eastern-05-00","class":"built_up","vegetationFraction":0.124,"pavedFraction":0.732,"waterFraction":0.027,"simulated":true},"geometry":{"type":"Polygon","coordinates":[[[114.2,22.288],[114.2016,22.288],[114.2016,22.2896],[114.2,22.2896],[114.2,22.288]]]}},{"type":"Feature","properties":{"id":"lu-eastern-05-01","class":"built_up","vegetationFraction":0.082,"pavedFraction":0.696,"waterFraction":0.052,"simulated":true},"geometry":{"type":"Polygon","coordinates":[[[114.2016,22.288],[114.2032,22.288],[114.2032,22.2896],[114.2016,22.2896],[114.2016,22.288]]]}},{"type":"Feature","properties":{"id":"lu-eastern-05-02","class":"built_up","vegetationFraction":0.126,"pavedFraction":0.712,"waterFraction":0.032,"simulated":true},"geometry":{"type":"Polygon","coordinates":[[[114.2032,22.288],[114.20479999999999,22.288],[114.20479999999999,22.2896],[114.2032,22.2896],[114.2032,22.288]]]}},{"type":"Feature","properties":{"id":"lu-eastern-05-03","class":"built_up","vegetationFraction":0.161,"pavedFraction":0.825,"waterFraction":0.033,"simulated":true},"geometry":{"type":"Polygon","coordinates":[[[114.20479999999999,22.288],[114.20639999999999,22.288],[114.20639999999999,22.2896],[114.20479999999999,22.2896],[114.20479999999999,22.288]]]}},{"type":"Feature","properties":{"id":"lu-eastern-05-04","class":"built_up","vegetationFraction":0.18,"pavedFraction":0.757,"waterFraction":0.046,"simulated":true},"geometry":{"type":"Polygon","coordinates":[[[114.20639999999999,22.288],[114.20799999999998,22.288],[114.20799999999998,22.2896],[114.20639999999999,22.2896],[114.20639999999999,22.288]]]}},{"type":"Feature","properties":{"id":"lu-eastern-05-05","class":"built_up","vegetationFraction":0.172,"pavedFraction":0.595,"waterFraction":0.044,"simulated":true},"geometry":{"type":"Polygon","coordinates":[[[114.20799999999998,22.288],[114.20959999999998,22.288],[114.20959999999998,22.2896],[114.20799999999998,22.2896],[114.20799999999998,22.288]]]}},{"type":"Feature","properties":{"id":"lu-eastern-05-06","class":"built_up","vegetationFraction":0.155,"pavedFraction":0.791,"waterFraction":0.035,"simulated":true},"geometry":{"type":"Polygon","coordinates":[[[114.20959999999998,22.288],[114.21119999999998,22.288],[114.21119999999998,22.2896],[114.20959999999998,22.2896],[114.20959999999998,22.288]]]}},{"type":"Feature","properties":{"id":"lu-eastern-05-07","class":"built_up","vegetationFraction":0.084,"pavedFraction":0.724,"waterFraction":0.033,"simulated":true},"geometry":{"type":"Polygon","coordinates":[[[114.21119999999998,22.288],[114.21279999999997,22.288],[114.21279999999997,22.2896],[114.21119999999998,22.2896],[114.21119999999998,22.288]]]}},{"type":"Feature","properties":{"id":"lu-eastern-05-08","class":"built_up","vegetationFraction":0.125,"pavedFraction":0.689,"waterFraction":0.02,"simulated":true},"geometry":{"type":"Polygon","coordinates":[[[114.21279999999997,22.288],[114.21439999999997,22.288],[114.21439999999997,22.2896],[114.21279999999997,22.2896],[114.21279999999997,22.288]]]}},{"type":"Feature","properties":{"id":"lu-eastern-05-09","class":"built_up","vegetationFraction":0.178,"pavedFraction":0.566,"waterFraction":0.02,"simulated":true},"geometry":{"type":"Polygon","coordinates":[[[114.21439999999997,22.288],[114.21599999999997,22.288],[114.21599999999997,22.2896],[114.21439999999997,22.2896],[114.21439999999997,22.288]]]}},{"type":"Feature","properties":{"id":"lu-eastern-05-10","class":"built_up","vegetationFraction":0.123,"pavedFraction":0.698,"waterFraction":0.036,"simulated":true},"geometry":{"type":"Polygon","coordinates":[[[114.21599999999997,22.288],[114.21759999999996,22.288],[114.21759999999996,22.2896],[114.21599999999997,22.2896],[114.21599999999997,22.288]]]}},{"type":"Feature","properties":{"id":"lu-eastern-05-11","class":"built_up","vegetationFraction":0.088,"pavedFraction":0.638,"waterFraction":0.052,"simulated":true},"geometry":{"type":"Polygon","coordinates":[[[114.21759999999996,22.288],[114.21919999999996,22.288],[114.21919999999996,22.2896],[114.21759999999996,22.2896],[114.21759999999996,22.288]]]}},{"type":"Feature","properties":{"id":"lu-eastern-05-12","class":"built_up","vegetationFraction":0.159,"pavedFraction":0.738,"waterFraction":0.04,"simulated":true},"geometry":{"type":"Polygon","coordinates":[[[114.21919999999996,22.288],[114.22079999999995,22.288],[114.22079999999995,22.2896],[114.21919999999996,22.2896],[114.21919999999996,22.288]]]}},{"type":"Feature","properties":{"id":"lu-eastern-05-13","class":"built_up","vegetationFraction":0.166,"pavedFraction":0.556,"waterFraction":0.05,"simulated":true},"geometry":{"type":"Polygon","coordinates":[[[114.22079999999995,22.288],[114.22239999999995,22.288],[114.22239999999995,22.2896],[114.22079999999995,22.2896],[114.22079999999995,22.288]]]}},{"type":"Feature","properties":{"id":"lu-eastern-05-14","class":"built_up","vegetationFraction":0.088,"pavedFraction":0.686,"waterFraction":0.004,"simulated":true},"geometry":{"type":"Polygon","coordinates":[[[114.22239999999995,22.288],[114.22399999999995,22.288],[114.22399999999995,22.2896],[114.22239999999995,22.2896],[114.22239999999995,22.288]]]}},{"type":"Feature","properties":{"id":"lu-eastern-05-15","class":"built_up","vegetationFraction":0.167,"pavedFraction":0.612,"waterFraction":0.022,"simulated":true},"geometry":{"type":"Polygon","coordinates":[[[114.22399999999995,22.288],[114.22559999999994,22.288],[114.22559999999994,22.2896],[114.22399999999995,22.2896],[114.22399999999995,22.288]]]}},{"type":"Feature","properties":{"id":"lu-eastern-05-16","class":"built_up","vegetationFraction":0.104,"pavedFraction":0.575,"waterFraction":0.005,"simulated":true},"geometry":{"type":"Polygon","coordinates":[[[114.22559999999994,22.288],[114.22719999999994,22.288],[114.22719999999994,22.2896],[114.22559999999994,22.2896],[114.22559999999994,22.288]]]}},{"type":"Feature","properties":{"id":"lu-eastern-05-17","class":"built_up","vegetationFraction":0.118,"pavedFraction":0.696,"waterFraction":0.032,"simulated":true},"geometry":{"type":"Polygon","coordinates":[[[114.22719999999994,22.288],[114.22879999999994,22.288],[114.22879999999994,22.2896],[114.22719999999994,22.2896],[114.22719999999994,22.288]]]}},{"type":"Feature","properties":{"id":"lu-eastern-05-18","class":"built_up","vegetationFraction":0.14,"pavedFraction":0.609,"waterFraction":0.032,"simulated":true},"geometry":{"type":"Polygon","coordinates":[[[114.22879999999994,22.288],[114.23039999999993,22.288],[114.23039999999993,22.2896],[114.22879999999994,22.2896],[114.22879999999994,22.288]]]}},{"type":"Feature","properties":{"id":"lu-eastern-05-19","class":"built_up","vegetationFraction":0.132,"pavedFraction":0.779,"waterFraction":0.0,"simulated":true},"geometry":{"type":"Polygon","coordinates":[[[114.23039999999993,22.288],[114.23199999999993,22.288],[114.23199999999993,22.2896],[114.23039999999993,22.2896],[114.23039999999993,22.288]]]}},{"type":"Feature","properties":{"id":"lu-eastern-05-20","class":"built_up","vegetationFraction":0.16,"pavedFraction":0.654,"waterFraction":0.036,"simulated":true},"geometry":{"type":"Polygon","coordinates":[[[114.23199999999993,22.288],[114.23359999999992,22.288],[114.23359999999992,22.2896],[114.23199999999993,22.2896],[114.23199999999993,22.288]]]}},{"type":"Feature","properties":{"id":"lu-eastern-06-00","class":"built_up","vegetationFraction":0.026,"pavedFraction":0.906,"waterFraction":0.037,"simulated":true},"geometry":{"type":"Polygon","coordinates":[[[114.2,22.2896],[114.2016,22.2896],[114.2016,22.2912],[114.2,22.2912],[114.2,22.2896]]]}},{"type":"Feature","properties":{"id":"lu-eastern-06-01","class":"built_up","vegetationFraction":0.048,"pavedFraction":0.934,"waterFraction":0.016,"simulated":true},"geometry":{"type":"Polygon","coordinates":[[[114.2016,22.2896],[114.2032,22.2896],[114.2032,22.2912],[114.2016,22.2912],[114.2016,22.2896]]]}},{"type":"Feature","properties":{"id":"lu-eastern-06-02","class":"built_up","vegetationFraction":0.038,"pavedFraction":0.95,"waterFraction":0.019,"simulated":true},"geometry":{"type":"Polygon","coordinates":[[[114.2032,22.2896],[114.20479999999999,22.2896],[114.20479999999999,22.2912],[114.2032,22.2912],[114.2032,22.2896]]]}},{"type":"Feature","properties":{"id":"lu-eastern-06-03","class":"built_up","vegetationFraction":0.052,"pavedFraction":0.95,"waterFraction":0.053,"simulated":true},"geometry":{"type":"Polygon","coordinates":[[[114.20479999999999,22.2896],[114.20639999999999,22.2896],[114.20639999999999,22.2912],[114.20479999999999,22.2912],[114.20479999999999,22.2896]]]}},{"type":"Feature","properties":{"id":"lu-eastern-06-04","class":"built_up","vegetationFraction":0.042,"pavedFraction":0.95,"waterFraction":0.0,"simulated":true},"geometry":{"type":"Polygon","coordinates":[[[114.20639999999999,22.2896],[114.20799999999998,22.2896],[114.20799999999998,22.2912],[114.20639999999999,22.2912],[114.20639999999999,22.2896]]]}},{"type":"Feature","properties":{"id":"lu-eastern-06-05","class":"built_up","vegetationFraction":0.026,"pavedFraction":0.941,"waterFraction":0.044,"simulated":true},"geometry":{"type":"Polygon","coordinates":[[[114.20799999999998,22.2896],[114.20959999999998,22.2896],[114.20959999999998,22.2912],[114.20799999999998,22.2912],[114.20799999999998,22.2896]]]}},{"type":"Feature","properties":{"id":"lu-eastern-06-06","class":"built_up","vegetationFraction":0.037,"pavedFraction":0.887,"waterFraction":0.054,"simulated":true},"geometry":{"type":"Polygon","coordinates":[[[114.20959999999998,22.2896],[114.21119999999998,22.2896],[114.21119999999998,22.2912],[114.20959999999998,22.2912],[114.20959999999998,22.2896]]]}},{"type":"Feature","properties":{"id":"lu-eastern-06-07","class":"built_up","vegetationFraction":0.028,"pavedFraction":0.95,"waterFraction":0.045,"simulated":true},"geometry":{"type":"Polygon","coordinates":[[[114.21119999999998,22.2896],[114.21279999999997,22.2896],[114.21279999999997,22.2912],[114.21119999999998,22.2912],[114.21119999999998,22.2896]]]}},{"type":"Feature","properties":{"id":"lu-eastern-06-08","class":"built_up","vegetationFraction":0.026,"pavedFraction":0.809,"waterFraction":0.016,"simulated":true},"geometry":{"type":"Polygon","coordinates":[[[114.21279999999997,22.2896],[114.21439999999997,22.2896],[114.21439999999997,22.2912],[114.21279999999997,22.2912],[114.21279999999997,22.2896]]]}},{"type":"Feature","properties":{"id":"lu-eastern-06-09","class":"built_up","vegetationFraction":0.026,"pavedFraction":0.95,"waterFraction":0.013,"simulated":true},"geometry":{"type":"Polygon","coordinates":[[[114.21439999999997,22.2896],[114.21599999999997,22.2896],[114.21599999999997,22.2912],[114.21439999999997,22.2912],[114.21439999999997,22.2896]]]}},{"type":"Feature","properties":{"id":"lu-eastern-06-10","class":"built_up","vegetationFraction":0.053,"pavedFraction":0.841,"waterFraction":0.033,"simulated":true},"geometry":{"type":"Polygon","coordinates":[[[114.21599999999997,22.2896],[114.21759999999996,22.2896],[114.21759999999996,22.2912],[114.21599999999997,22.2912],[114.21599999999997,22.2896]]]}},{"type":"Feature","properties":{"id":"lu-eastern-06-11","class":"built_up","vegetationFraction":0.027,"pavedFraction":0.865,"waterFraction":0.049,"simulated":true},"geometry":{"type":"Polygon","coordinates":[[[114.21759999999996,22.2896],[114.21919999999996,22.2896],[114.21919999999996,22.2912],[114.21759999999996,22.2912],[114.21759999999996,22.2896]]]}},{"type":"Feature","properties":{"id":"lu-eastern-06-12","class":"built_up","vegetationFraction":0.02,"pavedFraction":0.934,"waterFraction":0.059,"simulated":true},"geometry":{"type":"Polygon","coordinates":[[[114.21919999999996,22.2896],[114.22079999999995,22.2896],[114.22079999999995,22.2912],[114.21919999999996,22.2912],[114.21919999999996,22.2896]]]}},{"type":"Feature","properties":{"id":"lu-eastern-06-13","class":"built_up","vegetationFraction":0.047,"pavedFraction":0.95,"waterFraction":0.019,"simulated":true},"geometry":{"type":"Polygon","coordinates":[[[114.22079999999995,22.2896],[114.22239999999995,22.2896],[114.22239999999995,22.2912],[114.22079999999995,22.2912],[114.22079999999995,22.2896]]]}},{"type":"Feature","properties":{"id":"lu-eastern-06-14","class":"built_up","vegetationFraction":0.049,"pavedFraction":0.869,"waterFraction":0.052,"simulated":true},"geometry":{"type":"Polygon","coordinates":[[[114.22239999999995,22.2896],[114.22399999999995,22.2896],[114.22399999999995,22.2912],[114.22239999999995,22.2912],[114.22239999999995,22.2896]]]}},{"type":"Feature","properties":{"id":"lu-eastern-06-15","class":"built_up","vegetationFraction":0.019,"pavedFraction":0.94,"waterFraction":0.051,"simulated":true},"geometry":{"type":"Polygon","coordinates":[[[114.22399999999995,22.2896],[114.22559999999994,22.2896],[114.22559999999994,22.2912],[114.22399999999995,22.2912],[114.22399999999995,22.2896]]]}},{"type":"Feature","properties":{"id":"lu-eastern-06-16","class":"built_up","vegetationFraction":0.044,"pavedFraction":0.95,"waterFraction":0.039,"simulated":true},"geometry":{"type":"Polygon","coordinates":[[[114.22559999999994,22.2896],[114.22719999999994,22.2896],[114.22719999999994,22.2912],[114.22559999999994,22.2912],[114.22559999999994,22.2896]]]}},{"type":"Feature","properties":{"id":"lu-eastern-06-17","class":"built_up","vegetationFraction":0.047,"pavedFraction":0.95,"waterFraction":0.026,"simulated":true},"geometry":{"type":"Polygon","coordinates":[[[114.22719999999994,22.2896],[114.22879999999994,22.2896],[114.22879999999994,22.2912],[114.22719999999994,22.2912],[114.22719999999994,22.2896]]]}},{"type":"Feature","properties":{"id":"lu-eastern-06-18","class":"built_up","vegetationFraction":0.029,"pavedFraction":0.915,"waterFraction":0.031,"simulated":true},"geometry":{"type":"Polygon","coordinates":[[[114.22879999999994,22.2896],[114.23039999999993,22.2896],[114.23039999999993,22.2912],[114.22879999999994,22.2912],[114.22879999999994,22.2896]]]}},{"type":"Feature","properties":{"id":"lu-eastern-06-19","class":"built_up","vegetationFraction":0.018,"pavedFraction":0.901,"waterFraction":0.046,"simulated":true},"geometry":{"type":"Polygon","coordinates":[[[114.23039999999993,22.2896],[114.23199999999993,22.2896],[114.23199999999993,22.2912],[114.23039999999993,22.2912],[114.23039999999993,22.2896]]]}},{"type":"Feature","properties":{"id":"lu-eastern-06-20","class":"built_up","vegetationFraction":0.049,"pavedFraction":0.95,"waterFraction":0.032,"simulated":true},"geometry":{"type":"Polygon","coordinates":[[[114.23199999999993,22.2896],[114.23359999999992,22.2896],[114.23359999999992,22.2912],[114.23199999999993,22.2912],[114.23199999999993,22.2896]]]}},{"type":"Feature","properties":{"id":"lu-eastern-07-00","class":"built_up","vegetationFraction":0.038,"pavedFraction":0.95,"waterFraction":0.023,"simulated":true},"geometry":{"type":"Polygon","coordinates":[[[114.2,22.2912],[114.2016,22.2912],[114.2016,22.2928],[114.2,22.2928],[114.2,22.2912]]]}},{"type":"Feature","properties":{"id":"lu-eastern-07-01","class":"built_up","vegetationFraction":0.043,"pavedFraction":0.95,"waterFraction":0.041,"simulated":true},"geometry":{"type":"Polygon","coordinates":[[[114.2016,22.2912],[114.2032,22.2912],[114.2032,22.2928],[114.2016,22.2928],[114.2016,22.2912]]]}},{"type":"Feature","properties":{"id":"lu-eastern-07-02","class":"built_up","vegetationFraction":0.047,"pavedFraction":0.95,"waterFraction":0.055,"simulated":true},"geometry":{"type":"Polygon","coordinates":[[[114.2032,22.2912],[114.20479999999999,22.2912],[114.20479999999999,22.2928],[114.2032,22.2928],[114.2032,22.2912]]]}},{"type":"Feature","properties":{"id":"lu-eastern-07-03","class":"built_up","vegetationFraction":0.044,"pavedFraction":0.95,"waterFraction":0.007,"simulated":true},"geometry":{"type":"Polygon","coordinates":[[[114.20479999999999,22.2912],[114.20639999999999,22.2912],[114.20639999999999,22.2928],[114.20479999999999,22.2928],[114.20479999999999,22.2912]]]}},{"type":"Feature","properties":{"id":"lu-eastern-07-04","class":"built_up","vegetationFraction":0.041,"pavedFraction":0.812,"waterFraction":0.033,"simulated":true},"geometry":{"type":"Polygon","coordinates":[[[114.20639999999999,22.2912],[114.20799999999998,22.2912],[114.20799999999998,22.2928],[114.20639999999999,22.2928],[114.20639999999999,22.2912]]]}},{"type":"Feature","properties":{"id":"lu-eastern-07-05","class":"built_up","vegetationFraction":0.021,"pavedFraction":0.898,"waterFraction":0.016,"simulated":true},"geometry":{"type":"Polygon","coordinates":[[[114.20799999999998,22.2912],[114.20959999999998,22.2912],[114.20959999999998,22.2928],[114.20799999999998,22.2928],[114.20799999999998,22.2912]]]}},{"type":"Feature","properties":{"id":"lu-eastern-07-06","class":"built_up","vegetationFraction":0.025,"pavedFraction":0.858,"waterFraction":0.03,"simulated":true},"geometry":{"type":"Polygon","coordinates":[[[114.20959999999998,22.2912],[114.21119999999998,22.2912],[114.21119999999998,22.2928],[114.20959999999998,22.2928],[114.20959999999998,22.2912]]]}},{"type":"Feature","properties":{"id":"lu-eastern-07-07","class":"built_up","vegetationFraction":0.018,"pavedFraction":0.827,"waterFraction":0.06,"simulated":true},"geometry":{"type":"Polygon","coordinates":[[[114.21119999999998,22.2912],[114.21279999999997,22.2912],[114.21279999999997,22.2928],[114.21119999999998,22.2928],[114.21119999999998,22.2912]]]}},{"type":"Feature","properties":{"id":"lu-eastern-07-08","class":"built_up","vegetationFraction":0.024,"pavedFraction":0.95,"waterFraction":0.014,"simulated":true},"geometry":{"type":"Polygon","coordinates":[[[114.21279999999997,22.2912],[114.21439999999997,22.2912],[114.21439999999997,22.2928],[114.21279999999997,22.2928],[114.21279999999997,22.2912]]]}},{"type":"Feature","properties":{"id":"lu-eastern-07-09","class":"built_up","vegetationFraction":0.043,"pavedFraction":0.944,"waterFraction":0.013,"simulated":true},"geometry":{"type":"Polygon","coordinates":[[[114.21439999999997,22.2912],[114.21599999999997,22.2912],[114.21599999999997,22.2928],[114.21439999999997,22.2928],[114.21439999999997,22.2912]]]}},{"type":"Feature","properties":{"id":"lu-eastern-07-10","class":"built_up","vegetationFraction":0.031,"pavedFraction":0.95,"waterFraction":0.039,"simulated":true},"geometry":{"type":"Polygon","coordinates":[[[114.21599999999997,22.2912],[114.21759999999996,22.2912],[114.21759999999996,22.2928],[114.21599999999997,22.2928],[114.21599999999997,22.2912]]]}},{"type":"Feature","properties":{"id":"lu-eastern-07-11","class":"built_up","vegetationFraction":0.048,"pavedFraction":0.928,"waterFraction":0.045,"simulated":true},"geometry":{"type":"Polygon","coordinates":[[[114.21759999999996,22.2912],[114.21919999999996,22.2912],[114.21919999999996,22.2928],[114.21759999999996,22.2928],[114.21759999999996,22.2912]]]}},{"type":"Feature","properties":{"id":"lu-eastern-07-12","class":"built_up","vegetationFraction":0.042,"pavedFraction":0.95,"waterFraction":0.057,"simulated":true},"geometry":{"type":"Polygon","coordinates":[[[114.21919999999996,22.2912],[114.22079999999995,22.2912],[114.22079999999995,22.2928],[114.21919999999996,22.2928],[114.21919999999996,22.2912]]]}},{"type":"Feature","properties":{"id":"lu-eastern-07-13","class":"built_up","vegetationFraction":0.049,"pavedFraction":0.916,"waterFraction":0.037,"simulated":true},"geometry":{"type":"Polygon","coordinates":[[[114.22079999999995,22.2912],[114.22239999999995,22.2912],[114.22239999999995,22.2928],[114.22079999999995,22.2928],[114.22079999999995,22.2912]]]}},{"type":"Feature","properties":{"id":"lu-eastern-07-14","class":"built_up","vegetationFraction":0.022,"pavedFraction":0.95,"waterFraction":0.042,"simulated":true},"geometry":{"type":"Polygon","coordinates":[[[114.22239999999995,22.2912],[114.22399999999995,22.2912],[114.22399999999995,22.2928],[114.22239999999995,22.2928],[114.22239999999995,22.2912]]]}},{"type":"Feature","properties":{"id":"lu-eastern-07-15","class":"built_up","vegetationFraction":0.046,"pavedFraction":0.839,"waterFraction":0.0,"simulated":true},"geometry":{"type":"Polygon","coordinates":[[[114.22399999999995,22.2912],[114.22559999999994,22.2912],[114.22559999999994,22.2928],[114.22399999999995,22.2928],[114.22399999999995,22.2912]]]}},{"type":"Feature","properties":{"id":"lu-eastern-07-16","class":"built_up","vegetationFraction":0.025,"pavedFraction":0.947,"waterFraction":0.019,"simulated":true},"geometry":{"type":"Polygon","coordinates":[[[114.22559999999994,22.2912],[114.22719999999994,22.2912],[114.22719999999994,22.2928],[114.22559999999994,22.2928],[114.22559999999994,22.2912]]]}},{"type":"Feature","properties":{"id":"lu-eastern-07-17","class":"built_up","vegetationFraction":0.032,"pavedFraction":0.834,"waterFraction":0.029,"simulated":true},"geometry":{"type":"Polygon","coordinates":[[[114.22719999999994,22.2912],[114.22879999999994,22.2912],[114.22879999999994,22.2928],[114.22719999999994,22.2928],[114.22719999999994,22.2912]]]}},{"type":"Feature","properties":{"id":"lu-eastern-07-18","class":"built_up","vegetationFraction":0.029,"pavedFraction":0.807,"waterFraction":0.025,"simulated":true},"geometry":{"type":"Polygon","coordinates":[[[114.22879999999994,22.2912],[114.23039999999993,22.2912],[114.23039999999993,22.2928],[114.22879999999994,22.2928],[114.22879999999994,22.2912]]]}},{"type":"Feature","properties":{"id":"lu-eastern-07-19","class":"built_up","vegetationFraction":0.023,"pavedFraction":0.95,"waterFraction":0.045,"simulated":true},"geometry":{"type":"Polygon","coordinates":[[[114.23039999999993,22.2912],[114.23199999999993,22.2912],[114.23199999999993,22.2928],[114.23039999999993,22.2928],[114.23039999999993,22.2912]]]}},{"type":"Feature","properties":{"id":"lu-eastern-07-20","class":"built_up","vegetationFraction":0.022,"pavedFraction":0.912,"waterFraction":0.003,"simulated":true},"geometry":{"type":"Polygon","coordinates":[[[114.23199999999993,22.2912],[114.23359999999992,22.2912],[114.23359999999992,22.2928],[114.23199999999993,22.2928],[114.23199999999993,22.2912]]]}},{"type":"Feature","properties":{"id":"lu-eastern-08-00","class":"built_up","vegetationFraction":0.128,"pavedFraction":0.752,"waterFraction":0.04,"simulated":true},"geometry":{"type":"Polygon","coordinates":[[[114.2,22.2928],[114.2016,22.2928],[114.2016,22.2944],[114.2,22.2944],[114.2,22.2928]]]}},{"type":"Feature","properties":{"id":"lu-eastern-08-01","class":"built_up","vegetationFraction":0.163,"pavedFraction":0.794,"waterFraction":0.038,"simulated":true},"geometry":{"type":"Polygon","coordinates":[[[114.2016,22.2928],[114.2032,22.2928],[114.2032,22.2944],[114.2016,22.2944],[114.2016,22.2928]]]}},{"type":"Feature","properties":{"id":"lu-eastern-08-02","class":"built_up","vegetationFraction":0.165,"pavedFraction":0.609,"waterFraction":0.008,"simulated":true},"geometry":{"type":"Polygon","coordinates":[[[114.2032,22.2928],[114.20479999999999,22.2928],[114.20479999999999,22.2944],[114.2032,22.2944],[114.2032,22.2928]]]}},{"type":"Feature","properties":{"id":"lu-eastern-08-03","class":"built_up","vegetationFraction":0.101,"pavedFraction":0.597,"waterFraction":0.012,"simulated":true},"geometry":{"type":"Polygon","coordinates":[[[114.20479999999999,22.2928],[114.20639999999999,22.2928],[114.20639999999999,22.2944],[114.20479999999999,22.2944],[114.20479999999999,22.2928]]]}},{"type":"Feature","properties":{"id":"lu-eastern-08-04","class":"built_up","vegetationFraction":0.143,"pavedFraction":0.811,"waterFraction":0.02,"simulated":true},"geometry":{"type":"Polygon","coordinates":[[[114.20639999999999,22.2928],[114.20799999999998,22.2928],[114.20799999999998,22.2944],[114.20639999999999,22.2944],[114.20639999999999,22.2928]]]}},{"type":"Feature","properties":{"id":"lu-eastern-08-05","class":"built_up","vegetationFraction":0.078,"pavedFraction":0.55,"waterFraction":0.02,"simulated":true},"geometry":{"type":"Polygon","coordinates":[[[114.20799999999998,22.2928],[114.20959999999998,22.2928],[114.20959999999998,22.2944],[114.20799999999998,22.2944],[114.20799999999998,22.2928]]]}},{"type":"Feature","properties":{"id":"lu-eastern-08-06","class":"built_up","vegetationFraction":0.065,"pavedFraction":0.612,"waterFraction":0.011,"simulated":true},"geometry":{"type":"Polygon","coordinates":[[[114.20959999999998,22.2928],[114.21119999999998,22.2928],[114.21119999999998,22.2944],[114.20959999999998,22.2944],[114.20959999999998,22.2928]]]}},{"type":"Feature","properties":{"id":"lu-eastern-08-07","class":"built_up","vegetationFraction":0.081,"pavedFraction":0.715,"waterFraction":0.033,"simulated":true},"geometry":{"type":"Polygon","coordinates":[[[114.21119999999998,22.2928],[114.21279999999997,22.2928],[114.21279999999997,22.2944],[114.21119999999998,22.2944],[114.21119999999998,22.2928]]]}},{"type":"Feature","properties":{"id":"lu-eastern-08-08","class":"built_up","vegetationFraction":0.12,"pavedFraction":0.608,"waterFraction":0.036,"simulated":true},"geometry":{"type":"Polygon","coordinates":[[[114.21279999999997,22.2928],[114.21439999999997,22.2928],[114.21439999999997,22.2944],[114.21279999999997,22.2944],[114.21279999999997,22.2928]]]}},{"type":"Feature","properties":{"id":"lu-eastern-08-09","class":"built_up","vegetationFraction":0.114,"pavedFraction":0.605,"waterFraction":0.003,"simulated":true},"geometry":{"type":"Polygon","coordinates":[[[114.21439999999997,22.2928],[114.21599999999997,22.2928],[114.21599999999997,22.2944],[114.21439999999997,22.2944],[114.21439999999997,22.2928]]]}},{"type":"Feature","properties":{"id":"lu-eastern-08-10","class":"built_up","vegetationFraction":0.07,"pavedFraction":0.725,"waterFraction":0.059,"simulated":true},"geometry":{"type":"Polygon","coordinates":[[[114.21599999999997,22.2928],[114.21759999999996,22.2928],[114.21759999999996,22.2944],[114.21599999999997,22.2944],[114.21599999999997,22.2928]]]}},{"type":"Feature","properties":{"id":"lu-eastern-08-11","class":"built_up","vegetationFraction":0.133,"pavedFraction":0.752,"waterFraction":0.024,"simulated":true},"geometry":{"type":"Polygon","coordinates":[[[114.21759999999996,22.2928],[114.21919999999996,22.2928],[114.21919999999996,22.2944],[114.21759999999996,22.2944],[114.21759999999996,22.2928]]]}},{"type":"Feature","properties":{"id":"lu-eastern-08-12","class":"built_up","vegetationFraction":0.158,"pavedFraction":0.63,"waterFraction":0.056,"simulated":true},"geometry":{"type":"Polygon","coordinates":[[[114.21919999999996,22.2928],[114.22079999999995,22.2928],[114.22079999999995,22.2944],[114.21919999999996,22.2944],[114.21919999999996,22.2928]]]}},{"type":"Feature","properties":{"id":"lu-eastern-08-13","class":"built_up","vegetationFraction":0.153,"pavedFraction":0.811,"waterFraction":0.024,"simulated":true},"geometry":{"type":"Polygon","coordinates":[[[114.22079999999995,22.2928],[114.22239999999995,22.2928],[114.22239999999995,22.2944],[114.22079999999995,22.2944],[114.22079999999995,22.2928]]]}},{"type":"Feature","properties":{"id":"lu-eastern-08-14","class":"built_up","vegetationFraction":0.063,"pavedFraction":0.771,"waterFraction":0.041,"simulated":true},"geometry":{"type":"Polygon","coordinates":[[[114.22239999999995,22.2928],[114.22399999999995,22.2928],[114.22399999999995,22.2944],[114.22239999999995,22.2944],[114.22239999999995,22.2928]]]}},{"type":"Feature","properties":{"id":"lu-eastern-08-15","class":"built_up","vegetationFraction":0.141,"pavedFraction":0.695,"waterFraction":0.056,"simulated":true},"geometry":{"type":"Polygon","coordinates":[[[114.22399999999995,22.2928],[114.22559999999994,22.2928],[114.22559999999994,22.2944],[114.22399999999995,22.2944],[114.22399999999995,22.2928]]]}},{"type":"Feature","properties":{"id":"lu-eastern-08-16","class":"built_up","vegetationFraction":0.095,"pavedFraction":0.585,"waterFraction":0.056,"simulated":true},"geometry":{"type":"Polygon","coordinates":[[[114.22559999999994,22.2928],[114.22719999999994,22.2928],[114.22719999999994,22.2944],[114.22559999999994,22.2944],[114.22559999999994,22.2928]]]}},{"type":"Feature","properties":{"id":"lu-eastern-08-17","class":"built_up","vegetationFraction":0.07,"pavedFraction":0.676,"waterFraction":0.02,"simulated":true},"geometry":{"type":"Polygon","coordinates":[[[114.22719999999994,22.2928],[114.22879999999994,22.2928],[114.22879999999994,22.2944],[114.22719999999994,22.2944],[114.22719999999994,22.2928]]]}},{"type":"Feature","properties":{"id":"lu-eastern-08-18","class":"built_up","vegetationFraction":0.061,"pavedFraction":0.555,"waterFraction":0.002,"simulated":true},"geometry":{"type":"Polygon","coordinates":[[[114.22879999999994,22.2928],[114.23039999999993,22.2928],[114.23039999999993,22.2944],[114.22879999999994,22.2944],[114.22879999999994,22.2928]]]}},{"type":"Feature","properties":{"id":"lu-eastern-08-19","class":"built_up","vegetationFraction":0.075,"pavedFraction":0.846,"waterFraction":0.004,"simulated":true},"geometry":{"type":"Polygon","coordinates":[[[114.23039999999993,22.2928],[114.23199999999993,22.2928],[114.23199999999993,22.2944],[114.23039999999993,22.2944],[114.23039999999993,22.2928]]]}},{"type":"Feature","properties":{"id":"lu-eastern-08-20","class":"built_up","vegetationFraction":0.121,"pavedFraction":0.635,"waterFraction":0.02,"simulated":true},"geometry":{"type":"Polygon","coordinates":[[[114.23199999999993,22.2928],[114.23359999999992,22.2928],[114.23359999999992,22.2944],[114.23199999999993,22.2944],[114.23199999999993,22.2928]]]}},{"type":"Feature","properties":{"id":"lu-eastern-09-00","class":"built_up","vegetationFraction":0.073,"pavedFraction":0.59,"waterFraction":0.05,"simulated":true},"geometry":{"type":"Polygon","coordinates":[[[114.2,22.2944],[114.2016,22.2944],[114.2016,22.296],[114.2,22.296],[114.2,22.2944]]]}},{"type":"Feature","properties":{"id":"lu-eastern-09-01","class":"built_up","vegetationFraction":0.174,"pavedFraction":0.812,"waterFraction":0.054,"simulated":true},"geometry":{"type":"Polygon","coordinates":[[[114.2016,22.2944],[114.2032,22.2944],[114.2032,22.296],[114.2016,22.296],[114.2016,22.2944]]]}},{"type":"Feature","properties":{"id":"lu-eastern-09-02","class":"built_up","vegetationFraction":0.125,"pavedFraction":0.602,"waterFraction":0.016,"simulated":true},"geometry":{"type":"Polygon","coordinates":[[[114.2032,22.2944],[114.20479999999999,22.2944],[114.20479999999999,22.296],[114.2032,22.296],[114.2032,22.2944]]]}},{"type":"Feature","properties":{"id":"lu-eastern-09-03","class":"built_up","vegetationFraction":0.084,"pavedFraction":0.724,"waterFraction":0.048,"simulated":true},"geometry":{"type":"Polygon","coordinates":[[[114.20479999999999,22.2944],[114.20639999999999,22.2944],[114.20639999999999,22.296],[114.20479999999999,22.296],[114.20479999999999,22.2944]]]}},{"type":"Feature","properties":{"id":"lu-eastern-09-04","class":"built_up","vegetationFraction":0.17,"pavedFraction":0.666,"waterFraction":0.055,"simulated":true},"geometry":{"type":"Polygon","coordinates":[[[114.20639999999999,22.2944],[114.20799999999998,22.2944],[114.20799999999998,22.296],[114.20639999999999,22.296],[114.20639999999999,22.2944]]]}},{"type":"Feature","properties":{"id":"lu-eastern-09-05","class":"built_up","vegetationFraction":0.123,"pavedFraction":0.828,"waterFraction":0.04,"simulated":true},"geometry":{"type":"Polygon","coordinates":[[[114.20799999999998,22.2944],[114.20959999999998,22.2944],[114.20959999999998,22.296],[114.20799999999998,22.296],[114.20799999999998,22.2944]]]}},{"type":"Feature","properties":{"id":"lu-eastern-09-06","class":"built_up","vegetationFraction":0.148,"pavedFraction":0.737,"waterFraction":0.035,"simulated":true},"geometry":{"type":"Polygon","coordinates":[[[114.20959999999998,22.2944],[114.21119999999998,22.2944],[114.21119999999998,22.296],[114.20959999999998,22.296],[114.20959999999998,22.2944]]]}},{"type":"Feature","properties":{"id":"lu-eastern-09-07","class":"built_up","vegetationFraction":0.162,"pavedFraction":0.614,"waterFraction":0.041,"simulated":true},"geometry":{"type":"Polygon","coordinates":[[[114.21119999999998,22.2944],[114.21279999999997,22.2944],[114.21279999999997,22.296],[114.21119999999998,22.296],[114.21119999999998,22.2944]]]}},{"type":"Feature","properties":{"id":"lu-eastern-09-08","class":"built_up","vegetationFraction":0.172,"pavedFraction":0.794,"waterFraction":0.009,"simulated":true},"geometry":{"type":"Polygon","coordinates":[[[114.21279999999997,22.2944],[114.21439999999997,22.2944],[114.21439999999997,22.296],[114.21279999999997,22.296],[114.21279999999997,22.2944]]]}},{"type":"Feature","properties":{"id":"lu-eastern-09-09","class":"built_up","vegetationFraction":0.134,"pavedFraction":0.664,"waterFraction":0.048,"simulated":true},"geometry":{"type":"Polygon","coordinates":[[[114.21439999999997,22.2944],[114.21599999999997,22.2944],[114.21599999999997,22.296],[114.21439999999997,22.296],[114.21439999999997,22.2944]]]}},{"type":"Feature","properties":{"id":"lu-eastern-09-10","class":"built_up","vegetationFraction":0.132,"pavedFraction":0.729,"waterFraction":0.042,"simulated":true},"geometry":{"type":"Polygon","coordinates":[[[114.21599999999997,22.2944],[114.21759999999996,22.2944],[114.21759999999996,22.296],[114.21599999999997,22.296],[114.21599999999997,22.2944]]]}},{"type":"Feature","properties":{"id":"lu-eastern-09-11","class":"built_up","vegetationFraction":0.113,"pavedFraction":0.764,"waterFraction":0.0,"simulated":true},"geometry":{"type":"Polygon","coordinates":[[[114.21759999999996,22.2944],[114.21919999999996,22.2944],[114.21919999999996,22.296],[114.21759999999996,22.296],[114.21759999999996,22.2944]]]}},{"type":"Feature","properties":{"id":"lu-eastern-09-12","class":"built_up","vegetationFraction":0.154,"pavedFraction":0.635,"waterFraction":0.039,"simulated":true},"geometry":{"type":"Polygon","coordinates":[[[114.21919999999996,22.2944],[114.22079999999995,22.2944],[114.22079999999995,22.296],[114.21919999999996,22.296],[114.21919999999996,22.2944]]]}},{"type":"Feature","properties":{"id":"lu-eastern-09-13","class":"built_up","vegetationFraction":0.154,"pavedFraction":0.729,"waterFraction":0.0,"simulated":true},"geometry":{"type":"Polygon","coordinates":[[[114.22079999999995,22.2944],[114.22239999999995,22.2944],[114.22239999999995,22.296],[114.22079999999995,22.296],[114.22079999999995,22.2944]]]}},{"type":"Feature","properties":{"id":"lu-eastern-09-14","class":"built_up","vegetationFraction":0.067,"pavedFraction":0.743,"waterFraction":0.052,"simulated":true},"geometry":{"type":"Polygon","coordinates":[[[114.22239999999995,22.2944],[114.22399999999995,22.2944],[114.22399999999995,22.296],[114.22239999999995,22.296],[114.22239999999995,22.2944]]]}},{"type":"Feature","properties":{"id":"lu-eastern-09-15","class":"built_up","vegetationFraction":0.104,"pavedFraction":0.824,"waterFraction":0.03,"simulated":true},"geometry":{"type":"Polygon","coordinates":[[[114.22399999999995,22.2944],[114.22559999999994,22.2944],[114.22559999999994,22.296],[114.22399999999995,22.296],[114.22399999999995,22.2944]]]}},{"type":"Feature","properties":{"id":"lu-eastern-09-16","class":"built_up","vegetationFraction":0.156,"pavedFraction":0.836,"waterFraction":0.009,"simulated":true},"geometry":{"type":"Polygon","coordinates":[[[114.22559999999994,22.2944],[114.22719999999994,22.2944],[114.22719999999994,22.296],[114.22559999999994,22.296],[114.22559999999994,22.2944]]]}},{"type":"Feature","properties":{"id":"lu-eastern-09-17","class":"built_up","vegetationFraction":0.146,"pavedFraction":0.642,"waterFraction":0.048,"simulated":true},"geometry":{"type":"Polygon","coordinates":[[[114.22719999999994,22.2944],[114.22879999999994,22.2944],[114.22879999999994,22.296],[114.22719999999994,22.296],[114.22719999999994,22.2944]]]}},{"type":"Feature","properties":{"id":"lu-eastern-09-18","class":"built_up","vegetationFraction":0.077,"pavedFraction":0.818,"waterFraction":0.043,"simulated":true},"geometry":{"type":"Polygon","coordinates":[[[114.22879999999994,22.2944],[114.23039999999993,22.2944],[114.23039999999993,22.296],[114.22879999999994,22.296],[114.22879999999994,22.2944]]]}},{"type":"Feature","properties":{"id":"lu-eastern-09-19","class":"built_up","vegetationFraction":0.12,"pavedFraction":0.551,"waterFraction":0.03,"simulated":true},"geometry":{"type":"Polygon","coordinates":[[[114.23039999999993,22.2944],[114.23199999999993,22.2944],[114.23199999999993,22.296],[114.23039999999993,22.296],[114.23039999999993,22.2944]]]}},{"type":"Feature","properties":{"id":"lu-eastern-09-20","class":"built_up","vegetationFraction":0.07,"pavedFraction":0.785,"waterFraction":0.006,"simulated":true},"geometry":{"type":"Polygon","coordinates":[[[114.23199999999993,22.2944],[114.23359999999992,22.2944],[114.23359999999992,22.296],[114.23199999999993,22.296],[114.23199999999993,22.2944]]]}}]}