{"type":"FeatureCollection","features":[{"type":"Feature","properties":{"id":"lu-kowloon-sham-shui-po-00-00","class":"built_up","vegetationFraction":0.113,"pavedFraction":0.769,"waterFraction":0.028,"simulated":true},"geometry":{"type":"Polygon","coordinates":[[[114.148,22.328],[114.14959999999999,22.328],[114.14959999999999,22.3296],[114.148,22.3296],[114.148,22.328]]]}},{"type":"Feature","properties":{"id":"lu-kowloon-sham-shui-po-00-01","class":"built_up","vegetationFraction":0.102,"pavedFraction":0.588,"waterFraction":0.043,"simulated":true},"geometry":{"type":"Polygon","coordinates":[[[114.14959999999999,22.328],[114.15119999999999,22.328],[114.15119999999999,22.3296],[114.14959999999999,22.3296],[114.14959999999999,22.328]]]}},{"type":"Feature","properties":{"id":"lu-kowloon-sham-shui-po-00-02","class":"built_up","vegetationFraction":0.096,"pavedFraction":0.782,"waterFraction":0.047,"simulated":true},"geometry":{"type":"Polygon","coordinates":[[[114.15119999999999,22.328],[114.15279999999998,22.328],[114.15279999999998,22.3296],[114.15119999999999,22.3296],[114.15119999999999,22.328]]]}},{"type":"Feature","properties":{"id":"lu-kowloon-sham-shui-po-00-03","class":"built_up","vegetationFraction":0.137,"pavedFraction":0.565,"waterFraction":0.01,"simulated":true},"geometry":{"type":"Polygon","coordinates":[[[114.15279999999998,22.328],[114.15439999999998,22.328],[114.15439999999998,22.3296],[114.15279999999998,22.3296],[114.15279999999998,22.328]]]}},{"type":"Feature","properties":{"id":"lu-kowloon-sham-shui-po-00-04","class":"built_up","vegetationFraction":0.068,"pavedFraction":0.661,"waterFraction":0.057,"simulated":true},"geometry":{"type":"Polygon","coordinates":[[[114.15439999999998,22.328],[114.15599999999998,22.328],[114.15599999999998,22.3296],[114.15439999999998,22.3296],[114.15439999999998,22.328]]]}},{"type":"Feature","properties":{"id":"lu-kowloon-sham-shui-po-00-05","class":"built_up","vegetationFraction":0.066,"pavedFraction":0.617,"waterFraction":0.057,"simulated":true},"geometry":{"type":"Polygon","coordinates":[[[114.15599999999998,22.328],[114.15759999999997,22.328],[114.15759999999997,22.3296],[114.15599999999998,22.3296],[114.15599999999998,22.328]]]}},{"type":"Feature","properties":{"id":"lu-kowloon-sham-shui-po-00-06","class":"built_up","vegetationFraction":0.099,"pavedFraction":0.823,"waterFraction":0.006,"simulated":true},"geometry":{"type":"Polygon","coordinates":[[[114.15759999999997,22.328],[114.15919999999997,22.328],[114.15919999999997,22.3296],[114.15759999999997,22.3296],[114.15759999999997,22.328]]]}},{"type":"Feature","properties":{"id":"lu-kowloon-sham-shui-po-00-07","class":"built_up","vegetationFraction":0.116,"pavedFraction":0.838,"waterFraction":0.036,"simulated":true},"geometry":{"type":"Polygon","coordinates":[[[114.15919999999997,22.328],[114.16079999999997,22.328],[114.16079999999997,22.3296],[114.15919999999997,22.3296],[114.15919999999997,22.328]]]}},{"type":"Feature","properties":{"id":"lu-kowloon-sham-shui-po-00-08","class":"built_up","vegetationFraction":0.163,"pavedFraction":0.754,"waterFraction":0.042,"simulated":true},"geometry":{"type":"Polygon","coordinates":[[[114.16079999999997,22.328],[114.16239999999996,22.328],[114.16239999999996,22.3296],[114.16079999999997,22.3296],[114.16079999999997,22.328]]]}},{"type":"Feature","properties":{"id":"lu-kowloon-sham-shui-po-00-09","class":"built_up","vegetationFraction":0.108,"pavedFraction":0.606,"waterFraction":0.025,"simulated":true},"geometry":{"type":"Polygon","coordinates":[[[114.16239999999996,22.328],[114.16399999999996,22.328],[114.16399999999996,22.3296],[114.16239999999996,22.3296],[114.16239999999996,22.328]]]}},{"type":"Feature","properties":{"id":"lu-kowloon-sham-shui-po-00-10","class":"built_up","vegetationFraction":0.097,"pavedFraction":0.577,"waterFraction":0.04,"simulated":true},"geometry":{"type":"Polygon","coordinates":[[[114.16399999999996,22.328],[114.16559999999996,22.328],[114.16559999999996,22.3296],[114.16399999999996,22.3296],[114.16399999999996,22.328]]]}},{"type":"Feature","properties":{"id":"lu-kowloon-sham-shui-po-00-11","class":"built_up","vegetationFraction":0.11,"pavedFraction":0.634,"waterFraction":0.041,"simulated":true},"geometry":{"type":"Polygon","coordinates":[[[114.16559999999996,22.328],[114.16719999999995,22.328],[114.16719999999995,22.3296],[114.16559999999996,22.3296],[114.16559999999996,22.328]]]}},{"type":"Feature","properties":{"id":"lu-kowloon-sham-shui-po-00-12","class":"built_up","vegetationFraction":0.157,"pavedFraction":0.817,"waterFraction":0.058,"simulated":true},"geometry":{"type":"Polygon","coordinates":[[[114.16719999999995,22.328],[114.16879999999995,22.328],[114.16879999999995,22.3296],[114.16719999999995,22.3296],[114.16719999999995,22.328]]]}},{"type":"Feature","properties":{"id":"lu-kowloon-sham-shui-po-01-00","class":"built_up","vegetationFraction":0.083,"pavedFraction":0.694,"waterFraction":0.04,"simulated":true},"geometry":{"type":"Polygon","coordinates":[[[114.148,22.3296],[114.14959999999999,22.3296],[114.14959999999999,22.3312],[114.148,22.3312],[114.148,22.3296]]]}},{"type":"Feature","properties":{"id":"lu-kowloon-sham-shui-po-01-01","class":"built_up","vegetationFraction":0.174,"pavedFraction":0.576,"waterFraction":0.006,"simulated":true},"geometry":{"type":"Polygon","coordinates":[[[114.14959999999999,22.3296],[114.15119999999999,22.3296],[114.15119999999999,22.3312],[114.14959999999999,22.3312],[114.14959999999999,22.3296]]]}},{"type":"Feature","properties":{"id":"lu-kowloon-sham-shui-po-01-02","class":"built_up","vegetationFraction":0.164,"pavedFraction":0.619,"waterFraction":0.015,"simulated":true},"geometry":{"type":"Polygon","coordinates":[[[114.15119999999999,22.3296],[114.15279999999998,22.3296],[114.15279999999998,22.3312],[114.15119999999999,22.3312],[114.15119999999999,22.3296]]]}},{"type":"Feature","properties":{"id":"lu-kowloon-sham-shui-po-01-03","class":"built_up","vegetationFraction":0.084,"pavedFraction":0.844,"waterFraction":0.039,"simulated":true},"geometry":{"type":"Polygon","coordinates":[[[114.15279999999998,22.3296],[114.15439999999998,22.3296],[114.15439999999998,22.3312],[114.15279999999998,22.3312],[114.15279999999998,22.3296]]]}},{"type":"Feature","properties":{"id":"lu-kowloon-sham-shui-po-01-04","class":"built_up","vegetationFraction":0.171,"pavedFraction":0.722,"waterFraction":0.019,"simulated":true},"geometry":{"type":"Polygon","coordinates":[[[114.15439999999998,22.3296],[114.15599999999998,22.3296],[114.15599999999998,22.3312],[114.15439999999998,22.3312],[114.15439999999998,22.3296]]]}},{"type":"Feature","properties":{"id":"lu-kowloon-sham-shui-po-01-05","class":"built_up","vegetationFraction":0.112,"pavedFraction":0.626,"waterFraction":0.059,"simulated":true},"geometry":{"type":"Polygon","coordinates":[[[114.15599999999998,22.3296],[114.15759999999997,22.3296],[114.15759999999997,22.3312],[114.15599999999998,22.3312],[114.15599999999998,22.3296]]]}},{"type":"Feature","properties":{"id":"lu-kowloon-sham-shui-po-01-06","class":"built_up","vegetationFraction":0.175,"pavedFraction":0.722,"waterFraction":0.041,"simulated":true},"geometry":{"type":"Polygon","coordinates":[[[114.15759999999997,22.3296],[114.15919999999997,22.3296],[114.15919999999997,22.3312],[114.15759999999997,22.3312],[114.15759999999997,22.3296]]]}},{"type":"Feature","properties":{"id":"lu-kowloon-sham-shui-po-01-07","class":"built_up","vegetationFraction":0.098,"pavedFraction":0.765,"waterFraction":0.03,"simulated":true},"geometry":{"type":"Polygon","coordinates":[[[114.15919999999997,22.3296],[114.16079999999997,22.3296],[114.16079999999997,22.3312],[114.15919999999997,22.3312],[114.15919999999997,22.3296]]]}},{"type":"Feature","properties":{"id":"lu-kowloon-sham-shui-po-01-08","class":"built_up","vegetationFraction":0.097,"pavedFraction":0.65,"waterFraction":0.059,"simulated":true},"geometry":{"type":"Polygon","coordinates":[[[114.16079999999997,22.3296],[114.16239999999996,22.3296],[114.16239999999996,22.3312],[114.16079999999997,22.3312],[114.16079999999997,22.3296]]]}},{"type":"Feature","properties":{"id":"lu-kowloon-sham-shui-po-01-09","class":"built_up","vegetationFraction":0.157,"pavedFraction":0.832,"waterFraction":0.032,"simulated":true},"geometry":{"type":"Polygon","coordinates":[[[114.16239999999996,22.3296],[114.16399999999996,22.3296],[114.16399999999996,22.3312],[114.16239999999996,22.3312],[114.16239999999996,22.3296]]]}},{"type":"Feature","properties":{"id":"lu-kowloon-sham-shui-po-01-10","class":"built_up","vegetationFraction":0.149,"pavedFraction":0.642,"waterFraction":0.012,"simulated":true},"geometry":{"type":"Polygon","coordinates":[[[114.16399999999996,22.3296],[114.16559999999996,22.3296],[114.16559999999996,22.3312],[114.16399999999996,22.3312],[114.16399999999996,22.3296]]]}},{"type":"Feature","properties":{"id":"lu-kowloon-sham-shui-po-01-11","class":"built_up","vegetationFraction":0.167,"pavedFraction":0.656,"waterFraction":0.059,"simulated":true},"geometry":{"type":"Polygon","coordinates":[[[114.16559999999996,22.3296],[114.16719999999995,22.3296],[114.16719999999995,22.3312],[114.16559999999996,22.3312],[114.16559999999996,22.3296]]]}},{"type":"Feature","properties":{"id":"lu-kowloon-sham-shui-po-01-12","class":"built_up","vegetationFraction":0.126,"pavedFraction":0.776,"waterFraction":0.001,"simulated":true},"geometry":{"type":"Polygon","coordinates":[[[114.16719999999995,22.3296],[114.16879999999995,22.3296],[114.16879999999995,22.3312],[114.16719999999995,22.3312],[114.16719999999995,22.3296]]]}},{"type":"Feature","properties":{"id":"lu-kowloon-sham-shui-po-02-00","class":"built_up","vegetationFraction":0.125,"pavedFraction":0.578,"waterFraction":0.017,"simulated":true},"geometry":{"type":"Polygon","coordinates":[[[114.148,22.3312],[114.14959999999999,22.3312],[114.14959999999999,22.3328],[114.148,22.3328],[114.148,22.3312]]]}},{"type":"Feature","properties":{"id":"lu-kowloon-sham-shui-po-02-01","class":"built_up","vegetationFraction":0.118,"pavedFraction":0.758,"waterFraction":0.05,"simulated":true},"geometry":{"type":"Polygon","coordinates":[[[114.14959999999999,22.3312],[114.15119999999999,22.3312],[114.15119999999999,22.3328],[114.14959999999999,22.3328],[114.14959999999999,22.3312]]]}},{"type":"Feature","properties":{"id":"lu-kowloon-sham-shui-po-02-02","class":"built_up","vegetationFraction":0.113,"pavedFraction":0.578,"waterFraction":0.012,"simulated":true},"geometry":{"type":"Polygon","coordinates":[[[114.15119999999999,22.3312],[114.15279999999998,22.3312],[114.15279999999998,22.3328],[114.15119999999999,22.3328],[114.15119999999999,22.3312]]]}},{"type":"Feature","properties":{"id":"lu-kowloon-sham-shui-po-02-03","class":"built_up","vegetationFraction":0.137,"pavedFraction":0.756,"waterFraction":0.004,"simulated":true},"geometry":{"type":"Polygon","coordinates":[[[114.15279999999998,22.3312],[114.15439999999998,22.3312],[114.15439999999998,22.3328],[114.15279999999998,22.3328],[114.15279999999998,22.3312]]]}},{"type":"Feature","properties":{"id":"lu-kowloon-sham-shui-po-02-04","class":"built_up","vegetationFraction":0.108,"pavedFraction":0.775,"waterFraction":0.006,"simulated":true},"geometry":{"type":"Polygon","coordinates":[[[114.15439999999998,22.3312],[114.15599999999998,22.3312],[114.15599999999998,22.3328],[114.15439999999998,22.3328],[114.15439999999998,22.3312]]]}},{"type":"Feature","properties":{"id":"lu-kowloon-sham-shui-po-02-05","class":"built_up","vegetationFraction":0.068,"pavedFraction":0.834,"waterFraction":0.054,"simulated":true},"geometry":{"type":"Polygon","coordinates":[[[114.15599999999998,22.3312],[114.15759999999997,22.3312],[114.15759999999997,22.3328],[114.15599999999998,22.3328],[114.15599999999998,22.3312]]]}},{"type":"Feature","properties":{"id":"lu-kowloon-sham-shui-po-02-06","class":"built_up","vegetationFraction":0.131,"pavedFraction":0.77,"waterFraction":0.002,"simulated":true},"geometry":{"type":"Polygon","coordinates":[[[114.15759999999997,22.3312],[114.15919999999997,22.3312],[114.15919999999997,22.3328],[114.15759999999997,22.3328],[114.15759999999997,22.3312]]]}},{"type":"Feature","properties":{"id":"lu-kowloon-sham-shui-po-02-07","class":"built_up","vegetationFraction":0.138,"pavedFraction":0.674,"waterFraction":0.016,"simulated":true},"geometry":{"type":"Polygon","coordinates":[[[114.15919999999997,22.3312],[114.16079999999997,22.3312],[114.16079999999997,22.3328],[114.15919999999997,22.3328],[114.15919999999997,22.3312]]]}},{"type":"Feature","properties":{"id":"lu-kowloon-sham-shui-po-02-08","class":"built_up","vegetationFraction":0.091,"pavedFraction":0.646,"waterFraction":0.045,"simulated":true},"geometry":{"type":"Polygon","coordinates":[[[114.16079999999997,22.3312],[114.16239999999996,22.3312],[114.16239999999996,22.3328],[114.16079999999997,22.3328],[114.16079999999997,22.3312]]]}},{"type":"Feature","properties":{"id":"lu-kowloon-sham-shui-po-02-09","class":"built_up","vegetationFraction":0.1,"pavedFraction":0.563,"waterFraction":0.014,"simulated":true},"geometry":{"type":"Polygon","coordinates":[[[114.16239999999996,22.3312],[114.16399999999996,22.3312],[114.16399999999996,22.3328],[114.16239999999996,22.3328],[114.16239999999996,22.3312]]]}},{"type":"Feature","properties":{"id":"lu-kowloon-sham-shui-po-02-10","class":"built_up","vegetationFraction":0.09,"pavedFraction":0.601,"waterFraction":0.056,"simulated":true},"geometry":{"type":"Polygon","coordinates":[[[114.16399999999996,22.3312],[114.16559999999996,22.3312],[114.16559999999996,22.3328],[114.16399999999996,22.3328],[114.16399999999996,22.3312]]]}},{"type":"Feature","properties":{"id":"lu-kowloon-sham-shui-po-02-11","class":"built_up","vegetationFraction":0.078,"pavedFraction":0.778,"waterFraction":0.044,"simulated":true},"geometry":{"type":"Polygon","coordinates":[[[114.16559999999996,22.3312],[114.16719999999995,22.3312],[114.16719999999995,22.3328],[114.16559999999996,22.3328],[114.16559999999996,22.3312]]]}},{"type":"Feature","properties":{"id":"lu-kowloon-sham-shui-po-02-12","class":"built_up","vegetationFraction":0.077,"pavedFraction":0.721,"waterFraction":0.043,"simulated":true},"geometry":{"type":"Polygon","coordinates":[[[114.16719999999995,22.3312],[114.16879999999995,22.3312],[114.16879999999995,22.3328],[114.16719999999995,22.3328],[114.16719999999995,22.3312]]]}},{"type":"Feature","properties":{"id":"lu-kowloon-sham-shui-po-03-00","class":"built_up","vegetationFraction":0.095,"pavedFraction":0.821,"waterFraction":0.017,"simulated":true},"geometry":{"type":"Polygon","coordinates":[[[114.148,22.3328],[114.14959999999999,22.3328],[114.14959999999999,22.3344],[114.148,22.3344],[114.148,22.3328]]]}},{"type":"Feature","properties":{"id":"lu-kowloon-sham-shui-po-03-01","class":"built_up","vegetationFraction":0.075,"pavedFraction":0.739,"waterFraction":0.035,"simulated":true},"geometry":{"type":"Polygon","coordinates":[[[114.14959999999999,22.3328],[114.15119999999999,22.3328],[114.15119999999999,22.3344],[114.14959999999999,22.3344],[114.14959999999999,22.3328]]]}},{"type":"Feature","properties":{"id":"lu-kowloon-sham-shui-po-03-02","class":"built_up","vegetationFraction":0.126,"pavedFraction":0.701,"waterFraction":0.024,"simulated":true},"geometry":{"type":"Polygon","coordinates":[[[114.15119999999999,22.3328],[114.15279999999998,22.3328],[114.15279999999998,22.3344],[114.15119999999999,22.3344],[114.15119999999999,22.3328]]]}},{"type":"Feature","properties":{"id":"lu-kowloon-sham-shui-po-03-03","class":"built_up","vegetationFraction":0.069,"pavedFraction":0.59,"waterFraction":0.033,"simulated":true},"geometry":{"type":"Polygon","coordinates":[[[114.15279999999998,22.3328],[114.15439999999998,22.3328],[114.15439999999998,22.3344],[114.15279999999998,22.3344],[114.15279999999998,22.3328]]]}},{"type":"Feature","properties":{"id":"lu-kowloon-sham-shui-po-03-04","class":"built_up","vegetationFraction":0.108,"pavedFraction":0.789,"waterFraction":0.037,"simulated":true},"geometry":{"type":"Polygon","coordinates":[[[114.15439999999998,22.3328],[114.15599999999998,22.3328],[114.15599999999998,22.3344],[114.15439999999998,22.3344],[114.15439999999998,22.3328]]]}},{"type":"Feature","properties":{"id":"lu-kowloon-sham-shui-po-03-05","class":"built_up","vegetationFraction":0.102,"pavedFraction":0.743,"waterFraction":0.043,"simulated":true},"geometry":{"type":"Polygon","coordinates":[[[114.15599999999998,22.3328],[114.15759999999997,22.3328],[114.15759999999997,22.3344],[114.15599999999998,22.3344],[114.15599999999998,22.3328]]]}},{"type":"Feature","properties":{"id":"lu-kowloon-sham-shui-po-03-06","class":"built_up","vegetationFraction":0.076,"pavedFraction":0.598,"waterFraction":0.028,"simulated":true},"geometry":{"type":"Polygon","coordinates":[[[114.15759999999997,22.3328],[114.15919999999997,22.3328],[114.15919999999997,22.3344],[114.15759999999997,22.3344],[114.15759999999997,22.3328]]]}},{"type":"Feature","properties":{"id":"lu-kowloon-sham-shui-po-03-07","class":"built_up","vegetationFraction":0.173,"pavedFraction":0.668,"waterFraction":0.026,"simulated":true},"geometry":{"type":"Polygon","coordinates":[[[114.15919999999997,22.3328],[114.16079999999997,22.3328],[114.16079999999997,22.3344],[114.15919999999997,22.3344],[114.15919999999997,22.3328]]]}},{"type":"Feature","properties":{"id":"lu-kowloon-sham-shui-po-03-08","class":"built_up","vegetationFraction":0.135,"pavedFraction":0.695,"waterFraction":0.025,"simulated":true},"geometry":{"type":"Polygon","coordinates":[[[114.16079999999997,22.3328],[114.16239999999996,22.3328],[114.16239999999996,22.3344],[114.16079999999997,22.3344],[114.16079999999997,22.3328]]]}},{"type":"Feature","properties":{"id":"lu-kowloon-sham-shui-po-03-09","class":"built_up","vegetationFraction":0.123,"pavedFraction":0.756,"waterFraction":0.06,"simulated":true},"geometry":{"type":"Polygon","coordinates":[[[114.16239999999996,22.3328],[114.16399999999996,22.3328],[114.16399999999996,22.3344],[114.16239999999996,22.3344],[114.16239999999996,22.3328]]]}},{"type":"Feature","properties":{"id":"lu-kowloon-sham-shui-po-03-10","class":"built_up","vegetationFraction":0.143,"pavedFraction":0.73,"waterFraction":0.021,"simulated":true},"geometry":{"type":"Polygon","coordinates":[[[114.16399999999996,22.3328],[114.16559999999996,22.3328],[114.16559999999996,22.3344],[114.16399999999996,22.3344],[114.16399999999996,22.3328]]]}},{"type":"Feature","properties":{"id":"lu-kowloon-sham-shui-po-03-11","class":"built_up","vegetationFraction":0.077,"pavedFraction":0.763,"waterFraction":0.019,"simulated":true},"geometry":{"type":"Polygon","coordinates":[[[114.16559999999996,22.3328],[114.16719999999995,22.3328],[114.16719999999995,22.3344],[114.16559999999996,22.3344],[114.16559999999996,22.3328]]]}},{"type":"Feature","properties":{"id":"lu-kowloon-sham-shui-po-03-12","class":"built_up","vegetationFraction":0.086,"pavedFraction":0.679,"waterFraction":0.033,"simulated":true},"geometry":{"type":"Polygon","coordinates":[[[114.16719999999995,22.3328],[114.16879999999995,22.3328],[114.16879999999995,22.3344],[114.16719999999995,22.3344],[114.16719999999995,22.3328]]]}},{"type":"Feature","properties":{"id":"lu-kowloon-sham-shui-po-04-00","class":"built_up","vegetationFraction":0.132,"pavedFraction":0.682,"waterFraction":0.008,"simulated":true},"geometry":{"type":"Polygon","coordinates":[[[114.148,22.3344],[114.14959999999999,22.3344],[114.14959999999999,22.336],[114.148,22.336],[114.148,22.3344]]]}},{"type":"Feature","properties":{"id":"lu-kowloon-sham-shui-po-04-01","class":"built_up","vegetationFraction":0.167,"pavedFraction":0.799,"waterFraction":0.025,"simulated":true},"geometry":{"type":"Polygon","coordinates":[[[114.14959999999999,22.3344],[114.15119999999999,22.3344],[114.15119999999999,22.336],[114.14959999999999,22.336],[114.14959999999999,22.3344]]]}},{"type":"Feature","properties":{"id":"lu-kowloon-sham-shui-po-04-02","class":"built_up","vegetationFraction":0.141,"pavedFraction":0.674,"waterFraction":0.012,"simulated":true},"geometry":{"type":"Polygon","coordinates":[[[114.15119999999999,22.3344],[114.15279999999998,22.3344],[114.15279999999998,22.336],[114.15119999999999,22.336],[114.15119999999999,22.3344]]]}},{"type":"Feature","properties":{"id":"lu-kowloon-sham-shui-po-04-03","class":"built_up","vegetationFraction":0.069,"pavedFraction":0.815,"waterFraction":0.002,"simulated":true},"geometry":{"type":"Polygon","coordinates":[[[114.15279999999998,22.3344],[114.15439999999998,22.3344],[114.15439999999998,22.336],[114.15279999999998,22.336],[114.15279999999998,22.3344]]]}},{"type":"Feature","properties":{"id":"lu-kowloon-sham-shui-po-04-04","class":"built_up","vegetationFraction":0.074,"pavedFraction":0.642,"waterFraction":0.057,"simulated":true},"geometry":{"type":"Polygon","coordinates":[[[114.15439999999998,22.3344],[114.15599999999998,22.3344],[114.15599999999998,22.336],[114.15439999999998,22.336],[114.15439999999998,22.3344]]]}},{"type":"Feature","properties":{"id":"lu-kowloon-sham-shui-po-04-05","class":"built_up","vegetationFraction":0.163,"pavedFraction":0.823,"waterFraction":0.013,"simulated":true},"geometry":{"type":"Polygon","coordinates":[[[114.15599999999998,22.3344],[114.15759999999997,22.3344],[114.15759999999997,22.336],[114.15599999999998,22.336],[114.15599999999998,22.3344]]]}},{"type":"Feature","properties":{"id":"lu-kowloon-sham-shui-po-04-06","class":"built_up","vegetationFraction":0.14,"pavedFraction":0.694,"waterFraction":0.029,"simulated":true},"geometry":{"type":"Polygon","coordinates":[[[114.15759999999997,22.3344],[114.15919999999997,22.3344],[114.15919999999997,22.336],[114.15759999999997,22.336],[114.15759999999997,22.3344]]]}},{"type":"Feature","properties":{"id":"lu-kowloon-sham-shui-po-04-07","class":"built_up","vegetationFraction":0.093,"pavedFraction":0.732,"waterFraction":0.056,"simulated":true},"geometry":{"type":"Polygon","coordinates":[[[114.15919999999997,22.3344],[114.16079999999997,22.3344],[114.16079999999997,22.336],[114.15919999999997,22.336],[114.15919999999997,22.3344]]]}},{"type":"Feature","properties":{"id":"lu-kowloon-sham-shui-po-04-08","class":"built_up","vegetationFraction":0.08,"pavedFraction":0.771,"waterFraction":0.055,"simulated":true},"geometry":{"type":"Polygon","coordinates":[[[114.16079999999997,22.3344],[114.16239999999996,22.3344],[114.16239999999996,22.336],[114.16079999999997,22.336],[114.16079999999997,22.3344]]]}},{"type":"Feature","properties":{"id":"lu-kowloon-sham-shui-po-04-09","class":"built_up","vegetationFraction":0.123,"pavedFraction":0.628,"waterFraction":0.048,"simulated":true},"geometry":{"type":"Polygon","coordinates":[[[114.16239999999996,22.3344],[114.16399999999996,22.3344],[114.16399999999996,22.336],[114.16239999999996,22.336],[114.16239999999996,22.3344]]]}},{"type":"Feature","properties":{"id":"lu-kowloon-sham-shui-po-04-10","class":"built_up","vegetationFraction":0.078,"pavedFraction":0.579,"waterFraction":0.028,"simulated":true},"geometry":{"type":"Polygon","coordinates":[[[114.16399999999996,22.3344],[114.16559999999996,22.3344],[114.16559999999996,22.336],[114.16399999999996,22.336],[114.16399999999996,22.3344]]]}},{"type":"Feature","properties":{"id":"lu-kowloon-sham-shui-po-04-11","class":"built_up","vegetationFraction":0.069,"pavedFraction":0.67,"waterFraction":0.019,"simulated":true},"geometry":{"type":"Polygon","coordinates":[[[114.16559999999996,22.3344],[114.16719999999995,22.3344],[114.16719999999995,22.336],[114.16559999999996,22.336],[114.16559999999996,22.3344]]]}},{"type":"Feature","properties":{"id":"lu-kowloon-sham-shui-po-04-12","class":"built_up","vegetationFraction":0.108,"pavedFraction":0.705,"waterFraction":0.007,"simulated":true},"geometry":{"type":"Polygon","coordinates":[[[114.16719999999995,22.3344],[114.16879999999995,22.3344],[114.16879999999995,22.336],[114.16719999999995,22.336],[114.16719999999995,22.3344]]]}},{"type":"Feature","properties":{"id":"lu-kowloon-sham-shui-po-05-00","class":"built_up","vegetationFraction":0.164,"pavedFraction":0.601,"waterFraction":0.053,"simulated":true},"geometry":{"type":"Polygon","coordinates":[[[114.148,22.336],[114.14959999999999,22.336],[114.14959999999999,22.3376],[114.148,22.3376],[114.148,22.336]]]}},{"type":"Feature","properties":{"id":"lu-kowloon-sham-shui-po-05-01","class":"built_up","vegetationFraction":0.134,"pavedFraction":0.696,"waterFraction":0.048,"simulated":true},"geometry":{"type":"Polygon","coordinates":[[[114.14959999999999,22.336],[114.15119999999999,22.336],[114.15119999999999,22.3376],[114.14959999999999,22.3376],[114.14959999999999,22.336]]]}},{"type":"Feature","properties":{"id":"lu-kowloon-sham-shui-po-05-02","class":"built_up","vegetationFraction":0.151,"pavedFraction":0.59,"waterFraction":0.02,"simulated":true},"geometry":{"type":"Polygon","coordinates":[[[114.15119999999999,22.336],[114.15279999999998,22.336],[114.15279999999998,22.3376],[114.15119999999999,22.3376],[114.15119999999999,22.336]]]}},{"type":"Feature","properties":{"id":"lu-kowloon-sham-shui-po-05-03","class":"built_up","vegetationFraction":0.095,"pavedFraction":0.554,"waterFraction":0.02,"simulated":true},"geometry":{"type":"Polygon","coordinates":[[[114.15279999999998,22.336],[114.15439999999998,22.336],[114.15439999999998,22.3376],[114.15279999999998,22.3376],[114.15279999999998,22.336]]]}},{"type":"Feature","properties":{"id":"lu-kowloon-sham-shui-po-05-04","class":"built_up","vegetationFraction":0.123,"pavedFraction":0.669,"waterFraction":0.057,"simulated":true},"geometry":{"type":"Polygon","coordinates":[[[114.15439999999998,22.336],[114.15599999999998,22.336],[114.15599999999998,22.3376],[114.15439999999998,22.3376],[114.15439999999998,22.336]]]}},{"type":"Feature","properties":{"id":"lu-kowloon-sham-shui-po-05-05","class":"built_up","vegetationFraction":0.097,"pavedFraction":0.809,"waterFraction":0.021,"simulated":true},"geometry":{"type":"Polygon","coordinates":[[[114.15599999999998,22.336],[114.15759999999997,22.336],[114.15759999999997,22.3376],[114.15599999999998,22.3376],[114.15599999999998,22.336]]]}},{"type":"Feature","properties":{"id":"lu-kowloon-sham-shui-po-05-06","class":"built_up","vegetationFraction":0.082,"pavedFraction":0.792,"waterFraction":0.025,"simulated":true},"geometry":{"type":"Polygon","coordinates":[[[114.15759999999997,22.336],[114.15919999999997,22.336],[114.15919999999997,22.3376],[114.15759999999997,22.3376],[114.15759999999997,22.336]]]}},{"type":"Feature","properties":{"id":"lu-kowloon-sham-shui-po-05-07","class":"built_up","vegetationFraction":0.067,"pavedFraction":0.711,"waterFraction":0.024,"simulated":true},"geometry":{"type":"Polygon","coordinates":[[[114.15919999999997,22.336],[114.16079999999997,22.336],[114.16079999999997,22.3376],[114.15919999999997,22.3376],[114.15919999999997,22.336]]]}},{"type":"Feature","properties":{"id":"lu-kowloon-sham-shui-po-05-08","class":"built_up","vegetationFraction":0.169,"pavedFraction":0.715,"waterFraction":0.008,"simulated":true},"geometry":{"type":"Polygon","coordinates":[[[114.16079999999997,22.336],[114.16239999999996,22.336],[114.16239999999996,22.3376],[114.16079999999997,22.3376],[114.16079999999997,22.336]]]}},{"type":"Feature","properties":{"id":"lu-kowloon-sham-shui-po-05-09","class":"built_up","vegetationFraction":0.148,"pavedFraction":0.635,"waterFraction":0.016,"simulated":true},"geometry":{"type":"Polygon","coordinates":[[[114.16239999999996,22.336],[114.16399999999996,22.336],[114.16399999999996,22.3376],[114.16239999999996,22.3376],[114.16239999999996,22.336]]]}},{"type":"Feature","properties":{"id":"lu-kowloon-sham-shui-po-05-10","class":"built_up","vegetationFraction":0.101,"pavedFraction":0.788,"waterFraction":0.015,"simulated":true},"geometry":{"type":"Polygon","coordinates":[[[114.16399999999996,22.336],[114.16559999999996,22.336],[114.16559999999996,22.3376],[114.16399999999996,22.3376],[114.16399999999996,22.336]]]}},{"type":"Feature","properties":{"id":"lu-kowloon-sham-shui-po-05-11","class":"built_up","vegetationFraction":0.073,"pavedFraction":0.826,"waterFraction":0.03,"simulated":true},"geometry":{"type":"Polygon","coordinates":[[[114.16559999999996,22.336],[114.16719999999995,22.336],[114.16719999999995,22.3376],[114.16559999999996,22.3376],[114.16559999999996,22.336]]]}},{"type":"Feature","properties":{"id":"lu-kowloon-sham-shui-po-05-12","class":"built_up","vegetationFraction":0.097,"pavedFraction":0.764,"waterFraction":0.025,"simulated":true},"geometry":{"type":"Polygon","coordinates":[[[114.16719999999995,22.336],[114.16879999999995,22.336],[114.16879999999995,22.3376],[114.16719999999995,22.3376],[114.16719999999995,22.336]]]}},{"type":"Feature","properties":{"id":"lu-kowloon-sham-shui-po-06-00","class":"built_up","vegetationFraction":0.03,"pavedFraction":0.95,"waterFraction":0.058,"simulated":true},"geometry":{"type":"Polygon","coordinates":[[[114.148,22.3376],[114.14959999999999,22.3376],[114.14959999999999,22.339199999999998],[114.148,22.339199999999998],[114.148,22.3376]]]}},{"type":"Feature","properties":{"id":"lu-kowloon-sham-shui-po-06-01","class":"built_up","vegetationFraction":0.041,"pavedFraction":0.928,"waterFraction":0.048,"simulated":true},"geometry":{"type":"Polygon","coordinates":[[[114.14959999999999,22.3376],[114.15119999999999,22.3376],[114.15119999999999,22.339199999999998],[114.14959999999999,22.339199999999998],[114.14959999999999,22.3376]]]}},{"type":"Feature","properties":{"id":"lu-kowloon-sham-shui-po-06-02","class":"green_space","vegetationFraction":0.78,"pavedFraction":0.1,"waterFraction":0.047,"simulated":true},"geometry":{"type":"Polygon","coordinates":[[[114.15119999999999,22.3376],[114.15279999999998,22.3376],[114.15279999999998,22.339199999999998],[114.15119999999999,22.339199999999998],[114.15119999999999,22.3376]]]}},{"type":"Feature","properties":{"id":"lu-kowloon-sham-shui-po-06-03","class":"green_space","vegetationFraction":0.78,"pavedFraction":0.1,"waterFraction":0.045,"simulated":true},"geometry":{"type":"Polygon","coordinates":[[[114.15279999999998,22.3376],[114.15439999999998,22.3376],[114.15439999999998,22.339199999999998],[114.15279999999998,22.339199999999998],[114.15279999999998,22.3376]]]}},{"type":"Feature","properties":{"id":"lu-kowloon-sham-shui-po-06-04","class":"green_space","vegetationFraction":0.78,"pavedFraction":0.1,"waterFraction":0.057,"simulated":true},"geometry":{"type":"Polygon","coordinates":[[[114.15439999999998,22.3376],[114.15599999999998,22.3376],[114.15599999999998,22.339199999999998],[114.15439999999998,22.339199999999998],[114.15439999999998,22.3376]]]}},{"type":"Feature","properties":{"id":"lu-kowloon-sham-shui-po-06-05","class":"green_space","vegetationFraction":0.78,"pavedFraction":0.1,"waterFraction":0.045,"simulated":true},"geometry":{"type":"Polygon","coordinates":[[[114.15599999999998,22.3376],[114.15759999999997,22.3376],[114.15759999999997,22.339199999999998],[114.15599999999998,22.339199999999998],[114.15599999999998,22.3376]]]}},{"type":"Feature","properties":{"id":"lu-kowloon-sham-shui-po-06-06","class":"built_up","vegetationFraction":0.03,"pavedFraction":0.872,"waterFraction":0.01,"simulated":true},"geometry":{"type":"Polygon","coordinates":[[[114.15759999999997,22.3376],[114.15919999999997,22.3376],[114.15919999999997,22.339199999999998],[114.15759999999997,22.339199999999998],[114.15759999999997,22.3376]]]}},{"type":"Feature","properties":{"id":"lu-kowloon-sham-shui-po-06-07","class":"built_up","vegetationFraction":0.024,"pavedFraction":0.944,"waterFraction":0.046,"simulated":true},"geometry":{"type":"Polygon","coordinates":[[[114.15919999999997,22.3376],[114.16079999999997,22.3376],[114.16079999999997,22.339199999999998],[114.15919999999997,22.339199999999998],[114.15919999999997,22.3376]]]}},{"type":"Feature","properties":{"id":"lu-kowloon-sham-shui-po-06-08","class":"built_up","vegetationFraction":0.042,"pavedFraction":0.872,"waterFraction":0.048,"simulated":true},"geometry":{"type":"Polygon","coordinates":[[[114.16079999999997,22.3376],[114.16239999999996,22.3376],[114.16239999999996,22.339199999999998],[114.16079999999997,22.339199999999998],[114.16079999999997,22.3376]]]}},{"type":"Feature","properties":{"id":"lu-kowloon-sham-shui-po-06-09","class":"built_up","vegetationFraction":0.053,"pavedFraction":0.934,"waterFraction":0.023,"simulated":true},"geometry":{"type":"Polygon","coordinates":[[[114.16239999999996,22.3376],[114.16399999999996,22.3376],[114.16399999999996,22.339199999999998],[114.16239999999996,22.339199999999998],[114.16239999999996,22.3376]]]}},{"type":"Feature","properties":{"id":"lu-kowloon-sham-shui-po-06-10","class":"built_up","vegetationFraction":0.047,"pavedFraction":0.95,"waterFraction":0.059,"simulated":true},"geometry":{"type":"Polygon","coordinates":[[[114.16399999999996,22.3376],[114.16559999999996,22.3376],[114.16559999999996,22.339199999999998],[114.16399999999996,22.339199999999998],[114.16399999999996,22.3376]]]}},{"type":"Feature","properties":{"id":"lu-kowloon-sham-shui-po-06-11","class":"built_up","vegetationFraction":0.034,"pavedFraction":0.95,"waterFraction":0.013,"simulated":true},"geometry":{"type":"Polygon","coordinates":[[[114.16559999999996,22.3376],[114.16719999999995,22.3376],[114.16719999999995,22.339199999999998],[114.16559999999996,22.339199999999998],[114.16559999999996,22.3376]]]}},{"type":"Feature","properties":{"id":"lu-kowloon-sham-shui-po-06-12","class":"built_up","vegetationFraction":0.05,"pavedFraction":0.885,"waterFraction":0.006,"simulated":true},"geometry":{"type":"Polygon","coordinates":[[[114.16719999999995,22.3376],[114.16879999999995,22.3376],[114.16879999999995,22.339199999999998],[114.16719999999995,22.339199999999998],[114.16719999999995,22.3376]]]}},{"type":"Feature","properties":{"id":"lu-kowloon-sham-shui-po-07-00","class":"built_up","vegetationFraction":0.031,"pavedFraction":0.912,"waterFraction":0.016,"simulated":true},"geometry":{"type":"Polygon","coordinates":[[[114.148,22.339199999999998],[114.14959999999999,22.339199999999998],[114.14959999999999,22.340799999999998],[114.148,22.340799999999998],[114.148,22.339199999999998]]]}},{"type":"Feature","properties":{"id":"lu-kowloon-sham-shui-po-07-01","class":"built_up","vegetationFraction":0.022,"pavedFraction":0.872,"waterFraction":0.05,"simulated":true},"geometry":{"type":"Polygon","coordinates":[[[114.14959999999999,22.339199999999998],[114.15119999999999,22.339199999999998],[114.15119999999999,22.340799999999998],[114.14959999999999,22.340799999999998],[114.14959999999999,22.339199999999998]]]}},{"type":"Feature","properties":{"id":"lu-kowloon-sham-shui-po-07-02","class":"green_space","vegetationFraction":0.78,"pavedFraction":0.1,"waterFraction":0.004,"simulated":true},"geometry":{"type":"Polygon","coordinates":[[[114.15119999999999,22.339199999999998],[114.15279999999998,22.339199999999998],[114.15279999999998,22.340799999999998],[114.15119999999999,22.340799999999998],[114.15119999999999,22.339199999999998]]]}},{"type":"Feature","properties":{"id":"lu-kowloon-sham-shui-po-07-03","class":"green_space","vegetationFraction":0.78,"pavedFraction":0.1,"waterFraction":0.024,"simulated":true},"geometry":{"type":"Polygon","coordinates":[[[114.15279999999998,22.339199999999998],[114.15439999999998,22.339199999999998],[114.15439999999998,22.340799999999998],[114.15279999999998,22.340799999999998],[114.15279999999998,22.339199999999998]]]}},{"type":"Feature","properties":{"id":"lu-kowloon-sham-shui-po-07-04","class":"green_space","vegetationFraction":0.78,"pavedFraction":0.1,"waterFraction":0.041,"simulated":true},"geometry":{"type":"Polygon","coordinates":[[[114.15439999999998,22.339199999999998],[114.15599999999998,22.339199999999998],[114.15599999999998,22.340799999999998],[114.15439999999998,22.340799999999998],[114.15439999999998,22.339199999999998]]]}},{"type":"Feature","properties":{"id":"lu-kowloon-sham-shui-po-07-05","class":"green_space","vegetationFraction":0.78,"pavedFraction":0.1,"waterFraction":0.045,"simulated":true},"geometry":{"type":"Polygon","coordinates":[[[114.15599999999998,22.339199999999998],[114.15759999999997,22.339199999999998],[114.15759999999997,22.340799999999998],[114.15599999999998,22.340799999999998],[114.15599999999998,22.339199999999998]]]}},{"type":"Feature","properties":{"id":"lu-kowloon-sham-shui-po-07-06","class":"built_up","vegetationFraction":0.023,"pavedFraction":0.95,"waterFraction":0.022,"simulated":true},"geometry":{"type":"Polygon","coordinates":[[[114.15759999999997,22.339199999999998],[114.15919999999997,22.339199999999998],[114.15919999999997,22.340799999999998],[114.15759999999997,22.340799999999998],[114.15759999999997,22.339199999999998]]]}},{"type":"Feature","properties":{"id":"lu-kowloon-sham-shui-po-07-07","class":"built_up","vegetationFraction":0.042,"pavedFraction":0.908,"waterFraction":0.006,"simulated":true},"geometry":{"type":"Polygon","coordinates":[[[114.15919999999997,22.339199999999998],[114.16079999999997,22.339199999999998],[114.16079999999997,22.340799999999998],[114.15919999999997,22.340799999999998],[114.15919999999997,22.339199999999998]]]}},{"type":"Feature","properties":{"id":"lu-kowloon-sham-shui-po-07-08","class":"built_up","vegetationFraction":0.047,"pavedFraction":0.842,"waterFraction":0.002,"simulated":true},"geometry":{"type":"Polygon","coordinates":[[[114.16079999999997,22.339199999999998],[114.16239999999996,22.339199999999998],[114.16239999999996,22.340799999999998],[114.16079999999997,22.340799999999998],[114.16079999999997,22.339199999999998]]]}},{"type":"Feature","properties":{"id":"lu-kowloon-sham-shui-po-07-09","class":"built_up","vegetationFraction":0.05,"pavedFraction":0.95,"waterFraction":0.04,"simulated":true},"geometry":{"type":"Polygon","coordinates":[[[114.16239999999996,22.339199999999998],[114.16399999999996,22.339199999999998],[114.16399999999996,22.340799999999998],[114.16239999999996,22.340799999999998],[114.16239999999996,22.339199999999998]]]}},{"type":"Feature","properties":{"id":"lu-kowloon-sham-shui-po-07-10","class":"built_up","vegetationFraction":0.023,"pavedFraction":0.95,"waterFraction":0.043,"simulated":true},"geometry":{"type":"Polygon","coordinates":[[[114.16399999999996,22.339199999999998],[114.16559999999996,22.339199999999998],[114.16559999999996,22.340799999999998],[114.16399999999996,22.340799999999998],[114.16399999999996,22.339199999999998]]]}},{"type":"Feature","properties":{"id":"lu-kowloon-sham-shui-po-07-11","class":"built_up","vegetationFraction":0.027,"pavedFraction":0.95,"waterFraction":0.053,"simulated":true},"geometry":{"type":"Polygon","coordinates":[[[114.16559999999996,22.339199999999998],[114.16719999999995,22.339199999999998],[114.16719999999995,22.340799999999998],[114.16559999999996,22.340799999999998],[114.16559999999996,22.339199999999998]]]}},{"type":"Feature","properties":{"id":"lu-kowloon-sham-shui-po-07-12","class":"built_up","vegetationFraction":0.042,"pavedFraction":0.838,"waterFraction":0.049,"simulated":true},"geometry":{"type":"Polygon","coordinates":[[[114.16719999999995,22.339199999999998],[114.16879999999995,22.339199999999998],[114.16879999999995,22.340799999999998],[114.16719999999995,22.340799999999998],[114.16719999999995,22.339199999999998]]]}},{"type":"Feature","properties":{"id":"lu-kowloon-sham-shui-po-08-00","class":"built_up","vegetationFraction":0.063,"pavedFraction":0.669,"waterFraction":0.004,"simulated":true},"geometry":{"type":"Polygon","coordinates":[[[114.148,22.340799999999998],[114.14959999999999,22.340799999999998],[114.14959999999999,22.342399999999998],[114.148,22.342399999999998],[114.148,22.340799999999998]]]}},{"type":"Feature","properties":{"id":"lu-kowloon-sham-shui-po-08-01","class":"built_up","vegetationFraction":0.164,"pavedFraction":0.731,"waterFraction":0.012,"simulated":true},"geometry":{"type":"Polygon","coordinates":[[[114.14959999999999,22.340799999999998],[114.15119999999999,22.340799999999998],[114.15119999999999,22.342399999999998],[114.14959999999999,22.342399999999998],[114.14959999999999,22.340799999999998]]]}},{"type":"Feature","properties":{"id":"lu-kowloon-sham-shui-po-08-02","class":"built_up","vegetationFraction":0.14,"pavedFraction":0.708,"waterFraction":0.018,"simulated":true},"geometry":{"type":"Polygon","coordinates":[[[114.15119999999999,22.340799999999998],[114.15279999999998,22.340799999999998],[114.15279999999998,22.342399999999998],[114.15119999999999,22.342399999999998],[114.15119999999999,22.340799999999998]]]}},{"type":"Feature","properties":{"id":"lu-kowloon-sham-shui-po-08-03","class":"built_up","vegetationFraction":0.112,"pavedFraction":0.636,"waterFraction":0.024,"simulated":true},"geometry":{"type":"Polygon","coordinates":[[[114.15279999999998,22.340799999999998],[114.15439999999998,22.340799999999998],[114.15439999999998,22.342399999999998],[114.15279999999998,22.342399999999998],[114.15279999999998,22.340799999999998]]]}},{"type":"Feature","properties":{"id":"lu-kowloon-sham-shui-po-08-04","class":"built_up","vegetationFraction":0.062,"pavedFraction":0.572,"waterFraction":0.026,"simulated":true},"geometry":{"type":"Polygon","coordinates":[[[114.15439999999998,22.340799999999998],[114.15599999999998,22.340799999999998],[114.15599999999998,22.342399999999998],[114.15439999999998,22.342399999999998],[114.15439999999998,22.340799999999998]]]}},{"type":"Feature","properties":{"id":"lu-kowloon-sham-shui-po-08-05","class":"built_up","vegetationFraction":0.08,"pavedFraction":0.824,"waterFraction":0.057,"simulated":true},"geometry":{"type":"Polygon","coordinates":[[[114.15599999999998,22.340799999999998],[114.15759999999997,22.340799999999998],[114.15759999999997,22.342399999999998],[114.15599999999998,22.342399999999998],[114.15599999999998,22.340799999999998]]]}},{"type":"Feature","properties":{"id":"lu-kowloon-sham-shui-po-08-06","class":"built_up","vegetationFraction":0.064,"pavedFraction":0.718,"waterFraction":0.03,"simulated":true},"geometry":{"type":"Polygon","coordinates":[[[114.15759999999997,22.340799999999998],[114.15919999999997,22.340799999999998],[114.15919999999997,22.342399999999998],[114.15759999999997,22.342399999999998],[114.15759999999997,22.340799999999998]]]}},{"type":"Feature","properties":{"id":"lu-kowloon-sham-shui-po-08-07","class":"built_up","vegetationFraction":0.098,"pavedFraction":0.659,"waterFraction":0.045,"simulated":true},"geometry":{"type":"Polygon","coordinates":[[[114.15919999999997,22.340799999999998],[114.16079999999997,22.340799999999998],[114.16079999999997,22.342399999999998],[114.15919999999997,22.342399999999998],[114.15919999999997,22.340799999999998]]]}},{"type":"Feature","properties":{"id":"lu-kowloon-sham-shui-po-08-08","class":"built_up","vegetationFraction":0.129,"pavedFraction":0.557,"waterFraction":0.012,"simulated":true},"geometry":{"type":"Polygon","coordinates":[[[114.16079999999997,22.340799999999998],[114.16239999999996,22.340799999999998],[114.16239999999996,22.342399999999998],[114.16079999999997,22.342399999999998],[114.16079999999997,22.340799999999998]]]}},{"type":"Feature","properties":{"id":"lu-kowloon-sham-shui-po-08-09","class":"built_up","vegetationFraction":0.157,"pavedFraction":0.658,"waterFraction":0.033,"simulated":true},"geometry":{"type":"Polygon","coordinates":[[[114.16239999999996,22.340799999999998],[114.16399999999996,22.340799999999998],[114.16399999999996,22.342399999999998],[114.16239999999996,22.342399999999998],[114.16239999999996,22.340799999999998]]]}},{"type":"Feature","properties":{"id":"lu-kowloon-sham-shui-po-08-10","class":"built_up","vegetationFraction":0.17,"pavedFraction":0.681,"waterFraction":0.023,"simulated":true},"geometry":{"type":"Polygon","coordinates":[[[114.16399999999996,22.340799999999998],[114.16559999999996,22.340799999999998],[114.16559999999996,22.342399999999998],[114.16399999999996,22.342399999999998],[114.16399999999996,22.340799999999998]]]}},{"type":"Feature","properties":{"id":"lu-kowloon-sham-shui-po-08-11","class":"built_up","vegetationFraction":0.067,"pavedFraction":0.581,"waterFraction":0.057,"simulated":true},"geometry":{"type":"Polygon","coordinates":[[[114.16559999999996,22.340799999999998],[114.16719999999995,22.340799999999998],[114.16719999999995,22.342399999999998],[114.16559999999996,22.342399999999998],[114.16559999999996,22.340799999999998]]]}},{"type":"Feature","properties":{"id":"lu-kowloon-sham-shui-po-08-12","class":"built_up","vegetationFraction":0.066,"pavedFraction":0.695,"waterFraction":0.058,"simulated":true},"geometry":{"type":"Polygon","coordinates":[[[114.16719999999995,22.340799999999998],[114.16879999999995,22.340799999999998],[114.16879999999995,22.342399999999998],[114.16719999999995,22.342399999999998],[114.16719999999995,22.340799999999998]]]}}]}