{"type":"FeatureCollection","features":[{"type":"Feature","properties":{"id":"lu-northern-metropolis-00-00","class":"green_space","vegetationFraction":0.509,"pavedFraction":0.538,"waterFraction":0.026,"simulated":true},"geometry":{"type":"Polygon","coordinates":[[[114.12,22.505],[114.1216,22.505],[114.1216,22.5066],[114.12,22.5066],[114.12,22.505]]]}},{"type":"Feature","properties":{"id":"lu-northern-metropolis-00-01","class":"green_space","vegetationFraction":0.474,"pavedFraction":0.527,"waterFraction":0.03,"simulated":true},"geometry":{"type":"Polygon","coordinates":[[[114.1216,22.505],[114.1232,22.505],[114.1232,22.5066],[114.1216,22.5066],[114.1216,22.505]]]}},{"type":"Feature","properties":{"id":"lu-northern-metropolis-00-02","class":"urban_open_space","vegetationFraction":0.274,"pavedFraction":0.418,"waterFraction":0.051,"simulated":true},"geometry":{"type":"Polygon","coordinates":[[[114.1232,22.505],[114.1248,22.505],[114.1248,22.5066],[114.1232,22.5066],[114.1232,22.505]]]}},{"type":"Feature","properties":{"id":"lu-northern-metropolis-00-03","class":"urban_open_space","vegetationFraction":0.38,"pavedFraction":0.546,"waterFraction":0.028,"simulated":true},"geometry":{"type":"Polygon","coordinates":[[[114.1248,22.505],[114.12639999999999,22.505],[114.12639999999999,22.5066],[114.1248,22.5066],[114.1248,22.505]]]}},{"type":"Feature","properties":{"id":"lu-northern-metropolis-00-04","class":"green_space","vegetationFraction":0.467,"pavedFraction":0.407,"waterFraction":0.04,"simulated":true},"geometry":{"type":"Polygon","coordinates":[[[114.12639999999999,22.505],[114.12799999999999,22.505],[114.12799999999999,22.5066],[114.12639999999999,22.5066],[114.12639999999999,22.505]]]}},{"type":"Feature","properties":{"id":"lu-northern-metropolis-00-05","class":"urban_open_space","vegetationFraction":0.272,"pavedFraction":0.48,"waterFraction":0.051,"simulated":true},"geometry":{"type":"Polygon","coordinates":[[[114.12799999999999,22.505],[114.12959999999998,22.505],[114.12959999999998,22.5066],[114.12799999999999,22.5066],[114.12799999999999,22.505]]]}},{"type":"Feature","properties":{"id":"lu-northern-metropolis-00-06","class":"green_space","vegetationFraction":0.516,"pavedFraction":0.439,"waterFraction":0.041,"simulated":true},"geometry":{"type":"Polygon","coordinates":[[[114.12959999999998,22.505],[114.13119999999998,22.505],[114.13119999999998,22.5066],[114.12959999999998,22.5066],[114.12959999999998,22.505]]]}},{"type":"Feature","properties":{"id":"lu-northern-metropolis-00-07","class":"urban_open_space","vegetationFraction":0.394,"pavedFraction":0.459,"waterFraction":0.008,"simulated":true},"geometry":{"type":"Polygon","coordinates":[[[114.13119999999998,22.505],[114.13279999999997,22.505],[114.13279999999997,22.5066],[114.13119999999998,22.5066],[114.13119999999998,22.505]]]}},{"type":"Feature","properties":{"id":"lu-northern-metropolis-00-08","class":"urban_open_space","vegetationFraction":0.267,"pavedFraction":0.445,"waterFraction":0.032,"simulated":true},"geometry":{"type":"Polygon","coordinates":[[[114.13279999999997,22.505],[114.13439999999997,22.505],[114.13439999999997,22.5066],[114.13279999999997,22.5066],[114.13279999999997,22.505]]]}},{"type":"Feature","properties":{"id":"lu-northern-metropolis-00-09","class":"urban_open_space","vegetationFraction":0.344,"pavedFraction":0.313,"waterFraction":0.019,"simulated":true},"geometry":{"type":"Polygon","coordinates":[[[114.13439999999997,22.505],[114.13599999999997,22.505],[114.13599999999997,22.5066],[114.13439999999997,22.5066],[114.13439999999997,22.505]]]}},{"type":"Feature","properties":{"id":"lu-northern-metropolis-00-10","class":"built_up","vegetationFraction":0.221,"pavedFraction":0.546,"waterFraction":0.032,"simulated":true},"geometry":{"type":"Polygon","coordinates":[[[114.13599999999997,22.505],[114.13759999999996,22.505],[114.13759999999996,22.5066],[114.13599999999997,22.5066],[114.13599999999997,22.505]]]}},{"type":"Feature","properties":{"id":"lu-northern-metropolis-00-11","class":"urban_open_space","vegetationFraction":0.296,"pavedFraction":0.494,"waterFraction":0.028,"simulated":true},"geometry":{"type":"Polygon","coordinates":[[[114.13759999999996,22.505],[114.13919999999996,22.505],[114.13919999999996,22.5066],[114.13759999999996,22.5066],[114.13759999999996,22.505]]]}},{"type":"Feature","properties":{"id":"lu-northern-metropolis-00-12","class":"green_space","vegetationFraction":0.407,"pavedFraction":0.331,"waterFraction":0.053,"simulated":true},"geometry":{"type":"Polygon","coordinates":[[[114.13919999999996,22.505],[114.14079999999996,22.505],[114.14079999999996,22.5066],[114.13919999999996,22.5066],[114.13919999999996,22.505]]]}},{"type":"Feature","properties":{"id":"lu-northern-metropolis-00-13","class":"urban_open_space","vegetationFraction":0.294,"pavedFraction":0.411,"waterFraction":0.044,"simulated":true},"geometry":{"type":"Polygon","coordinates":[[[114.14079999999996,22.505],[114.14239999999995,22.505],[114.14239999999995,22.5066],[114.14079999999996,22.5066],[114.14079999999996,22.505]]]}},{"type":"Feature","properties":{"id":"lu-northern-metropolis-00-14","class":"green_space","vegetationFraction":0.406,"pavedFraction":0.566,"waterFraction":0.031,"simulated":true},"geometry":{"type":"Polygon","coordinates":[[[114.14239999999995,22.505],[114.14399999999995,22.505],[114.14399999999995,22.5066],[114.14239999999995,22.5066],[114.14239999999995,22.505]]]}},{"type":"Feature","properties":{"id":"lu-northern-metropolis-00-15","class":"green_space","vegetationFraction":0.419,"pavedFraction":0.535,"waterFraction":0.058,"simulated":true},"geometry":{"type":"Polygon","coordinates":[[[114.14399999999995,22.505],[114.14559999999994,22.505],[114.14559999999994,22.5066],[114.14399999999995,22.5066],[114.14399999999995,22.505]]]}},{"type":"Feature","properties":{"id":"lu-northern-metropolis-00-16","class":"urban_open_space","vegetationFraction":0.318,"pavedFraction":0.541,"waterFraction":0.044,"simulated":true},"geometry":{"type":"Polygon","coordinates":[[[114.14559999999994,22.505],[114.14719999999994,22.505],[114.14719999999994,22.5066],[114.14559999999994,22.5066],[114.14559999999994,22.505]]]}},{"type":"Feature","properties":{"id":"lu-northern-metropolis-00-17","class":"urban_open_space","vegetationFraction":0.348,"pavedFraction":0.579,"waterFraction":0.045,"simulated":true},"geometry":{"type":"Polygon","coordinates":[[[114.14719999999994,22.505],[114.14879999999994,22.505],[114.14879999999994,22.5066],[114.14719999999994,22.5066],[114.14719999999994,22.505]]]}},{"type":"Feature","properties":{"id":"lu-northern-metropolis-00-18","class":"built_up","vegetationFraction":0.241,"pavedFraction":0.519,"waterFraction":0.005,"simulated":true},"geometry":{"type":"Polygon","coordinates":[[[114.14879999999994,22.505],[114.15039999999993,22.505],[114.15039999999993,22.5066],[114.14879999999994,22.5066],[114.14879999999994,22.505]]]}},{"type":"Feature","properties":{"id":"lu-northern-metropolis-01-00","class":"green_space","vegetationFraction":0.499,"pavedFraction":0.34,"waterFraction":0.056,"simulated":true},"geometry":{"type":"Polygon","coordinates":[[[114.12,22.5066],[114.1216,22.5066],[114.1216,22.5082],[114.12,22.5082],[114.12,22.5066]]]}},{"type":"Feature","properties":{"id":"lu-northern-metropolis-01-01","class":"green_space","vegetationFraction":0.519,"pavedFraction":0.468,"waterFraction":0.028,"simulated":true},"geometry":{"type":"Polygon","coordinates":[[[114.1216,22.5066],[114.1232,22.5066],[114.1232,22.5082],[114.1216,22.5082],[114.1216,22.5066]]]}},{"type":"Feature","properties":{"id":"lu-northern-metropolis-01-02","class":"urban_open_space","vegetationFraction":0.374,"pavedFraction":0.322,"waterFraction":0.042,"simulated":true},"geometry":{"type":"Polygon","coordinates":[[[114.1232,22.5066],[114.1248,22.5066],[114.1248,22.5082],[114.1232,22.5082],[114.1232,22.5066]]]}},{"type":"Feature","properties":{"id":"lu-northern-metropolis-01-03","class":"green_space","vegetationFraction":0.422,"pavedFraction":0.387,"waterFraction":0.045,"simulated":true},"geometry":{"type":"Polygon","coordinates":[[[114.1248,22.5066],[114.12639999999999,22.5066],[114.12639999999999,22.5082],[114.1248,22.5082],[114.1248,22.5066]]]}},{"type":"Feature","properties":{"id":"lu-northern-metropolis-01-04","class":"built_up","vegetationFraction":0.22,"pavedFraction":0.421,"waterFraction":0.023,"simulated":true},"geometry":{"type":"Polygon","coordinates":[[[114.12639999999999,22.5066],[114.12799999999999,22.5066],[114.12799999999999,22.5082],[114.12639999999999,22.5082],[114.12639999999999,22.5066]]]}},{"type":"Feature","properties":{"id":"lu-northern-metropolis-01-05","class":"green_space","vegetationFraction":0.488,"pavedFraction":0.586,"waterFraction":0.025,"simulated":true},"geometry":{"type":"Polygon","coordinates":[[[114.12799999999999,22.5066],[114.12959999999998,22.5066],[114.12959999999998,22.5082],[114.12799999999999,22.5082],[114.12799999999999,22.5066]]]}},{"type":"Feature","properties":{"id":"lu-northern-metropolis-01-06","class":"urban_open_space","vegetationFraction":0.276,"pavedFraction":0.309,"waterFraction":0.048,"simulated":true},"geometry":{"type":"Polygon","coordinates":[[[114.12959999999998,22.5066],[114.13119999999998,22.5066],[114.13119999999998,22.5082],[114.12959999999998,22.5082],[114.12959999999998,22.5066]]]}},{"type":"Feature","properties":{"id":"lu-northern-metropolis-01-07","class":"urban_open_space","vegetationFraction":0.398,"pavedFraction":0.515,"waterFraction":0.024,"simulated":true},"geometry":{"type":"Polygon","coordinates":[[[114.13119999999998,22.5066],[114.13279999999997,22.5066],[114.13279999999997,22.5082],[114.13119999999998,22.5082],[114.13119999999998,22.5066]]]}},{"type":"Feature","properties":{"id":"lu-northern-metropolis-01-08","class":"urban_open_space","vegetationFraction":0.324,"pavedFraction":0.391,"waterFraction":0.003,"simulated":true},"geometry":{"type":"Polygon","coordinates":[[[114.13279999999997,22.5066],[114.13439999999997,22.5066],[114.13439999999997,22.5082],[114.13279999999997,22.5082],[114.13279999999997,22.5066]]]}},{"type":"Feature","properties":{"id":"lu-northern-metropolis-01-09","class":"green_space","vegetationFraction":0.514,"pavedFraction":0.406,"waterFraction":0.023,"simulated":true},"geometry":{"type":"Polygon","coordinates":[[[114.13439999999997,22.5066],[114.13599999999997,22.5066],[114.13599999999997,22.5082],[114.13439999999997,22.5082],[114.13439999999997,22.5066]]]}},{"type":"Feature","properties":{"id":"lu-northern-metropolis-01-10","class":"urban_open_space","vegetationFraction":0.329,"pavedFraction":0.456,"waterFraction":0.004,"simulated":true},"geometry":{"type":"Polygon","coordinates":[[[114.13599999999997,22.5066],[114.13759999999996,22.5066],[114.13759999999996,22.5082],[114.13599999999997,22.5082],[114.13599999999997,22.5066]]]}},{"type":"Feature","properties":{"id":"lu-northern-metropolis-01-11","class":"green_space","vegetationFraction":0.427,"pavedFraction":0.469,"waterFraction":0.049,"simulated":true},"geometry":{"type":"Polygon","coordinates":[[[114.13759999999996,22.5066],[114.13919999999996,22.5066],[114.13919999999996,22.5082],[114.13759999999996,22.5082],[114.13759999999996,22.5066]]]}},{"type":"Feature","properties":{"id":"lu-northern-metropolis-01-12","class":"green_space","vegetationFraction":0.504,"pavedFraction":0.312,"waterFraction":0.01,"simulated":true},"geometry":{"type":"Polygon","coordinates":[[[114.13919999999996,22.5066],[114.14079999999996,22.5066],[114.14079999999996,22.5082],[114.13919999999996,22.5082],[114.13919999999996,22.5066]]]}},{"type":"Feature","properties":{"id":"lu-northern-metropolis-01-13","class":"urban_open_space","vegetationFraction":0.264,"pavedFraction":0.565,"waterFraction":0.047,"simulated":true},"geometry":{"type":"Polygon","coordinates":[[[114.14079999999996,22.5066],[114.14239999999995,22.5066],[114.14239999999995,22.5082],[114.14079999999996,22.5082],[114.14079999999996,22.5066]]]}},{"type":"Feature","properties":{"id":"lu-northern-metropolis-01-14","class":"green_space","vegetationFraction":0.513,"pavedFraction":0.591,"waterFraction":0.007,"simulated":true},"geometry":{"type":"Polygon","coordinates":[[[114.14239999999995,22.5066],[114.14399999999995,22.5066],[114.14399999999995,22.5082],[114.14239999999995,22.5082],[114.14239999999995,22.5066]]]}},{"type":"Feature","properties":{"id":"lu-northern-metropolis-01-15","class":"urban_open_space","vegetationFraction":0.342,"pavedFraction":0.345,"waterFraction":0.023,"simulated":true},"geometry":{"type":"Polygon","coordinates":[[[114.14399999999995,22.5066],[114.14559999999994,22.5066],[114.14559999999994,22.5082],[114.14399999999995,22.5082],[114.14399999999995,22.5066]]]}},{"type":"Feature","properties":{"id":"lu-northern-metropolis-01-16","class":"urban_open_space","vegetationFraction":0.338,"pavedFraction":0.596,"waterFraction":0.035,"simulated":true},"geometry":{"type":"Polygon","coordinates":[[[114.14559999999994,22.5066],[114.14719999999994,22.5066],[114.14719999999994,22.5082],[114.14559999999994,22.5082],[114.14559999999994,22.5066]]]}},{"type":"Feature","properties":{"id":"lu-northern-metropolis-01-17","class":"urban_open_space","vegetationFraction":0.275,"pavedFraction":0.414,"waterFraction":0.009,"simulated":true},"geometry":{"type":"Polygon","coordinates":[[[114.14719999999994,22.5066],[114.14879999999994,22.5066],[114.14879999999994,22.5082],[114.14719999999994,22.5082],[114.14719999999994,22.5066]]]}},{"type":"Feature","properties":{"id":"lu-northern-metropolis-01-18","class":"urban_open_space","vegetationFraction":0.388,"pavedFraction":0.532,"waterFraction":0.006,"simulated":true},"geometry":{"type":"Polygon","coordinates":[[[114.14879999999994,22.5066],[114.15039999999993,22.5066],[114.15039999999993,22.5082],[114.14879999999994,22.5082],[114.14879999999994,22.5066]]]}},{"type":"Feature","properties":{"id":"lu-northern-metropolis-02-00","class":"green_space","vegetationFraction":0.494,"pavedFraction":0.313,"waterFraction":0.046,"simulated":true},"geometry":{"type":"Polygon","coordinates":[[[114.12,22.5082],[114.1216,22.5082],[114.1216,22.5098],[114.12,22.5098],[114.12,22.5082]]]}},{"type":"Feature","properties":{"id":"lu-northern-metropolis-02-01","class":"urban_open_space","vegetationFraction":0.362,"pavedFraction":0.524,"waterFraction":0.053,"simulated":true},"geometry":{"type":"Polygon","coordinates":[[[114.1216,22.5082],[114.1232,22.5082],[114.1232,22.5098],[114.1216,22.5098],[114.1216,22.5082]]]}},{"type":"Feature","properties":{"id":"lu-northern-metropolis-02-02","class":"green_space","vegetationFraction":0.5,"pavedFraction":0.333,"waterFraction":0.006,"simulated":true},"geometry":{"type":"Polygon","coordinates":[[[114.1232,22.5082],[114.1248,22.5082],[114.1248,22.5098],[114.1232,22.5098],[114.1232,22.5082]]]}},{"type":"Feature","properties":{"id":"lu-northern-metropolis-02-03","class":"built_up","vegetationFraction":0.22,"pavedFraction":0.525,"waterFraction":0.04,"simulated":true},"geometry":{"type":"Polygon","coordinates":[[[114.1248,22.5082],[114.12639999999999,22.5082],[114.12639999999999,22.5098],[114.1248,22.5098],[114.1248,22.5082]]]}},{"type":"Feature","properties":{"id":"lu-northern-metropolis-02-04","class":"urban_open_space","vegetationFraction":0.315,"pavedFraction":0.542,"waterFraction":0.025,"simulated":true},"geometry":{"type":"Polygon","coordinates":[[[114.12639999999999,22.5082],[114.12799999999999,22.5082],[114.12799999999999,22.5098],[114.12639999999999,22.5098],[114.12639999999999,22.5082]]]}},{"type":"Feature","properties":{"id":"lu-northern-metropolis-02-05","class":"urban_open_space","vegetationFraction":0.288,"pavedFraction":0.511,"waterFraction":0.045,"simulated":true},"geometry":{"type":"Polygon","coordinates":[[[114.12799999999999,22.5082],[114.12959999999998,22.5082],[114.12959999999998,22.5098],[114.12799999999999,22.5098],[114.12799999999999,22.5082]]]}},{"type":"Feature","properties":{"id":"lu-northern-metropolis-02-06","class":"green_space","vegetationFraction":0.501,"pavedFraction":0.585,"waterFraction":0.059,"simulated":true},"geometry":{"type":"Polygon","coordinates":[[[114.12959999999998,22.5082],[114.13119999999998,22.5082],[114.13119999999998,22.5098],[114.12959999999998,22.5098],[114.12959999999998,22.5082]]]}},{"type":"Feature","properties":{"id":"lu-northern-metropolis-02-07","class":"urban_open_space","vegetationFraction":0.312,"pavedFraction":0.428,"waterFraction":0.038,"simulated":true},"geometry":{"type":"Polygon","coordinates":[[[114.13119999999998,22.5082],[114.13279999999997,22.5082],[114.13279999999997,22.5098],[114.13119999999998,22.5098],[114.13119999999998,22.5082]]]}},{"type":"Feature","properties":{"id":"lu-northern-metropolis-02-08","class":"urban_open_space","vegetationFraction":0.252,"pavedFraction":0.518,"waterFraction":0.008,"simulated":true},"geometry":{"type":"Polygon","coordinates":[[[114.13279999999997,22.5082],[114.13439999999997,22.5082],[114.13439999999997,22.5098],[114.13279999999997,22.5098],[114.13279999999997,22.5082]]]}},{"type":"Feature","properties":{"id":"lu-northern-metropolis-02-09","class":"green_space","vegetationFraction":0.48,"pavedFraction":0.499,"waterFraction":0.037,"simulated":true},"geometry":{"type":"Polygon","coordinates":[[[114.13439999999997,22.5082],[114.13599999999997,22.5082],[114.13599999999997,22.5098],[114.13439999999997,22.5098],[114.13439999999997,22.5082]]]}},{"type":"Feature","properties":{"id":"lu-northern-metropolis-02-10","class":"green_space","vegetationFraction":0.506,"pavedFraction":0.339,"waterFraction":0.032,"simulated":true},"geometry":{"type":"Polygon","coordinates":[[[114.13599999999997,22.5082],[114.13759999999996,22.5082],[114.13759999999996,22.5098],[114.13599999999997,22.5098],[114.13599999999997,22.5082]]]}},{"type":"Feature","properties":{"id":"lu-northern-metropolis-02-11","class":"green_space","vegetationFraction":0.438,"pavedFraction":0.316,"waterFraction":0.024,"simulated":true},"geometry":{"type":"Polygon","coordinates":[[[114.13759999999996,22.5082],[114.13919999999996,22.5082],[114.13919999999996,22.5098],[114.13759999999996,22.5098],[114.13759999999996,22.5082]]]}},{"type":"Feature","properties":{"id":"lu-northern-metropolis-02-12","class":"urban_open_space","vegetationFraction":0.291,"pavedFraction":0.395,"waterFraction":0.027,"simulated":true},"geometry":{"type":"Polygon","coordinates":[[[114.13919999999996,22.5082],[114.14079999999996,22.5082],[114.14079999999996,22.5098],[114.13919999999996,22.5098],[114.13919999999996,22.5082]]]}},{"type":"Feature","properties":{"id":"lu-northern-metropolis-02-13","class":"urban_open_space","vegetationFraction":0.288,"pavedFraction":0.434,"waterFraction":0.021,"simulated":true},"geometry":{"type":"Polygon","coordinates":[[[114.14079999999996,22.5082],[114.14239999999995,22.5082],[114.14239999999995,22.5098],[114.14079999999996,22.5098],[114.14079999999996,22.5082]]]}},{"type":"Feature","properties":{"id":"lu-northern-metropolis-02-14","class":"urban_open_space","vegetationFraction":0.353,"pavedFraction":0.433,"waterFraction":0.05,"simulated":true},"geometry":{"type":"Polygon","coordinates":[[[114.14239999999995,22.5082],[114.14399999999995,22.5082],[114.14399999999995,22.5098],[114.14239999999995,22.5098],[114.14239999999995,22.5082]]]}},{"type":"Feature","properties":{"id":"lu-northern-metropolis-02-15","class":"green_space","vegetationFraction":0.458,"pavedFraction":0.306,"waterFraction":0.05,"simulated":true},"geometry":{"type":"Polygon","coordinates":[[[114.14399999999995,22.5082],[114.14559999999994,22.5082],[114.14559999999994,22.5098],[114.14399999999995,22.5098],[114.14399999999995,22.5082]]]}},{"type":"Feature","properties":{"id":"lu-northern-metropolis-02-16","class":"green_space","vegetationFraction":0.472,"pavedFraction":0.38,"waterFraction":0.039,"simulated":true},"geometry":{"type":"Polygon","coordinates":[[[114.14559999999994,22.5082],[114.14719999999994,22.5082],[114.14719999999994,22.5098],[114.14559999999994,22.5098],[114.14559999999994,22.5082]]]}},{"type":"Feature","properties":{"id":"lu-northern-metropolis-02-17","class":"green_space","vegetationFraction":0.506,"pavedFraction":0.568,"waterFraction":0.012,"simulated":true},"geometry":{"type":"Polygon","coordinates":[[[114.14719999999994,22.5082],[114.14879999999994,22.5082],[114.14879999999994,22.5098],[114.14719999999994,22.5098],[114.14719999999994,22.5082]]]}},{"type":"Feature","properties":{"id":"lu-northern-metropolis-02-18","class":"urban_open_space","vegetationFraction":0.282,"pavedFraction":0.3,"waterFraction":0.027,"simulated":true},"geometry":{"type":"Polygon","coordinates":[[[114.14879999999994,22.5082],[114.15039999999993,22.5082],[114.15039999999993,22.5098],[114.14879999999994,22.5098],[114.14879999999994,22.5082]]]}},{"type":"Feature","properties":{"id":"lu-northern-metropolis-03-00","class":"urban_open_space","vegetationFraction":0.305,"pavedFraction":0.419,"waterFraction":0.035,"simulated":true},"geometry":{"type":"Polygon","coordinates":[[[114.12,22.5098],[114.1216,22.5098],[114.1216,22.5114],[114.12,22.5114],[114.12,22.5098]]]}},{"type":"Feature","properties":{"id":"lu-northern-metropolis-03-01","class":"built_up","vegetationFraction":0.247,"pavedFraction":0.52,"waterFraction":0.005,"simulated":true},"geometry":{"type":"Polygon","coordinates":[[[114.1216,22.5098],[114.1232,22.5098],[114.1232,22.5114],[114.1216,22.5114],[114.1216,22.5098]]]}},{"type":"Feature","properties":{"id":"lu-northern-metropolis-03-02","class":"urban_open_space","vegetationFraction":0.254,"pavedFraction":0.392,"waterFraction":0.044,"simulated":true},"geometry":{"type":"Polygon","coordinates":[[[114.1232,22.5098],[114.1248,22.5098],[114.1248,22.5114],[114.1232,22.5114],[114.1232,22.5098]]]}},{"type":"Feature","properties":{"id":"lu-northern-metropolis-03-03","class":"urban_open_space","vegetationFraction":0.398,"pavedFraction":0.459,"waterFraction":0.034,"simulated":true},"geometry":{"type":"Polygon","coordinates":[[[114.1248,22.5098],[114.12639999999999,22.5098],[114.12639999999999,22.5114],[114.1248,22.5114],[114.1248,22.5098]]]}},{"type":"Feature","properties":{"id":"lu-northern-metropolis-03-04","class":"urban_open_space","vegetationFraction":0.368,"pavedFraction":0.425,"waterFraction":0.026,"simulated":true},"geometry":{"type":"Polygon","coordinates":[[[114.12639999999999,22.5098],[114.12799999999999,22.5098],[114.12799999999999,22.5114],[114.12639999999999,22.5114],[114.12639999999999,22.5098]]]}},{"type":"Feature","properties":{"id":"lu-northern-metropolis-03-05","class":"green_space","vegetationFraction":0.401,"pavedFraction":0.346,"waterFraction":0.05,"simulated":true},"geometry":{"type":"Polygon","coordinates":[[[114.12799999999999,22.5098],[114.12959999999998,22.5098],[114.12959999999998,22.5114],[114.12799999999999,22.5114],[114.12799999999999,22.5098]]]}},{"type":"Feature","properties":{"id":"lu-northern-metropolis-03-06","class":"built_up","vegetationFraction":0.232,"pavedFraction":0.44,"waterFraction":0.008,"simulated":true},"geometry":{"type":"Polygon","coordinates":[[[114.12959999999998,22.5098],[114.13119999999998,22.5098],[114.13119999999998,22.5114],[114.12959999999998,22.5114],[114.12959999999998,22.5098]]]}},{"type":"Feature","properties":{"id":"lu-northern-metropolis-03-07","class":"green_space","vegetationFraction":0.48,"pavedFraction":0.333,"waterFraction":0.012,"simulated":true},"geometry":{"type":"Polygon","coordinates":[[[114.13119999999998,22.5098],[114.13279999999997,22.5098],[114.13279999999997,22.5114],[114.13119999999998,22.5114],[114.13119999999998,22.5098]]]}},{"type":"Feature","properties":{"id":"lu-northern-metropolis-03-08","class":"urban_open_space","vegetationFraction":0.302,"pavedFraction":0.491,"waterFraction":0.007,"simulated":true},"geometry":{"type":"Polygon","coordinates":[[[114.13279999999997,22.5098],[114.13439999999997,22.5098],[114.13439999999997,22.5114],[114.13279999999997,22.5114],[114.13279999999997,22.5098]]]}},{"type":"Feature","properties":{"id":"lu-northern-metropolis-03-09","class":"urban_open_space","vegetationFraction":0.356,"pavedFraction":0.349,"waterFraction":0.016,"simulated":true},"geometry":{"type":"Polygon","coordinates":[[[114.13439999999997,22.5098],[114.13599999999997,22.5098],[114.13599999999997,22.5114],[114.13439999999997,22.5114],[114.13439999999997,22.5098]]]}},{"type":"Feature","properties":{"id":"lu-northern-metropolis-03-10","class":"urban_open_space","vegetationFraction":0.316,"pavedFraction":0.335,"waterFraction":0.053,"simulated":true},"geometry":{"type":"Polygon","coordinates":[[[114.13599999999997,22.5098],[114.13759999999996,22.5098],[114.13759999999996,22.5114],[114.13599999999997,22.5114],[114.13599999999997,22.5098]]]}},{"type":"Feature","properties":{"id":"lu-northern-metropolis-03-11","class":"green_space","vegetationFraction":0.428,"pavedFraction":0.534,"waterFraction":0.024,"simulated":true},"geometry":{"type":"Polygon","coordinates":[[[114.13759999999996,22.5098],[114.13919999999996,22.5098],[114.13919999999996,22.5114],[114.13759999999996,22.5114],[114.13759999999996,22.5098]]]}},{"type":"Feature","properties":{"id":"lu-northern-metropolis-03-12","class":"urban_open_space","vegetationFraction":0.256,"pavedFraction":0.458,"waterFraction":0.046,"simulated":true},"geometry":{"type":"Polygon","coordinates":[[[114.13919999999996,22.5098],[114.14079999999996,22.5098],[114.14079999999996,22.5114],[114.13919999999996,22.5114],[114.13919999999996,22.5098]]]}},{"type":"Feature","properties":{"id":"lu-northern-metropolis-03-13","class":"green_space","vegetationFraction":0.464,"pavedFraction":0.319,"waterFraction":0.058,"simulated":true},"geometry":{"type":"Polygon","coordinates":[[[114.14079999999996,22.5098],[114.14239999999995,22.5098],[114.14239999999995,22.5114],[114.14079999999996,22.5114],[114.14079999999996,22.5098]]]}},{"type":"Feature","properties":{"id":"lu-northern-metropolis-03-14","class":"green_space","vegetationFraction":0.494,"pavedFraction":0.354,"waterFraction":0.033,"simulated":true},"geometry":{"type":"Polygon","coordinates":[[[114.14239999999995,22.5098],[114.14399999999995,22.5098],[114.14399999999995,22.5114],[114.14239999999995,22.5114],[114.14239999999995,22.5098]]]}},{"type":"Feature","properties":{"id":"lu-northern-metropolis-03-15","class":"green_space","vegetationFraction":0.454,"pavedFraction":0.327,"waterFraction":0.003,"simulated":true},"geometry":{"type":"Polygon","coordinates":[[[114.14399999999995,22.5098],[114.14559999999994,22.5098],[114.14559999999994,22.5114],[114.14399999999995,22.5114],[114.14399999999995,22.5098]]]}},{"type":"Feature","properties":{"id":"lu-northern-metropolis-03-16","class":"built_up","vegetationFraction":0.239,"pavedFraction":0.415,"waterFraction":0.0,"simulated":true},"geometry":{"type":"Polygon","coordinates":[[[114.14559999999994,22.5098],[114.14719999999994,22.5098],[114.14719999999994,22.5114],[114.14559999999994,22.5114],[114.14559999999994,22.5098]]]}},{"type":"Feature","properties":{"id":"lu-northern-metropolis-03-17","class":"urban_open_space","vegetationFraction":0.384,"pavedFraction":0.547,"waterFraction":0.028,"simulated":true},"geometry":{"type":"Polygon","coordinates":[[[114.14719999999994,22.5098],[114.14879999999994,22.5098],[114.14879999999994,22.5114],[114.14719999999994,22.5114],[114.14719999999994,22.5098]]]}},{"type":"Feature","properties":{"id":"lu-northern-metropolis-03-18","class":"green_space","vegetationFraction":0.484,"pavedFraction":0.431,"waterFraction":0.001,"simulated":true},"geometry":{"type":"Polygon","coordinates":[[[114.14879999999994,22.5098],[114.15039999999993,22.5098],[114.15039999999993,22.5114],[114.14879999999994,22.5114],[114.14879999999994,22.5098]]]}},{"type":"Feature","properties":{"id":"lu-northern-metropolis-04-00","class":"urban_open_space","vegetationFraction":0.293,"pavedFraction":0.384,"waterFraction":0.004,"simulated":true},"geometry":{"type":"Polygon","coordinates":[[[114.12,22.5114],[114.1216,22.5114],[114.1216,22.512999999999998],[114.12,22.512999999999998],[114.12,22.5114]]]}},{"type":"Feature","properties":{"id":"lu-northern-metropolis-04-01","class":"urban_open_space","vegetationFraction":0.312,"pavedFraction":0.568,"waterFraction":0.007,"simulated":true},"geometry":{"type":"Polygon","coordinates":[[[114.1216,22.5114],[114.1232,22.5114],[114.1232,22.512999999999998],[114.1216,22.512999999999998],[114.1216,22.5114]]]}},{"type":"Feature","properties":{"id":"lu-northern-metropolis-04-02","class":"built_up","vegetationFraction":0.221,"pavedFraction":0.372,"waterFraction":0.043,"simulated":true},"geometry":{"type":"Polygon","coordinates":[[[114.1232,22.5114],[114.1248,22.5114],[114.1248,22.512999999999998],[114.1232,22.512999999999998],[114.1232,22.5114]]]}},{"type":"Feature","properties":{"id":"lu-northern-metropolis-04-03","class":"urban_open_space","vegetationFraction":0.4,"pavedFraction":0.422,"waterFraction":0.008,"simulated":true},"geometry":{"type":"Polygon","coordinates":[[[114.1248,22.5114],[114.12639999999999,22.5114],[114.12639999999999,22.512999999999998],[114.1248,22.512999999999998],[114.1248,22.5114]]]}},{"type":"Feature","properties":{"id":"lu-northern-metropolis-04-04","class":"urban_open_space","vegetationFraction":0.365,"pavedFraction":0.38,"waterFraction":0.01,"simulated":true},"geometry":{"type":"Polygon","coordinates":[[[114.12639999999999,22.5114],[114.12799999999999,22.5114],[114.12799999999999,22.512999999999998],[114.12639999999999,22.512999999999998],[114.12639999999999,22.5114]]]}},{"type":"Feature","properties":{"id":"lu-northern-metropolis-04-05","class":"green_space","vegetationFraction":0.442,"pavedFraction":0.407,"waterFraction":0.028,"simulated":true},"geometry":{"type":"Polygon","coordinates":[[[114.12799999999999,22.5114],[114.12959999999998,22.5114],[114.12959999999998,22.512999999999998],[114.12799999999999,22.512999999999998],[114.12799999999999,22.5114]]]}},{"type":"Feature","properties":{"id":"lu-northern-metropolis-04-06","class":"green_space","vegetationFraction":0.78,"pavedFraction":0.1,"waterFraction":0.009,"simulated":true},"geometry":{"type":"Polygon","coordinates":[[[114.12959999999998,22.5114],[114.13119999999998,22.5114],[114.13119999999998,22.512999999999998],[114.12959999999998,22.512999999999998],[114.12959999999998,22.5114]]]}},{"type":"Feature","properties":{"id":"lu-northern-metropolis-04-07","class":"green_space","vegetationFraction":0.78,"pavedFraction":0.1,"waterFraction":0.048,"simulated":true},"geometry":{"type":"Polygon","coordinates":[[[114.13119999999998,22.5114],[114.13279999999997,22.5114],[114.13279999999997,22.512999999999998],[114.13119999999998,22.512999999999998],[114.13119999999998,22.5114]]]}},{"type":"Feature","properties":{"id":"lu-northern-metropolis-04-08","class":"green_space","vegetationFraction":0.78,"pavedFraction":0.1,"waterFraction":0.046,"simulated":true},"geometry":{"type":"Polygon","coordinates":[[[114.13279999999997,22.5114],[114.13439999999997,22.5114],[114.13439999999997,22.512999999999998],[114.13279999999997,22.512999999999998],[114.13279999999997,22.5114]]]}},{"type":"Feature","properties":{"id":"lu-northern-metropolis-04-09","class":"green_space","vegetationFraction":0.78,"pavedFraction":0.1,"waterFraction":0.008,"simulated":true},"geometry":{"type":"Polygon","coordinates":[[[114.13439999999997,22.5114],[114.13599999999997,22.5114],[114.13599999999997,22.512999999999998],[114.13439999999997,22.512999999999998],[114.13439999999997,22.5114]]]}},{"type":"Feature","properties":{"id":"lu-northern-metropolis-04-10","class":"green_space","vegetationFraction":0.78,"pavedFraction":0.1,"waterFraction":0.008,"simulated":true},"geometry":{"type":"Polygon","coordinates":[[[114.13599999999997,22.5114],[114.13759999999996,22.5114],[114.13759999999996,22.512999999999998],[114.13599999999997,22.512999999999998],[114.13599999999997,22.5114]]]}},{"type":"Feature","properties":{"id":"lu-northern-metropolis-04-11","class":"urban_open_space","vegetationFraction":0.396,"pavedFraction":0.599,"waterFraction":0.033,"simulated":true},"geometry":{"type":"Polygon","coordinates":[[[114.13759999999996,22.5114],[114.13919999999996,22.5114],[114.13919999999996,22.512999999999998],[114.13759999999996,22.512999999999998],[114.13759999999996,22.5114]]]}},{"type":"Feature","properties":{"id":"lu-northern-metropolis-04-12","class":"green_space","vegetationFraction":0.434,"pavedFraction":0.44,"waterFraction":0.022,"simulated":true},"geometry":{"type":"Polygon","coordinates":[[[114.13919999999996,22.5114],[114.14079999999996,22.5114],[114.14079999999996,22.512999999999998],[114.13919999999996,22.512999999999998],[114.13919999999996,22.5114]]]}},{"type":"Feature","properties":{"id":"lu-northern-metropolis-04-13","class":"built_up","vegetationFraction":0.244,"pavedFraction":0.389,"waterFraction":0.024,"simulated":true},"geometry":{"type":"Polygon","coordinates":[[[114.14079999999996,22.5114],[114.14239999999995,22.5114],[114.14239999999995,22.512999999999998],[114.14079999999996,22.512999999999998],[114.14079999999996,22.5114]]]}},{"type":"Feature","properties":{"id":"lu-northern-metropolis-04-14","class":"urban_open_space","vegetationFraction":0.291,"pavedFraction":0.514,"waterFraction":0.031,"simulated":true},"geometry":{"type":"Polygon","coordinates":[[[114.14239999999995,22.5114],[114.14399999999995,22.5114],[114.14399999999995,22.512999999999998],[114.14239999999995,22.512999999999998],[114.14239999999995,22.5114]]]}},{"type":"Feature","properties":{"id":"lu-northern-metropolis-04-15","class":"urban_open_space","vegetationFraction":0.386,"pavedFraction":0.392,"waterFraction":0.038,"simulated":true},"geometry":{"type":"Polygon","coordinates":[[[114.14399999999995,22.5114],[114.14559999999994,22.5114],[114.14559999999994,22.512999999999998],[114.14399999999995,22.512999999999998],[114.14399999999995,22.5114]]]}},{"type":"Feature","properties":{"id":"lu-northern-metropolis-04-16","class":"urban_open_space","vegetationFraction":0.307,"pavedFraction":0.336,"waterFraction":0.048,"simulated":true},"geometry":{"type":"Polygon","coordinates":[[[114.14559999999994,22.5114],[114.14719999999994,22.5114],[114.14719999999994,22.512999999999998],[114.14559999999994,22.512999999999998],[114.14559999999994,22.5114]]]}},{"type":"Feature","properties":{"id":"lu-northern-metropolis-04-17","class":"urban_open_space","vegetationFraction":0.378,"pavedFraction":0.398,"waterFraction":0.01,"simulated":true},"geometry":{"type":"Polygon","coordinates":[[[114.14719999999994,22.5114],[114.14879999999994,22.5114],[114.14879999999994,22.512999999999998],[114.14719999999994,22.512999999999998],[114.14719999999994,22.5114]]]}},{"type":"Feature","properties":{"id":"lu-northern-metropolis-04-18","class":"green_space","vegetationFraction":0.406,"pavedFraction":0.364,"waterFraction":0.015,"simulated":true},"geometry":{"type":"Polygon","coordinates":[[[114.14879999999994,22.5114],[114.15039999999993,22.5114],[114.15039999999993,22.512999999999998],[114.14879999999994,22.512999999999998],[114.14879999999994,22.5114]]]}},{"type":"Feature","properties":{"id":"lu-northern-metropolis-05-00","class":"urban_open_space","vegetationFraction":0.334,"pavedFraction":0.487,"waterFraction":0.04,"simulated":true},"geometry":{"type":"Polygon","coordinates":[[[114.12,22.512999999999998],[114.1216,22.512999999999998],[114.1216,22.514599999999998],[114.12,22.514599999999998],[114.12,22.512999999999998]]]}},{"type":"Feature","properties":{"id":"lu-northern-metropolis-05-01","class":"urban_open_space","vegetationFraction":0.272,"pavedFraction":0.32,"waterFraction":0.045,"simulated":true},"geometry":{"type":"Polygon","coordinates":[[[114.1216,22.512999999999998],[114.1232,22.512999999999998],[114.1232,22.514599999999998],[114.1216,22.514599999999998],[114.1216,22.512999999999998]]]}},{"type":"Feature","properties":{"id":"lu-northern-metropolis-05-02","class":"urban_open_space","vegetationFraction":0.314,"pavedFraction":0.434,"waterFraction":0.008,"simulated":true},"geometry":{"type":"Polygon","coordinates":[[[114.1232,22.512999999999998],[114.1248,22.512999999999998],[114.1248,22.514599999999998],[114.1232,22.514599999999998],[114.1232,22.512999999999998]]]}},{"type":"Feature","properties":{"id":"lu-northern-metropolis-05-03","class":"urban_open_space","vegetationFraction":0.345,"pavedFraction":0.416,"waterFraction":0.022,"simulated":true},"geometry":{"type":"Polygon","coordinates":[[[114.1248,22.512999999999998],[114.12639999999999,22.512999999999998],[114.12639999999999,22.514599999999998],[114.1248,22.514599999999998],[114.1248,22.512999999999998]]]}},{"type":"Feature","properties":{"id":"lu-northern-metropolis-05-04","class":"green_space","vegetationFraction":0.414,"pavedFraction":0.501,"waterFraction":0.013,"simulated":true},"geometry":{"type":"Polygon","coordinates":[[[114.12639999999999,22.512999999999998],[114.12799999999999,22.512999999999998],[114.12799999999999,22.514599999999998],[114.12639999999999,22.514599999999998],[114.12639999999999,22.512999999999998]]]}},{"type":"Feature","properties":{"id":"lu-northern-metropolis-05-05","class":"green_space","vegetationFraction":0.431,"pavedFraction":0.535,"waterFraction":0.044,"simulated":true},"geometry":{"type":"Polygon","coordinates":[[[114.12799999999999,22.512999999999998],[114.12959999999998,22.512999999999998],[114.12959999999998,22.514599999999998],[114.12799999999999,22.514599999999998],[114.12799999999999,22.512999999999998]]]}},{"type":"Feature","properties":{"id":"lu-northern-metropolis-05-06","class":"green_space","vegetationFraction":0.78,"pavedFraction":0.1,"waterFraction":0.031,"simulated":true},"geometry":{"type":"Polygon","coordinates":[[[114.12959999999998,22.512999999999998],[114.13119999999998,22.512999999999998],[114.13119999999998,22.514599999999998],[114.12959999999998,22.514599999999998],[114.12959999999998,22.512999999999998]]]}},{"type":"Feature","properties":{"id":"lu-northern-metropolis-05-07","class":"green_space","vegetationFraction":0.78,"pavedFraction":0.1,"waterFraction":0.019,"simulated":true},"geometry":{"type":"Polygon","coordinates":[[[114.13119999999998,22.512999999999998],[114.13279999999997,22.512999999999998],[114.13279999999997,22.514599999999998],[114.13119999999998,22.514599999999998],[114.13119999999998,22.512999999999998]]]}},{"type":"Feature","properties":{"id":"lu-northern-metropolis-05-08","class":"green_space","vegetationFraction":0.78,"pavedFraction":0.1,"waterFraction":0.055,"simulated":true},"geometry":{"type":"Polygon","coordinates":[[[114.13279999999997,22.512999999999998],[114.13439999999997,22.512999999999998],[114.13439999999997,22.514599999999998],[114.13279999999997,22.514599999999998],[114.13279999999997,22.512999999999998]]]}},{"type":"Feature","properties":{"id":"lu-northern-metropolis-05-09","class":"green_space","vegetationFraction":0.78,"pavedFraction":0.1,"waterFraction":0.041,"simulated":true},"geometry":{"type":"Polygon","coordinates":[[[114.13439999999997,22.512999999999998],[114.13599999999997,22.512999999999998],[114.13599999999997,22.514599999999998],[114.13439999999997,22.514599999999998],[114.13439999999997,22.512999999999998]]]}},{"type":"Feature","properties":{"id":"lu-northern-metropolis-05-10","class":"green_space","vegetationFraction":0.78,"pavedFraction":0.1,"waterFraction":0.015,"simulated":true},"geometry":{"type":"Polygon","coordinates":[[[114.13599999999997,22.512999999999998],[114.13759999999996,22.512999999999998],[114.13759999999996,22.514599999999998],[114.13599999999997,22.514599999999998],[114.13599999999997,22.512999999999998]]]}},{"type":"Feature","properties":{"id":"lu-northern-metropolis-05-11","class":"built_up","vegetationFraction":0.24,"pavedFraction":0.369,"waterFraction":0.047,"simulated":true},"geometry":{"type":"Polygon","coordinates":[[[114.13759999999996,22.512999999999998],[114.13919999999996,22.512999999999998],[114.13919999999996,22.514599999999998],[114.13759999999996,22.514599999999998],[114.13759999999996,22.512999999999998]]]}},{"type":"Feature","properties":{"id":"lu-northern-metropolis-05-12","class":"green_space","vegetationFraction":0.431,"pavedFraction":0.342,"waterFraction":0.059,"simulated":true},"geometry":{"type":"Polygon","coordinates":[[[114.13919999999996,22.512999999999998],[114.14079999999996,22.512999999999998],[114.14079999999996,22.514599999999998],[114.13919999999996,22.514599999999998],[114.13919999999996,22.512999999999998]]]}},{"type":"Feature","properties":{"id":"lu-northern-metropolis-05-13","class":"green_space","vegetationFraction":0.507,"pavedFraction":0.568,"waterFraction":0.045,"simulated":true},"geometry":{"type":"Polygon","coordinates":[[[114.14079999999996,22.512999999999998],[114.14239999999995,22.512999999999998],[114.14239999999995,22.514599999999998],[114.14079999999996,22.514599999999998],[114.14079999999996,22.512999999999998]]]}},{"type":"Feature","properties":{"id":"lu-northern-metropolis-05-14","class":"urban_open_space","vegetationFraction":0.328,"pavedFraction":0.471,"waterFraction":0.023,"simulated":true},"geometry":{"type":"Polygon","coordinates":[[[114.14239999999995,22.512999999999998],[114.14399999999995,22.512999999999998],[114.14399999999995,22.514599999999998],[114.14239999999995,22.514599999999998],[114.14239999999995,22.512999999999998]]]}},{"type":"Feature","properties":{"id":"lu-northern-metropolis-05-15","class":"urban_open_space","vegetationFraction":0.285,"pavedFraction":0.409,"waterFraction":0.019,"simulated":true},"geometry":{"type":"Polygon","coordinates":[[[114.14399999999995,22.512999999999998],[114.14559999999994,22.512999999999998],[114.14559999999994,22.514599999999998],[114.14399999999995,22.514599999999998],[114.14399999999995,22.512999999999998]]]}},{"type":"Feature","properties":{"id":"lu-northern-metropolis-05-16","class":"urban_open_space","vegetationFraction":0.335,"pavedFraction":0.484,"waterFraction":0.034,"simulated":true},"geometry":{"type":"Polygon","coordinates":[[[114.14559999999994,22.512999999999998],[114.14719999999994,22.512999999999998],[114.14719999999994,22.514599999999998],[114.14559999999994,22.514599999999998],[114.14559999999994,22.512999999999998]]]}},{"type":"Feature","properties":{"id":"lu-northern-metropolis-05-17","class":"urban_open_space","vegetationFraction":0.307,"pavedFraction":0.346,"waterFraction":0.01,"simulated":true},"geometry":{"type":"Polygon","coordinates":[[[114.14719999999994,22.512999999999998],[114.14879999999994,22.512999999999998],[114.14879999999994,22.514599999999998],[114.14719999999994,22.514599999999998],[114.14719999999994,22.512999999999998]]]}},{"type":"Feature","properties":{"id":"lu-northern-metropolis-05-18","class":"built_up","vegetationFraction":0.241,"pavedFraction":0.515,"waterFraction":0.03,"simulated":true},"geometry":{"type":"Polygon","coordinates":[[[114.14879999999994,22.512999999999998],[114.15039999999993,22.512999999999998],[114.15039999999993,22.514599999999998],[114.14879999999994,22.514599999999998],[114.14879999999994,22.512999999999998]]]}},{"type":"Feature","properties":{"id":"lu-northern-metropolis-06-00","class":"urban_open_space","vegetationFraction":0.353,"pavedFraction":0.596,"waterFraction":0.044,"simulated":true},"geometry":{"type":"Polygon","coordinates":[[[114.12,22.514599999999998],[114.1216,22.514599999999998],[114.1216,22.516199999999998],[114.12,22.516199999999998],[114.12,22.514599999999998]]]}},{"type":"Feature","properties":{"id":"lu-northern-metropolis-06-01","class":"green_space","vegetationFraction":0.461,"pavedFraction":0.429,"waterFraction":0.056,"simulated":true},"geometry":{"type":"Polygon","coordinates":[[[114.1216,22.514599999999998],[114.1232,22.514599999999998],[114.1232,22.516199999999998],[114.1216,22.516199999999998],[114.1216,22.514599999999998]]]}},{"type":"Feature","properties":{"id":"lu-northern-metropolis-06-02","class":"green_space","vegetationFraction":0.401,"pavedFraction":0.385,"waterFraction":0.008,"simulated":true},"geometry":{"type":"Polygon","coordinates":[[[114.1232,22.514599999999998],[114.1248,22.514599999999998],[114.1248,22.516199999999998],[114.1232,22.516199999999998],[114.1232,22.514599999999998]]]}},{"type":"Feature","properties":{"id":"lu-northern-metropolis-06-03","class":"urban_open_space","vegetationFraction":0.356,"pavedFraction":0.404,"waterFraction":0.047,"simulated":true},"geometry":{"type":"Polygon","coordinates":[[[114.1248,22.514599999999998],[114.12639999999999,22.514599999999998],[114.12639999999999,22.516199999999998],[114.1248,22.516199999999998],[114.1248,22.514599999999998]]]}},{"type":"Feature","properties":{"id":"lu-northern-metropolis-06-04","class":"green_space","vegetationFraction":0.413,"pavedFraction":0.582,"waterFraction":0.009,"simulated":true},"geometry":{"type":"Polygon","coordinates":[[[114.12639999999999,22.514599999999998],[114.12799999999999,22.514599999999998],[114.12799999999999,22.516199999999998],[114.12639999999999,22.516199999999998],[114.12639999999999,22.514599999999998]]]}},{"type":"Feature","properties":{"id":"lu-northern-metropolis-06-05","class":"green_space","vegetationFraction":0.485,"pavedFraction":0.413,"waterFraction":0.024,"simulated":true},"geometry":{"type":"Polygon","coordinates":[[[114.12799999999999,22.514599999999998],[114.12959999999998,22.514599999999998],[114.12959999999998,22.516199999999998],[114.12799999999999,22.516199999999998],[114.12799999999999,22.514599999999998]]]}},{"type":"Feature","properties":{"id":"lu-northern-metropolis-06-06","class":"green_space","vegetationFraction":0.78,"pavedFraction":0.1,"waterFraction":0.059,"simulated":true},"geometry":{"type":"Polygon","coordinates":[[[114.12959999999998,22.514599999999998],[114.13119999999998,22.514599999999998],[114.13119999999998,22.516199999999998],[114.12959999999998,22.516199999999998],[114.12959999999998,22.514599999999998]]]}},{"type":"Feature","properties":{"id":"lu-northern-metropolis-06-07","class":"green_space","vegetationFraction":0.78,"pavedFraction":0.1,"waterFraction":0.057,"simulated":true},"geometry":{"type":"Polygon","coordinates":[[[114.13119999999998,22.514599999999998],[114.13279999999997,22.514599999999998],[114.13279999999997,22.516199999999998],[114.13119999999998,22.516199999999998],[114.13119999999998,22.514599999999998]]]}},{"type":"Feature","properties":{"id":"lu-northern-metropolis-06-08","class":"green_space","vegetationFraction":0.78,"pavedFraction":0.1,"waterFraction":0.032,"simulated":true},"geometry":{"type":"Polygon","coordinates":[[[114.13279999999997,22.514599999999998],[114.13439999999997,22.514599999999998],[114.13439999999997,22.516199999999998],[114.13279999999997,22.516199999999998],[114.13279999999997,22.514599999999998]]]}},{"type":"Feature","properties":{"id":"lu-northern-metropolis-06-09","class":"green_space","vegetationFraction":0.78,"pavedFraction":0.1,"waterFraction":0.007,"simulated":true},"geometry":{"type":"Polygon","coordinates":[[[114.13439999999997,22.514599999999998],[114.13599999999997,22.514599999999998],[114.13599999999997,22.516199999999998],[114.13439999999997,22.516199999999998],[114.13439999999997,22.514599999999998]]]}},{"type":"Feature","properties":{"id":"lu-northern-metropolis-06-10","class":"green_space","vegetationFraction":0.78,"pavedFraction":0.1,"waterFraction":0.025,"simulated":true},"geometry":{"type":"Polygon","coordinates":[[[114.13599999999997,22.514599999999998],[114.13759999999996,22.514599999999998],[114.13759999999996,22.516199999999998],[114.13599999999997,22.516199999999998],[114.13599999999997,22.514599999999998]]]}},{"type":"Feature","properties":{"id":"lu-northern-metropolis-06-11","class":"urban_open_space","vegetationFraction":0.311,"pavedFraction":0.401,"waterFraction":0.055,"simulated":true},"geometry":{"type":"Polygon","coordinates":[[[114.13759999999996,22.514599999999998],[114.13919999999996,22.514599999999998],[114.13919999999996,22.516199999999998],[114.13759999999996,22.516199999999998],[114.13759999999996,22.514599999999998]]]}},{"type":"Feature","properties":{"id":"lu-northern-metropolis-06-12","class":"urban_open_space","vegetationFraction":0.371,"pavedFraction":0.502,"waterFraction":0.058,"simulated":true},"geometry":{"type":"Polygon","coordinates":[[[114.13919999999996,22.514599999999998],[114.14079999999996,22.514599999999998],[114.14079999999996,22.516199999999998],[114.13919999999996,22.516199999999998],[114.13919999999996,22.514599999999998]]]}},{"type":"Feature","properties":{"id":"lu-northern-metropolis-06-13","class":"built_up","vegetationFraction":0.236,"pavedFraction":0.325,"waterFraction":0.0,"simulated":true},"geometry":{"type":"Polygon","coordinates":[[[114.14079999999996,22.514599999999998],[114.14239999999995,22.514599999999998],[114.14239999999995,22.516199999999998],[114.14079999999996,22.516199999999998],[114.14079999999996,22.514599999999998]]]}},{"type":"Feature","properties":{"id":"lu-northern-metropolis-06-14","class":"built_up","vegetationFraction":0.245,"pavedFraction":0.48,"waterFraction":0.024,"simulated":true},"geometry":{"type":"Polygon","coordinates":[[[114.14239999999995,22.514599999999998],[114.14399999999995,22.514599999999998],[114.14399999999995,22.516199999999998],[114.14239999999995,22.516199999999998],[114.14239999999995,22.514599999999998]]]}},{"type":"Feature","properties":{"id":"lu-northern-metropolis-06-15","class":"urban_open_space","vegetationFraction":0.285,"pavedFraction":0.547,"waterFraction":0.041,"simulated":true},"geometry":{"type":"Polygon","coordinates":[[[114.14399999999995,22.514599999999998],[114.14559999999994,22.514599999999998],[114.14559999999994,22.516199999999998],[114.14399999999995,22.516199999999998],[114.14399999999995,22.514599999999998]]]}},{"type":"Feature","properties":{"id":"lu-northern-metropolis-06-16","class":"green_space","vegetationFraction":0.499,"pavedFraction":0.333,"waterFraction":0.048,"simulated":true},"geometry":{"type":"Polygon","coordinates":[[[114.14559999999994,22.514599999999998],[114.14719999999994,22.514599999999998],[114.14719999999994,22.516199999999998],[114.14559999999994,22.516199999999998],[114.14559999999994,22.514599999999998]]]}},{"type":"Feature","properties":{"id":"lu-northern-metropolis-06-17","class":"green_space","vegetationFraction":0.456,"pavedFraction":0.566,"waterFraction":0.058,"simulated":true},"geometry":{"type":"Polygon","coordinates":[[[114.14719999999994,22.514599999999998],[114.14879999999994,22.514599999999998],[114.14879999999994,22.516199999999998],[114.14719999999994,22.516199999999998],[114.14719999999994,22.514599999999998]]]}},{"type":"Feature","properties":{"id":"lu-northern-metropolis-06-18","class":"urban_open_space","vegetationFraction":0.347,"pavedFraction":0.459,"waterFraction":0.059,"simulated":true},"geometry":{"type":"Polygon","coordinates":[[[114.14879999999994,22.514599999999998],[114.15039999999993,22.514599999999998],[114.15039999999993,22.516199999999998],[114.14879999999994,22.516199999999998],[114.14879999999994,22.514599999999998]]]}},{"type":"Feature","properties":{"id":"lu-northern-metropolis-07-00","class":"green_space","vegetationFraction":0.519,"pavedFraction":0.396,"waterFraction":0.048,"simulated":true},"geometry":{"type":"Polygon","coordinates":[[[114.12,22.516199999999998],[114.1216,22.516199999999998],[114.1216,22.517799999999998],[114.12,22.517799999999998],[114.12,22.516199999999998]]]}},{"type":"Feature","properties":{"id":"lu-northern-metropolis-07-01","class":"urban_open_space","vegetationFraction":0.282,"pavedFraction":0.316,"waterFraction":0.0,"simulated":true},"geometry":{"type":"Polygon","coordinates":[[[114.1216,22.516199999999998],[114.1232,22.516199999999998],[114.1232,22.517799999999998],[114.1216,22.517799999999998],[114.1216,22.516199999999998]]]}},{"type":"Feature","properties":{"id":"lu-northern-metropolis-07-02","class":"urban_open_space","vegetationFraction":0.366,"pavedFraction":0.592,"waterFraction":0.058,"simulated":true},"geometry":{"type":"Polygon","coordinates":[[[114.1232,22.516199999999998],[114.1248,22.516199999999998],[114.1248,22.517799999999998],[114.1232,22.517799999999998],[114.1232,22.516199999999998]]]}},{"type":"Feature","properties":{"id":"lu-northern-metropolis-07-03","class":"built_up","vegetationFraction":0.242,"pavedFraction":0.454,"waterFraction":0.054,"simulated":true},"geometry":{"type":"Polygon","coordinates":[[[114.1248,22.516199999999998],[114.12639999999999,22.516199999999998],[114.12639999999999,22.517799999999998],[114.1248,22.517799999999998],[114.1248,22.516199999999998]]]}},{"type":"Feature","properties":{"id":"lu-northern-metropolis-07-04","class":"urban_open_space","vegetationFraction":0.312,"pavedFraction":0.366,"waterFraction":0.033,"simulated":true},"geometry":{"type":"Polygon","coordinates":[[[114.12639999999999,22.516199999999998],[114.12799999999999,22.516199999999998],[114.12799999999999,22.517799999999998],[114.12639999999999,22.517799999999998],[114.12639999999999,22.516199999999998]]]}},{"type":"Feature","properties":{"id":"lu-northern-metropolis-07-05","class":"green_space","vegetationFraction":0.404,"pavedFraction":0.301,"waterFraction":0.058,"simulated":true},"geometry":{"type":"Polygon","coordinates":[[[114.12799999999999,22.516199999999998],[114.12959999999998,22.516199999999998],[114.12959999999998,22.517799999999998],[114.12799999999999,22.517799999999998],[114.12799999999999,22.516199999999998]]]}},{"type":"Feature","properties":{"id":"lu-northern-metropolis-07-06","class":"urban_open_space","vegetationFraction":0.324,"pavedFraction":0.584,"waterFraction":0.019,"simulated":true},"geometry":{"type":"Polygon","coordinates":[[[114.12959999999998,22.516199999999998],[114.13119999999998,22.516199999999998],[114.13119999999998,22.517799999999998],[114.12959999999998,22.517799999999998],[114.12959999999998,22.516199999999998]]]}},{"type":"Feature","properties":{"id":"lu-northern-metropolis-07-07","class":"green_space","vegetationFraction":0.444,"pavedFraction":0.495,"waterFraction":0.053,"simulated":true},"geometry":{"type":"Polygon","coordinates":[[[114.13119999999998,22.516199999999998],[114.13279999999997,22.516199999999998],[114.13279999999997,22.517799999999998],[114.13119999999998,22.517799999999998],[114.13119999999998,22.516199999999998]]]}},{"type":"Feature","properties":{"id":"lu-northern-metropolis-07-08","class":"green_space","vegetationFraction":0.449,"pavedFraction":0.464,"waterFraction":0.007,"simulated":true},"geometry":{"type":"Polygon","coordinates":[[[114.13279999999997,22.516199999999998],[114.13439999999997,22.516199999999998],[114.13439999999997,22.517799999999998],[114.13279999999997,22.517799999999998],[114.13279999999997,22.516199999999998]]]}},{"type":"Feature","properties":{"id":"lu-northern-metropolis-07-09","class":"urban_open_space","vegetationFraction":0.285,"pavedFraction":0.448,"waterFraction":0.026,"simulated":true},"geometry":{"type":"Polygon","coordinates":[[[114.13439999999997,22.516199999999998],[114.13599999999997,22.516199999999998],[114.13599999999997,22.517799999999998],[114.13439999999997,22.517799999999998],[114.13439999999997,22.516199999999998]]]}},{"type":"Feature","properties":{"id":"lu-northern-metropolis-07-10","class":"urban_open_space","vegetationFraction":0.282,"pavedFraction":0.561,"waterFraction":0.058,"simulated":true},"geometry":{"type":"Polygon","coordinates":[[[114.13599999999997,22.516199999999998],[114.13759999999996,22.516199999999998],[114.13759999999996,22.517799999999998],[114.13599999999997,22.517799999999998],[114.13599999999997,22.516199999999998]]]}},{"type":"Feature","properties":{"id":"lu-northern-metropolis-07-11","class":"green_space","vegetationFraction":0.402,"pavedFraction":0.52,"waterFraction":0.047,"simulated":true},"geometry":{"type":"Polygon","coordinates":[[[114.13759999999996,22.516199999999998],[114.13919999999996,22.516199999999998],[114.13919999999996,22.517799999999998],[114.13759999999996,22.517799999999998],[114.13759999999996,22.516199999999998]]]}},{"type":"Feature","properties":{"id":"lu-northern-metropolis-07-12","class":"green_space","vegetationFraction":0.52,"pavedFraction":0.445,"waterFraction":0.039,"simulated":true},"geometry":{"type":"Polygon","coordinates":[[[114.13919999999996,22.516199999999998],[114.14079999999996,22.516199999999998],[114.14079999999996,22.517799999999998],[114.13919999999996,22.517799999999998],[114.13919999999996,22.516199999999998]]]}},{"type":"Feature","properties":{"id":"lu-northern-metropolis-07-13","class":"urban_open_space","vegetationFraction":0.305,"pavedFraction":0.462,"waterFraction":0.014,"simulated":true},"geometry":{"type":"Polygon","coordinates":[[[114.14079999999996,22.516199999999998],[114.14239999999995,22.516199999999998],[114.14239999999995,22.517799999999998],[114.14079999999996,22.517799999999998],[114.14079999999996,22.516199999999998]]]}},{"type":"Feature","properties":{"id":"lu-northern-metropolis-07-14","class":"urban_open_space","vegetationFraction":0.396,"pavedFraction":0.38,"waterFraction":0.025,"simulated":true},"geometry":{"type":"Polygon","coordinates":[[[114.14239999999995,22.516199999999998],[114.14399999999995,22.516199999999998],[114.14399999999995,22.517799999999998],[114.14239999999995,22.517799999999998],[114.14239999999995,22.516199999999998]]]}},{"type":"Feature","properties":{"id":"lu-northern-metropolis-07-15","class":"green_space","vegetationFraction":0.485,"pavedFraction":0.432,"waterFraction":0.045,"simulated":true},"geometry":{"type":"Polygon","coordinates":[[[114.14399999999995,22.516199999999998],[114.14559999999994,22.516199999999998],[114.14559999999994,22.517799999999998],[114.14399999999995,22.517799999999998],[114.14399999999995,22.516199999999998]]]}},{"type":"Feature","properties":{"id":"lu-northern-metropolis-07-16","class":"urban_open_space","vegetationFraction":0.305,"pavedFraction":0.441,"waterFraction":0.0,"simulated":true},"geometry":{"type":"Polygon","coordinates":[[[114.14559999999994,22.516199999999998],[114.14719999999994,22.516199999999998],[114.14719999999994,22.517799999999998],[114.14559999999994,22.517799999999998],[114.14559999999994,22.516199999999998]]]}},{"type":"Feature","properties":{"id":"lu-northern-metropolis-07-17","class":"urban_open_space","vegetationFraction":0.387,"pavedFraction":0.548,"waterFraction":0.003,"simulated":true},"geometry":{"type":"Polygon","coordinates":[[[114.14719999999994,22.516199999999998],[114.14879999999994,22.516199999999998],[114.14879999999994,22.517799999999998],[114.14719999999994,22.517799999999998],[114.14719999999994,22.516199999999998]]]}},{"type":"Feature","properties":{"id":"lu-northern-metropolis-07-18","class":"built_up","vegetationFraction":0.228,"pavedFraction":0.398,"waterFraction":0.044,"simulated":true},"geometry":{"type":"Polygon","coordinates":[[[114.14879999999994,22.516199999999998],[114.15039999999993,22.516199999999998],[114.15039999999993,22.517799999999998],[114.14879999999994,22.517799999999998],[114.14879999999994,22.516199999999998]]]}},{"type":"Feature","properties":{"id":"lu-northern-metropolis-08-00","class":"green_space","vegetationFraction":0.518,"pavedFraction":0.482,"waterFraction":0.032,"simulated":true},"geometry":{"type":"Polygon","coordinates":[[[114.12,22.517799999999998],[114.1216,22.517799999999998],[114.1216,22.519399999999997],[114.12,22.519399999999997],[114.12,22.517799999999998]]]}},{"type":"Feature","properties":{"id":"lu-northern-metropolis-08-01","class":"urban_open_space","vegetationFraction":0.316,"pavedFraction":0.58,"waterFraction":0.053,"simulated":true},"geometry":{"type":"Polygon","coordinates":[[[114.1216,22.517799999999998],[114.1232,22.517799999999998],[114.1232,22.519399999999997],[114.1216,22.519399999999997],[114.1216,22.517799999999998]]]}},{"type":"Feature","properties":{"id":"lu-northern-metropolis-08-02","class":"green_space","vegetationFraction":0.502,"pavedFraction":0.364,"waterFraction":0.047,"simulated":true},"geometry":{"type":"Polygon","coordinates":[[[114.1232,22.517799999999998],[114.1248,22.517799999999998],[114.1248,22.519399999999997],[114.1232,22.519399999999997],[114.1232,22.517799999999998]]]}},{"type":"Feature","properties":{"id":"lu-northern-metropolis-08-03","class":"urban_open_space","vegetationFraction":0.278,"pavedFraction":0.556,"waterFraction":0.035,"simulated":true},"geometry":{"type":"Polygon","coordinates":[[[114.1248,22.517799999999998],[114.12639999999999,22.517799999999998],[114.12639999999999,22.519399999999997],[114.1248,22.519399999999997],[114.1248,22.517799999999998]]]}},{"type":"Feature","properties":{"id":"lu-northern-metropolis-08-04","class":"urban_open_space","vegetationFraction":0.322,"pavedFraction":0.304,"waterFraction":0.017,"simulated":true},"geometry":{"type":"Polygon","coordinates":[[[114.12639999999999,22.517799999999998],[114.12799999999999,22.517799999999998],[114.12799999999999,22.519399999999997],[114.12639999999999,22.519399999999997],[114.12639999999999,22.517799999999998]]]}},{"type":"Feature","properties":{"id":"lu-northern-metropolis-08-05","class":"green_space","vegetationFraction":0.451,"pavedFraction":0.48,"waterFraction":0.049,"simulated":true},"geometry":{"type":"Polygon","coordinates":[[[114.12799999999999,22.517799999999998],[114.12959999999998,22.517799999999998],[114.12959999999998,22.519399999999997],[114.12799999999999,22.519399999999997],[114.12799999999999,22.517799999999998]]]}},{"type":"Feature","properties":{"id":"lu-northern-metropolis-08-06","class":"built_up","vegetationFraction":0.245,"pavedFraction":0.324,"waterFraction":0.03,"simulated":true},"geometry":{"type":"Polygon","coordinates":[[[114.12959999999998,22.517799999999998],[114.13119999999998,22.517799999999998],[114.13119999999998,22.519399999999997],[114.12959999999998,22.519399999999997],[114.12959999999998,22.517799999999998]]]}},{"type":"Feature","properties":{"id":"lu-northern-metropolis-08-07","class":"green_space","vegetationFraction":0.427,"pavedFraction":0.498,"waterFraction":0.007,"simulated":true},"geometry":{"type":"Polygon","coordinates":[[[114.13119999999998,22.517799999999998],[114.13279999999997,22.517799999999998],[114.13279999999997,22.519399999999997],[114.13119999999998,22.519399999999997],[114.13119999999998,22.517799999999998]]]}},{"type":"Feature","properties":{"id":"lu-northern-metropolis-08-08","class":"built_up","vegetationFraction":0.233,"pavedFraction":0.346,"waterFraction":0.028,"simulated":true},"geometry":{"type":"Polygon","coordinates":[[[114.13279999999997,22.517799999999998],[114.13439999999997,22.517799999999998],[114.13439999999997,22.519399999999997],[114.13279999999997,22.519399999999997],[114.13279999999997,22.517799999999998]]]}},{"type":"Feature","properties":{"id":"lu-northern-metropolis-08-09","class":"green_space","vegetationFraction":0.466,"pavedFraction":0.426,"waterFraction":0.019,"simulated":true},"geometry":{"type":"Polygon","coordinates":[[[114.13439999999997,22.517799999999998],[114.13599999999997,22.517799999999998],[114.13599999999997,22.519399999999997],[114.13439999999997,22.519399999999997],[114.13439999999997,22.517799999999998]]]}},{"type":"Feature","properties":{"id":"lu-northern-metropolis-08-10","class":"urban_open_space","vegetationFraction":0.287,"pavedFraction":0.465,"waterFraction":0.034,"simulated":true},"geometry":{"type":"Polygon","coordinates":[[[114.13599999999997,22.517799999999998],[114.13759999999996,22.517799999999998],[114.13759999999996,22.519399999999997],[114.13599999999997,22.519399999999997],[114.13599999999997,22.517799999999998]]]}},{"type":"Feature","properties":{"id":"lu-northern-metropolis-08-11","class":"urban_open_space","vegetationFraction":0.382,"pavedFraction":0.455,"waterFraction":0.004,"simulated":true},"geometry":{"type":"Polygon","coordinates":[[[114.13759999999996,22.517799999999998],[114.13919999999996,22.517799999999998],[114.13919999999996,22.519399999999997],[114.13759999999996,22.519399999999997],[114.13759999999996,22.517799999999998]]]}},{"type":"Feature","properties":{"id":"lu-northern-metropolis-08-12","class":"urban_open_space","vegetationFraction":0.292,"pavedFraction":0.3,"waterFraction":0.009,"simulated":true},"geometry":{"type":"Polygon","coordinates":[[[114.13919999999996,22.517799999999998],[114.14079999999996,22.517799999999998],[114.14079999999996,22.519399999999997],[114.13919999999996,22.519399999999997],[114.13919999999996,22.517799999999998]]]}},{"type":"Feature","properties":{"id":"lu-northern-metropolis-08-13","class":"urban_open_space","vegetationFraction":0.259,"pavedFraction":0.396,"waterFraction":0.035,"simulated":true},"geometry":{"type":"Polygon","coordinates":[[[114.14079999999996,22.517799999999998],[114.14239999999995,22.517799999999998],[114.14239999999995,22.519399999999997],[114.14079999999996,22.519399999999997],[114.14079999999996,22.517799999999998]]]}},{"type":"Feature","properties":{"id":"lu-northern-metropolis-08-14","class":"urban_open_space","vegetationFraction":0.334,"pavedFraction":0.445,"waterFraction":0.012,"simulated":true},"geometry":{"type":"Polygon","coordinates":[[[114.14239999999995,22.517799999999998],[114.14399999999995,22.517799999999998],[114.14399999999995,22.519399999999997],[114.14239999999995,22.519399999999997],[114.14239999999995,22.517799999999998]]]}},{"type":"Feature","properties":{"id":"lu-northern-metropolis-08-15","class":"green_space","vegetationFraction":0.414,"pavedFraction":0.319,"waterFraction":0.028,"simulated":true},"geometry":{"type":"Polygon","coordinates":[[[114.14399999999995,22.517799999999998],[114.14559999999994,22.517799999999998],[114.14559999999994,22.519399999999997],[114.14399999999995,22.519399999999997],[114.14399999999995,22.517799999999998]]]}},{"type":"Feature","properties":{"id":"lu-northern-metropolis-08-16","class":"green_space","vegetationFraction":0.475,"pavedFraction":0.402,"waterFraction":0.049,"simulated":true},"geometry":{"type":"Polygon","coordinates":[[[114.14559999999994,22.517799999999998],[114.14719999999994,22.517799999999998],[114.14719999999994,22.519399999999997],[114.14559999999994,22.519399999999997],[114.14559999999994,22.517799999999998]]]}},{"type":"Feature","properties":{"id":"lu-northern-metropolis-08-17","class":"green_space","vegetationFraction":0.479,"pavedFraction":0.444,"waterFraction":0.03,"simulated":true},"geometry":{"type":"Polygon","coordinates":[[[114.14719999999994,22.517799999999998],[114.14879999999994,22.517799999999998],[114.14879999999994,22.519399999999997],[114.14719999999994,22.519399999999997],[114.14719999999994,22.517799999999998]]]}},{"type":"Feature","properties":{"id":"lu-northern-metropolis-08-18","class":"green_space","vegetationFraction":0.421,"pavedFraction":0.315,"waterFraction":0.032,"simulated":true},"geometry":{"type":"Polygon","coordinates":[[[114.14879999999994,22.517799999999998],[114.15039999999993,22.517799999999998],[114.15039999999993,22.519399999999997],[114.14879999999994,22.519399999999997],[114.14879999999994,22.517799999999998]]]}},{"type":"Feature","properties":{"id":"lu-northern-metropolis-09-00","class":"green_space","vegetationFraction":0.507,"pavedFraction":0.536,"waterFraction":0.044,"simulated":true},"geometry":{"type":"Polygon","coordinates":[[[114.12,22.519399999999997],[114.1216,22.519399999999997],[114.1216,22.520999999999997],[114.12,22.520999999999997],[114.12,22.519399999999997]]]}},{"type":"Feature","properties":{"id":"lu-northern-metropolis-09-01","class":"green_space","vegetationFraction":0.509,"pavedFraction":0.371,"waterFraction":0.05,"simulated":true},"geometry":{"type":"Polygon","coordinates":[[[114.1216,22.519399999999997],[114.1232,22.519399999999997],[114.1232,22.520999999999997],[114.1216,22.520999999999997],[114.1216,22.519399999999997]]]}},{"type":"Feature","properties":{"id":"lu-northern-metropolis-09-02","class":"urban_open_space","vegetationFraction":0.387,"pavedFraction":0.418,"waterFraction":0.023,"simulated":true},"geometry":{"type":"Polygon","coordinates":[[[114.1232,22.519399999999997],[114.1248,22.519399999999997],[114.1248,22.520999999999997],[114.1232,22.520999999999997],[114.1232,22.519399999999997]]]}},{"type":"Feature","properties":{"id":"lu-northern-metropolis-09-03","class":"green_space","vegetationFraction":0.42,"pavedFraction":0.529,"waterFraction":0.048,"simulated":true},"geometry":{"type":"Polygon","coordinates":[[[114.1248,22.519399999999997],[114.12639999999999,22.519399999999997],[114.12639999999999,22.520999999999997],[114.1248,22.520999999999997],[114.1248,22.519399999999997]]]}},{"type":"Feature","properties":{"id":"lu-northern-metropolis-09-04","class":"built_up","vegetationFraction":0.229,"pavedFraction":0.499,"waterFraction":0.029,"simulated":true},"geometry":{"type":"Polygon","coordinates":[[[114.12639999999999,22.519399999999997],[114.12799999999999,22.519399999999997],[114.12799999999999,22.520999999999997],[114.12639999999999,22.520999999999997],[114.12639999999999,22.519399999999997]]]}},{"type":"Feature","properties":{"id":"lu-northern-metropolis-09-05","class":"urban_open_space","vegetationFraction":0.384,"pavedFraction":0.415,"waterFraction":0.024,"simulated":true},"geometry":{"type":"Polygon","coordinates":[[[114.12799999999999,22.519399999999997],[114.12959999999998,22.519399999999997],[114.12959999999998,22.520999999999997],[114.12799999999999,22.520999999999997],[114.12799999999999,22.519399999999997]]]}},{"type":"Feature","properties":{"id":"lu-northern-metropolis-09-06","class":"urban_open_space","vegetationFraction":0.302,"pavedFraction":0.304,"waterFraction":0.005,"simulated":true},"geometry":{"type":"Polygon","coordinates":[[[114.12959999999998,22.519399999999997],[114.13119999999998,22.519399999999997],[114.13119999999998,22.520999999999997],[114.12959999999998,22.520999999999997],[114.12959999999998,22.519399999999997]]]}},{"type":"Feature","properties":{"id":"lu-northern-metropolis-09-07","class":"urban_open_space","vegetationFraction":0.276,"pavedFraction":0.433,"waterFraction":0.056,"simulated":true},"geometry":{"type":"Polygon","coordinates":[[[114.13119999999998,22.519399999999997],[114.13279999999997,22.519399999999997],[114.13279999999997,22.520999999999997],[114.13119999999998,22.520999999999997],[114.13119999999998,22.519399999999997]]]}},{"type":"Feature","properties":{"id":"lu-northern-metropolis-09-08","class":"urban_open_space","vegetationFraction":0.356,"pavedFraction":0.531,"waterFraction":0.002,"simulated":true},"geometry":{"type":"Polygon","coordinates":[[[114.13279999999997,22.519399999999997],[114.13439999999997,22.519399999999997],[114.13439999999997,22.520999999999997],[114.13279999999997,22.520999999999997],[114.13279999999997,22.519399999999997]]]}},{"type":"Feature","properties":{"id":"lu-northern-metropolis-09-09","class":"green_space","vegetationFraction":0.425,"pavedFraction":0.431,"waterFraction":0.029,"simulated":true},"geometry":{"type":"Polygon","coordinates":[[[114.13439999999997,22.519399999999997],[114.13599999999997,22.519399999999997],[114.13599999999997,22.520999999999997],[114.13439999999997,22.520999999999997],[114.13439999999997,22.519399999999997]]]}},{"type":"Feature","properties":{"id":"lu-northern-metropolis-09-10","class":"urban_open_space","vegetationFraction":0.381,"pavedFraction":0.461,"waterFraction":0.019,"simulated":true},"geometry":{"type":"Polygon","coordinates":[[[114.13599999999997,22.519399999999997],[114.13759999999996,22.519399999999997],[114.13759999999996,22.520999999999997],[114.13599999999997,22.520999999999997],[114.13599999999997,22.519399999999997]]]}},{"type":"Feature","properties":{"id":"lu-northern-metropolis-09-11","class":"green_space","vegetationFraction":0.476,"pavedFraction":0.533,"waterFraction":0.006,"simulated":true},"geometry":{"type":"Polygon","coordinates":[[[114.13759999999996,22.519399999999997],[114.13919999999996,22.519399999999997],[114.13919999999996,22.520999999999997],[114.13759999999996,22.520999999999997],[114.13759999999996,22.519399999999997]]]}},{"type":"Feature","properties":{"id":"lu-northern-metropolis-09-12","class":"green_space","vegetationFraction":0.511,"pavedFraction":0.372,"waterFraction":0.012,"simulated":true},"geometry":{"type":"Polygon","coordinates":[[[114.13919999999996,22.519399999999997],[114.14079999999996,22.519399999999997],[114.14079999999996,22.520999999999997],[114.13919999999996,22.520999999999997],[114.13919999999996,22.519399999999997]]]}},{"type":"Feature","properties":{"id":"lu-northern-metropolis-09-13","class":"green_space","vegetationFraction":0.506,"pavedFraction":0.348,"waterFraction":0.039,"simulated":true},"geometry":{"type":"Polygon","coordinates":[[[114.14079999999996,22.519399999999997],[114.14239999999995,22.519399999999997],[114.14239999999995,22.520999999999997],[114.14079999999996,22.520999999999997],[114.14079999999996,22.519399999999997]]]}},{"type":"Feature","properties":{"id":"lu-northern-metropolis-09-14","class":"green_space","vegetationFraction":0.473,"pavedFraction":0.504,"waterFraction":0.016,"simulated":true},"geometry":{"type":"Polygon","coordinates":[[[114.14239999999995,22.519399999999997],[114.14399999999995,22.519399999999997],[114.14399999999995,22.520999999999997],[114.14239999999995,22.520999999999997],[114.14239999999995,22.519399999999997]]]}},{"type":"Feature","properties":{"id":"lu-northern-metropolis-09-15","class":"green_space","vegetationFraction":0.489,"pavedFraction":0.549,"waterFraction":0.025,"simulated":true},"geometry":{"type":"Polygon","coordinates":[[[114.14399999999995,22.519399999999997],[114.14559999999994,22.519399999999997],[114.14559999999994,22.520999999999997],[114.14399999999995,22.520999999999997],[114.14399999999995,22.519399999999997]]]}},{"type":"Feature","properties":{"id":"lu-northern-metropolis-09-16","class":"built_up","vegetationFraction":0.222,"pavedFraction":0.326,"waterFraction":0.023,"simulated":true},"geometry":{"type":"Polygon","coordinates":[[[114.14559999999994,22.519399999999997],[114.14719999999994,22.519399999999997],[114.14719999999994,22.520999999999997],[114.14559999999994,22.520999999999997],[114.14559999999994,22.519399999999997]]]}},{"type":"Feature","properties":{"id":"lu-northern-metropolis-09-17","class":"green_space","vegetationFraction":0.405,"pavedFraction":0.369,"waterFraction":0.031,"simulated":true},"geometry":{"type":"Polygon","coordinates":[[[114.14719999999994,22.519399999999997],[114.14879999999994,22.519399999999997],[114.14879999999994,22.520999999999997],[114.14719999999994,22.520999999999997],[114.14719999999994,22.519399999999997]]]}},{"type":"Feature","properties":{"id":"lu-northern-metropolis-09-18","class":"urban_open_space","vegetationFraction":0.368,"pavedFraction":0.572,"waterFraction":0.052,"simulated":true},"geometry":{"type":"Polygon","coordinates":[[[114.14879999999994,22.519399999999997],[114.15039999999993,22.519399999999997],[114.15039999999993,22.520999999999997],[114.14879999999994,22.520999999999997],[114.14879999999994,22.519399999999997]]]}},{"type":"Feature","properties":{"id":"lu-northern-metropolis-10-00","class":"green_space","vegetationFraction":0.456,"pavedFraction":0.421,"waterFraction":0.043,"simulated":true},"geometry":{"type":"Polygon","coordinates":[[[114.12,22.520999999999997],[114.1216,22.520999999999997],[114.1216,22.522599999999997],[114.12,22.522599999999997],[114.12,22.520999999999997]]]}},{"type":"Feature","properties":{"id":"lu-northern-metropolis-10-01","class":"green_space","vegetationFraction":0.448,"pavedFraction":0.584,"waterFraction":0.059,"simulated":true},"geometry":{"type":"Polygon","coordinates":[[[114.1216,22.520999999999997],[114.1232,22.520999999999997],[114.1232,22.522599999999997],[114.1216,22.522599999999997],[114.1216,22.520999999999997]]]}},{"type":"Feature","properties":{"id":"lu-northern-metropolis-10-02","class":"urban_open_space","vegetationFraction":0.347,"pavedFraction":0.593,"waterFraction":0.004,"simulated":true},"geometry":{"type":"Polygon","coordinates":[[[114.1232,22.520999999999997],[114.1248,22.520999999999997],[114.1248,22.522599999999997],[114.1232,22.522599999999997],[114.1232,22.520999999999997]]]}},{"type":"Feature","properties":{"id":"lu-northern-metropolis-10-03","class":"green_space","vegetationFraction":0.432,"pavedFraction":0.516,"waterFraction":0.054,"simulated":true},"geometry":{"type":"Polygon","coordinates":[[[114.1248,22.520999999999997],[114.12639999999999,22.520999999999997],[114.12639999999999,22.522599999999997],[114.1248,22.522599999999997],[114.1248,22.520999999999997]]]}},{"type":"Feature","properties":{"id":"lu-northern-metropolis-10-04","class":"urban_open_space","vegetationFraction":0.342,"pavedFraction":0.485,"waterFraction":0.005,"simulated":true},"geometry":{"type":"Polygon","coordinates":[[[114.12639999999999,22.520999999999997],[114.12799999999999,22.520999999999997],[114.12799999999999,22.522599999999997],[114.12639999999999,22.522599999999997],[114.12639999999999,22.520999999999997]]]}},{"type":"Feature","properties":{"id":"lu-northern-metropolis-10-05","class":"urban_open_space","vegetationFraction":0.285,"pavedFraction":0.373,"waterFraction":0.008,"simulated":true},"geometry":{"type":"Polygon","coordinates":[[[114.12799999999999,22.520999999999997],[114.12959999999998,22.520999999999997],[114.12959999999998,22.522599999999997],[114.12799999999999,22.522599999999997],[114.12799999999999,22.520999999999997]]]}},{"type":"Feature","properties":{"id":"lu-northern-metropolis-10-06","class":"urban_open_space","vegetationFraction":0.311,"pavedFraction":0.325,"waterFraction":0.008,"simulated":true},"geometry":{"type":"Polygon","coordinates":[[[114.12959999999998,22.520999999999997],[114.13119999999998,22.520999999999997],[114.13119999999998,22.522599999999997],[114.12959999999998,22.522599999999997],[114.12959999999998,22.520999999999997]]]}},{"type":"Feature","properties":{"id":"lu-northern-metropolis-10-07","class":"built_up","vegetationFraction":0.225,"pavedFraction":0.587,"waterFraction":0.029,"simulated":true},"geometry":{"type":"Polygon","coordinates":[[[114.13119999999998,22.520999999999997],[114.13279999999997,22.520999999999997],[114.13279999999997,22.522599999999997],[114.13119999999998,22.522599999999997],[114.13119999999998,22.520999999999997]]]}},{"type":"Feature","properties":{"id":"lu-northern-metropolis-10-08","class":"urban_open_space","vegetationFraction":0.374,"pavedFraction":0.389,"waterFraction":0.018,"simulated":true},"geometry":{"type":"Polygon","coordinates":[[[114.13279999999997,22.520999999999997],[114.13439999999997,22.520999999999997],[114.13439999999997,22.522599999999997],[114.13279999999997,22.522599999999997],[114.13279999999997,22.520999999999997]]]}},{"type":"Feature","properties":{"id":"lu-northern-metropolis-10-09","class":"urban_open_space","vegetationFraction":0.315,"pavedFraction":0.334,"waterFraction":0.0,"simulated":true},"geometry":{"type":"Polygon","coordinates":[[[114.13439999999997,22.520999999999997],[114.13599999999997,22.520999999999997],[114.13599999999997,22.522599999999997],[114.13439999999997,22.522599999999997],[114.13439999999997,22.520999999999997]]]}},{"type":"Feature","properties":{"id":"lu-northern-metropolis-10-10","class":"urban_open_space","vegetationFraction":0.361,"pavedFraction":0.571,"waterFraction":0.007,"simulated":true},"geometry":{"type":"Polygon","coordinates":[[[114.13599999999997,22.520999999999997],[114.13759999999996,22.520999999999997],[114.13759999999996,22.522599999999997],[114.13599999999997,22.522599999999997],[114.13599999999997,22.520999999999997]]]}},{"type":"Feature","properties":{"id":"lu-northern-metropolis-10-11","class":"green_space","vegetationFraction":0.411,"pavedFraction":0.513,"waterFraction":0.016,"simulated":true},"geometry":{"type":"Polygon","coordinates":[[[114.13759999999996,22.520999999999997],[114.13919999999996,22.520999999999997],[114.13919999999996,22.522599999999997],[114.13759999999996,22.522599999999997],[114.13759999999996,22.520999999999997]]]}},{"type":"Feature","properties":{"id":"lu-northern-metropolis-10-12","class":"green_space","vegetationFraction":0.411,"pavedFraction":0.532,"waterFraction":0.044,"simulated":true},"geometry":{"type":"Polygon","coordinates":[[[114.13919999999996,22.520999999999997],[114.14079999999996,22.520999999999997],[114.14079999999996,22.522599999999997],[114.13919999999996,22.522599999999997],[114.13919999999996,22.520999999999997]]]}},{"type":"Feature","properties":{"id":"lu-northern-metropolis-10-13","class":"urban_open_space","vegetationFraction":0.379,"pavedFraction":0.473,"waterFraction":0.003,"simulated":true},"geometry":{"type":"Polygon","coordinates":[[[114.14079999999996,22.520999999999997],[114.14239999999995,22.520999999999997],[114.14239999999995,22.522599999999997],[114.14079999999996,22.522599999999997],[114.14079999999996,22.520999999999997]]]}},{"type":"Feature","properties":{"id":"lu-northern-metropolis-10-14","class":"urban_open_space","vegetationFraction":0.333,"pavedFraction":0.508,"waterFraction":0.004,"simulated":true},"geometry":{"type":"Polygon","coordinates":[[[114.14239999999995,22.520999999999997],[114.14399999999995,22.520999999999997],[114.14399999999995,22.522599999999997],[114.14239999999995,22.522599999999997],[114.14239999999995,22.520999999999997]]]}},{"type":"Feature","properties":{"id":"lu-northern-metropolis-10-15","class":"built_up","vegetationFraction":0.228,"pavedFraction":0.447,"waterFraction":0.044,"simulated":true},"geometry":{"type":"Polygon","coordinates":[[[114.14399999999995,22.520999999999997],[114.14559999999994,22.520999999999997],[114.14559999999994,22.522599999999997],[114.14399999999995,22.522599999999997],[114.14399999999995,22.520999999999997]]]}},{"type":"Feature","properties":{"id":"lu-northern-metropolis-10-16","class":"urban_open_space","vegetationFraction":0.344,"pavedFraction":0.416,"waterFraction":0.048,"simulated":true},"geometry":{"type":"Polygon","coordinates":[[[114.14559999999994,22.520999999999997],[114.14719999999994,22.520999999999997],[114.14719999999994,22.522599999999997],[114.14559999999994,22.522599999999997],[114.14559999999994,22.520999999999997]]]}},{"type":"Feature","properties":{"id":"lu-northern-metropolis-10-17","class":"urban_open_space","vegetationFraction":0.354,"pavedFraction":0.42,"waterFraction":0.046,"simulated":true},"geometry":{"type":"Polygon","coordinates":[[[114.14719999999994,22.520999999999997],[114.14879999999994,22.520999999999997],[114.14879999999994,22.522599999999997],[114.14719999999994,22.522599999999997],[114.14719999999994,22.520999999999997]]]}},{"type":"Feature","properties":{"id":"lu-northern-metropolis-10-18","class":"urban_open_space","vegetationFraction":0.291,"pavedFraction":0.393,"waterFraction":0.026,"simulated":true},"geometry":{"type":"Polygon","coordinates":[[[114.14879999999994,22.520999999999997],[114.15039999999993,22.520999999999997],[114.15039999999993,22.522599999999997],[114.14879999999994,22.522599999999997],[114.14879999999994,22.520999999999997]]]}},{"type":"Feature","properties":{"id":"lu-northern-metropolis-11-00","class":"urban_open_space","vegetationFraction":0.345,"pavedFraction":0.319,"waterFraction":0.007,"simulated":true},"geometry":{"type":"Polygon","coordinates":[[[114.12,22.522599999999997],[114.1216,22.522599999999997],[114.1216,22.524199999999997],[114.12,22.524199999999997],[114.12,22.522599999999997]]]}},{"type":"Feature","properties":{"id":"lu-northern-metropolis-11-01","class":"urban_open_space","vegetationFraction":0.364,"pavedFraction":0.381,"waterFraction":0.047,"simulated":true},"geometry":{"type":"Polygon","coordinates":[[[114.1216,22.522599999999997],[114.1232,22.522599999999997],[114.1232,22.524199999999997],[114.1216,22.524199999999997],[114.1216,22.522599999999997]]]}},{"type":"Feature","properties":{"id":"lu-northern-metropolis-11-02","class":"urban_open_space","vegetationFraction":0.376,"pavedFraction":0.325,"waterFraction":0.026,"simulated":true},"geometry":{"type":"Polygon","coordinates":[[[114.1232,22.522599999999997],[114.1248,22.522599999999997],[114.1248,22.524199999999997],[114.1232,22.524199999999997],[114.1232,22.522599999999997]]]}},{"type":"Feature","properties":{"id":"lu-northern-metropolis-11-03","class":"green_space","vegetationFraction":0.495,"pavedFraction":0.518,"waterFraction":0.004,"simulated":true},"geometry":{"type":"Polygon","coordinates":[[[114.1248,22.522599999999997],[114.12639999999999,22.522599999999997],[114.12639999999999,22.524199999999997],[114.1248,22.524199999999997],[114.1248,22.522599999999997]]]}},{"type":"Feature","properties":{"id":"lu-northern-metropolis-11-04","class":"green_space","vegetationFraction":0.439,"pavedFraction":0.553,"waterFraction":0.023,"simulated":true},"geometry":{"type":"Polygon","coordinates":[[[114.12639999999999,22.522599999999997],[114.12799999999999,22.522599999999997],[114.12799999999999,22.524199999999997],[114.12639999999999,22.524199999999997],[114.12639999999999,22.522599999999997]]]}},{"type":"Feature","properties":{"id":"lu-northern-metropolis-11-05","class":"urban_open_space","vegetationFraction":0.315,"pavedFraction":0.445,"waterFraction":0.037,"simulated":true},"geometry":{"type":"Polygon","coordinates":[[[114.12799999999999,22.522599999999997],[114.12959999999998,22.522599999999997],[114.12959999999998,22.524199999999997],[114.12799999999999,22.524199999999997],[114.12799999999999,22.522599999999997]]]}},{"type":"Feature","properties":{"id":"lu-northern-metropolis-11-06","class":"green_space","vegetationFraction":0.419,"pavedFraction":0.444,"waterFraction":0.002,"simulated":true},"geometry":{"type":"Polygon","coordinates":[[[114.12959999999998,22.522599999999997],[114.13119999999998,22.522599999999997],[114.13119999999998,22.524199999999997],[114.12959999999998,22.524199999999997],[114.12959999999998,22.522599999999997]]]}},{"type":"Feature","properties":{"id":"lu-northern-metropolis-11-07","class":"urban_open_space","vegetationFraction":0.345,"pavedFraction":0.384,"waterFraction":0.032,"simulated":true},"geometry":{"type":"Polygon","coordinates":[[[114.13119999999998,22.522599999999997],[114.13279999999997,22.522599999999997],[114.13279999999997,22.524199999999997],[114.13119999999998,22.524199999999997],[114.13119999999998,22.522599999999997]]]}},{"type":"Feature","properties":{"id":"lu-northern-metropolis-11-08","class":"urban_open_space","vegetationFraction":0.273,"pavedFraction":0.339,"waterFraction":0.019,"simulated":true},"geometry":{"type":"Polygon","coordinates":[[[114.13279999999997,22.522599999999997],[114.13439999999997,22.522599999999997],[114.13439999999997,22.524199999999997],[114.13279999999997,22.524199999999997],[114.13279999999997,22.522599999999997]]]}},{"type":"Feature","properties":{"id":"lu-northern-metropolis-11-09","class":"green_space","vegetationFraction":0.499,"pavedFraction":0.432,"waterFraction":0.01,"simulated":true},"geometry":{"type":"Polygon","coordinates":[[[114.13439999999997,22.522599999999997],[114.13599999999997,22.522599999999997],[114.13599999999997,22.524199999999997],[114.13439999999997,22.524199999999997],[114.13439999999997,22.522599999999997]]]}},{"type":"Feature","properties":{"id":"lu-northern-metropolis-11-10","class":"urban_open_space","vegetationFraction":0.382,"pavedFraction":0.396,"waterFraction":0.033,"simulated":true},"geometry":{"type":"Polygon","coordinates":[[[114.13599999999997,22.522599999999997],[114.13759999999996,22.522599999999997],[114.13759999999996,22.524199999999997],[114.13599999999997,22.524199999999997],[114.13599999999997,22.522599999999997]]]}},{"type":"Feature","properties":{"id":"lu-northern-metropolis-11-11","class":"green_space","vegetationFraction":0.424,"pavedFraction":0.545,"waterFraction":0.04,"simulated":true},"geometry":{"type":"Polygon","coordinates":[[[114.13759999999996,22.522599999999997],[114.13919999999996,22.522599999999997],[114.13919999999996,22.524199999999997],[114.13759999999996,22.524199999999997],[114.13759999999996,22.522599999999997]]]}},{"type":"Feature","properties":{"id":"lu-northern-metropolis-11-12","class":"urban_open_space","vegetationFraction":0.339,"pavedFraction":0.301,"waterFraction":0.051,"simulated":true},"geometry":{"type":"Polygon","coordinates":[[[114.13919999999996,22.522599999999997],[114.14079999999996,22.522599999999997],[114.14079999999996,22.524199999999997],[114.13919999999996,22.524199999999997],[114.13919999999996,22.522599999999997]]]}},{"type":"Feature","properties":{"id":"lu-northern-metropolis-11-13","class":"urban_open_space","vegetationFraction":0.32,"pavedFraction":0.392,"waterFraction":0.04,"simulated":true},"geometry":{"type":"Polygon","coordinates":[[[114.14079999999996,22.522599999999997],[114.14239999999995,22.522599999999997],[114.14239999999995,22.524199999999997],[114.14079999999996,22.524199999999997],[114.14079999999996,22.522599999999997]]]}},{"type":"Feature","properties":{"id":"lu-northern-metropolis-11-14","class":"urban_open_space","vegetationFraction":0.362,"pavedFraction":0.559,"waterFraction":0.014,"simulated":true},"geometry":{"type":"Polygon","coordinates":[[[114.14239999999995,22.522599999999997],[114.14399999999995,22.522599999999997],[114.14399999999995,22.524199999999997],[114.14239999999995,22.524199999999997],[114.14239999999995,22.522599999999997]]]}},{"type":"Feature","properties":{"id":"lu-northern-metropolis-11-15","class":"built_up","vegetationFraction":0.249,"pavedFraction":0.314,"waterFraction":0.038,"simulated":true},"geometry":{"type":"Polygon","coordinates":[[[114.14399999999995,22.522599999999997],[114.14559999999994,22.522599999999997],[114.14559999999994,22.524199999999997],[114.14399999999995,22.524199999999997],[114.14399999999995,22.522599999999997]]]}},{"type":"Feature","properties":{"id":"lu-northern-metropolis-11-16","class":"urban_open_space","vegetationFraction":0.322,"pavedFraction":0.575,"waterFraction":0.007,"simulated":true},"geometry":{"type":"Polygon","coordinates":[[[114.14559999999994,22.522599999999997],[114.14719999999994,22.522599999999997],[114.14719999999994,22.524199999999997],[114.14559999999994,22.524199999999997],[114.14559999999994,22.522599999999997]]]}},{"type":"Feature","properties":{"id":"lu-northern-metropolis-11-17","class":"green_space","vegetationFraction":0.436,"pavedFraction":0.487,"waterFraction":0.048,"simulated":true},"geometry":{"type":"Polygon","coordinates":[[[114.14719999999994,22.522599999999997],[114.14879999999994,22.522599999999997],[114.14879999999994,22.524199999999997],[114.14719999999994,22.524199999999997],[114.14719999999994,22.522599999999997]]]}},{"type":"Feature","properties":{"id":"lu-northern-metropolis-11-18","class":"green_space","vegetationFraction":0.406,"pavedFraction":0.307,"waterFraction":0.006,"simulated":true},"geometry":{"type":"Polygon","coordinates":[[[114.14879999999994,22.522599999999997],[114.15039999999993,22.522599999999997],[114.15039999999993,22.524199999999997],[114.14879999999994,22.524199999999997],[114.14879999999994,22.522599999999997]]]}},{"type":"Feature","properties":{"id":"lu-northern-metropolis-12-00","class":"green_space","vegetationFraction":0.5,"pavedFraction":0.596,"waterFraction":0.054,"simulated":true},"geometry":{"type":"Polygon","coordinates":[[[114.12,22.524199999999997],[114.1216,22.524199999999997],[114.1216,22.525799999999997],[114.12,22.525799999999997],[114.12,22.524199999999997]]]}},{"type":"Feature","properties":{"id":"lu-northern-metropolis-12-01","class":"green_space","vegetationFraction":0.436,"pavedFraction":0.461,"waterFraction":0.012,"simulated":true},"geometry":{"type":"Polygon","coordinates":[[[114.1216,22.524199999999997],[114.1232,22.524199999999997],[114.1232,22.525799999999997],[114.1216,22.525799999999997],[114.1216,22.524199999999997]]]}},{"type":"Feature","properties":{"id":"lu-northern-metropolis-12-02","class":"green_space","vegetationFraction":0.514,"pavedFraction":0.424,"waterFraction":0.004,"simulated":true},"geometry":{"type":"Polygon","coordinates":[[[114.1232,22.524199999999997],[114.1248,22.524199999999997],[114.1248,22.525799999999997],[114.1232,22.525799999999997],[114.1232,22.524199999999997]]]}},{"type":"Feature","properties":{"id":"lu-northern-metropolis-12-03","class":"urban_open_space","vegetationFraction":0.352,"pavedFraction":0.354,"waterFraction":0.029,"simulated":true},"geometry":{"type":"Polygon","coordinates":[[[114.1248,22.524199999999997],[114.12639999999999,22.524199999999997],[114.12639999999999,22.525799999999997],[114.1248,22.525799999999997],[114.1248,22.524199999999997]]]}},{"type":"Feature","properties":{"id":"lu-northern-metropolis-12-04","class":"green_space","vegetationFraction":0.449,"pavedFraction":0.453,"waterFraction":0.042,"simulated":true},"geometry":{"type":"Polygon","coordinates":[[[114.12639999999999,22.524199999999997],[114.12799999999999,22.524199999999997],[114.12799999999999,22.525799999999997],[114.12639999999999,22.525799999999997],[114.12639999999999,22.524199999999997]]]}},{"type":"Feature","properties":{"id":"lu-northern-metropolis-12-05","class":"urban_open_space","vegetationFraction":0.274,"pavedFraction":0.368,"waterFraction":0.059,"simulated":true},"geometry":{"type":"Polygon","coordinates":[[[114.12799999999999,22.524199999999997],[114.12959999999998,22.524199999999997],[114.12959999999998,22.525799999999997],[114.12799999999999,22.525799999999997],[114.12799999999999,22.524199999999997]]]}},{"type":"Feature","properties":{"id":"lu-northern-metropolis-12-06","class":"urban_open_space","vegetationFraction":0.279,"pavedFraction":0.38,"waterFraction":0.033,"simulated":true},"geometry":{"type":"Polygon","coordinates":[[[114.12959999999998,22.524199999999997],[114.13119999999998,22.524199999999997],[114.13119999999998,22.525799999999997],[114.12959999999998,22.525799999999997],[114.12959999999998,22.524199999999997]]]}},{"type":"Feature","properties":{"id":"lu-northern-metropolis-12-07","class":"built_up","vegetationFraction":0.249,"pavedFraction":0.408,"waterFraction":0.034,"simulated":true},"geometry":{"type":"Polygon","coordinates":[[[114.13119999999998,22.524199999999997],[114.13279999999997,22.524199999999997],[114.13279999999997,22.525799999999997],[114.13119999999998,22.525799999999997],[114.13119999999998,22.524199999999997]]]}},{"type":"Feature","properties":{"id":"lu-northern-metropolis-12-08","class":"green_space","vegetationFraction":0.456,"pavedFraction":0.586,"waterFraction":0.005,"simulated":true},"geometry":{"type":"Polygon","coordinates":[[[114.13279999999997,22.524199999999997],[114.13439999999997,22.524199999999997],[114.13439999999997,22.525799999999997],[114.13279999999997,22.525799999999997],[114.13279999999997,22.524199999999997]]]}},{"type":"Feature","properties":{"id":"lu-northern-metropolis-12-09","class":"green_space","vegetationFraction":0.509,"pavedFraction":0.524,"waterFraction":0.044,"simulated":true},"geometry":{"type":"Polygon","coordinates":[[[114.13439999999997,22.524199999999997],[114.13599999999997,22.524199999999997],[114.13599999999997,22.525799999999997],[114.13439999999997,22.525799999999997],[114.13439999999997,22.524199999999997]]]}},{"type":"Feature","properties":{"id":"lu-northern-metropolis-12-10","class":"urban_open_space","vegetationFraction":0.286,"pavedFraction":0.342,"waterFraction":0.001,"simulated":true},"geometry":{"type":"Polygon","coordinates":[[[114.13599999999997,22.524199999999997],[114.13759999999996,22.524199999999997],[114.13759999999996,22.525799999999997],[114.13599999999997,22.525799999999997],[114.13599999999997,22.524199999999997]]]}},{"type":"Feature","properties":{"id":"lu-northern-metropolis-12-11","class":"green_space","vegetationFraction":0.469,"pavedFraction":0.421,"waterFraction":0.052,"simulated":true},"geometry":{"type":"Polygon","coordinates":[[[114.13759999999996,22.524199999999997],[114.13919999999996,22.524199999999997],[114.13919999999996,22.525799999999997],[114.13759999999996,22.525799999999997],[114.13759999999996,22.524199999999997]]]}},{"type":"Feature","properties":{"id":"lu-northern-metropolis-12-12","class":"urban_open_space","vegetationFraction":0.328,"pavedFraction":0.546,"waterFraction":0.045,"simulated":true},"geometry":{"type":"Polygon","coordinates":[[[114.13919999999996,22.524199999999997],[114.14079999999996,22.524199999999997],[114.14079999999996,22.525799999999997],[114.13919999999996,22.525799999999997],[114.13919999999996,22.524199999999997]]]}},{"type":"Feature","properties":{"id":"lu-northern-metropolis-12-13","class":"urban_open_space","vegetationFraction":0.251,"pavedFraction":0.435,"waterFraction":0.028,"simulated":true},"geometry":{"type":"Polygon","coordinates":[[[114.14079999999996,22.524199999999997],[114.14239999999995,22.524199999999997],[114.14239999999995,22.525799999999997],[114.14079999999996,22.525799999999997],[114.14079999999996,22.524199999999997]]]}},{"type":"Feature","properties":{"id":"lu-northern-metropolis-12-14","class":"green_space","vegetationFraction":0.422,"pavedFraction":0.538,"waterFraction":0.024,"simulated":true},"geometry":{"type":"Polygon","coordinates":[[[114.14239999999995,22.524199999999997],[114.14399999999995,22.524199999999997],[114.14399999999995,22.525799999999997],[114.14239999999995,22.525799999999997],[114.14239999999995,22.524199999999997]]]}},{"type":"Feature","properties":{"id":"lu-northern-metropolis-12-15","class":"urban_open_space","vegetationFraction":0.319,"pavedFraction":0.418,"waterFraction":0.03,"simulated":true},"geometry":{"type":"Polygon","coordinates":[[[114.14399999999995,22.524199999999997],[114.14559999999994,22.524199999999997],[114.14559999999994,22.525799999999997],[114.14399999999995,22.525799999999997],[114.14399999999995,22.524199999999997]]]}},{"type":"Feature","properties":{"id":"lu-northern-metropolis-12-16","class":"green_space","vegetationFraction":0.422,"pavedFraction":0.458,"waterFraction":0.019,"simulated":true},"geometry":{"type":"Polygon","coordinates":[[[114.14559999999994,22.524199999999997],[114.14719999999994,22.524199999999997],[114.14719999999994,22.525799999999997],[114.14559999999994,22.525799999999997],[114.14559999999994,22.524199999999997]]]}},{"type":"Feature","properties":{"id":"lu-northern-metropolis-12-17","class":"green_space","vegetationFraction":0.511,"pavedFraction":0.489,"waterFraction":0.06,"simulated":true},"geometry":{"type":"Polygon","coordinates":[[[114.14719999999994,22.524199999999997],[114.14879999999994,22.524199999999997],[114.14879999999994,22.525799999999997],[114.14719999999994,22.525799999999997],[114.14719999999994,22.524199999999997]]]}},{"type":"Feature","properties":{"id":"lu-northern-metropolis-12-18","class":"green_space","vegetationFraction":0.489,"pavedFraction":0.535,"waterFraction":0.047,"simulated":true},"geometry":{"type":"Polygon","coordinates":[[[114.14879999999994,22.524199999999997],[114.15039999999993,22.524199999999997],[114.15039999999993,22.525799999999997],[114.14879999999994,22.525799999999997],[114.14879999999994,22.524199999999997]]]}}]}