{"type":"FeatureCollection","features":[{"type":"Feature","properties":{"id":"lu-kowloon-kwun-tong-00-00","class":"built_up","vegetationFraction":0.081,"pavedFraction":0.572,"waterFraction":0.038,"simulated":true},"geometry":{"type":"Polygon","coordinates":[[[114.215,22.302],[114.2166,22.302],[114.2166,22.3036],[114.215,22.3036],[114.215,22.302]]]}},{"type":"Feature","properties":{"id":"lu-kowloon-kwun-tong-00-01","class":"built_up","vegetationFraction":0.156,"pavedFraction":0.662,"waterFraction":0.021,"simulated":true},"geometry":{"type":"Polygon","coordinates":[[[114.2166,22.302],[114.2182,22.302],[114.2182,22.3036],[114.2166,22.3036],[114.2166,22.302]]]}},{"type":"Feature","properties":{"id":"lu-kowloon-kwun-tong-00-02","class":"built_up","vegetationFraction":0.112,"pavedFraction":0.708,"waterFraction":0.025,"simulated":true},"geometry":{"type":"Polygon","coordinates":[[[114.2182,22.302],[114.21979999999999,22.302],[114.21979999999999,22.3036],[114.2182,22.3036],[114.2182,22.302]]]}},{"type":"Feature","properties":{"id":"lu-kowloon-kwun-tong-00-03","class":"built_up","vegetationFraction":0.165,"pavedFraction":0.578,"waterFraction":0.002,"simulated":true},"geometry":{"type":"Polygon","coordinates":[[[114.21979999999999,22.302],[114.22139999999999,22.302],[114.22139999999999,22.3036],[114.21979999999999,22.3036],[114.21979999999999,22.302]]]}},{"type":"Feature","properties":{"id":"lu-kowloon-kwun-tong-00-04","class":"built_up","vegetationFraction":0.079,"pavedFraction":0.645,"waterFraction":0.06,"simulated":true},"geometry":{"type":"Polygon","coordinates":[[[114.22139999999999,22.302],[114.22299999999998,22.302],[114.22299999999998,22.3036],[114.22139999999999,22.3036],[114.22139999999999,22.302]]]}},{"type":"Feature","properties":{"id":"lu-kowloon-kwun-tong-00-05","class":"built_up","vegetationFraction":0.068,"pavedFraction":0.674,"waterFraction":0.019,"simulated":true},"geometry":{"type":"Polygon","coordinates":[[[114.22299999999998,22.302],[114.22459999999998,22.302],[114.22459999999998,22.3036],[114.22299999999998,22.3036],[114.22299999999998,22.302]]]}},{"type":"Feature","properties":{"id":"lu-kowloon-kwun-tong-00-06","class":"built_up","vegetationFraction":0.075,"pavedFraction":0.659,"waterFraction":0.006,"simulated":true},"geometry":{"type":"Polygon","coordinates":[[[114.22459999999998,22.302],[114.22619999999998,22.302],[114.22619999999998,22.3036],[114.22459999999998,22.3036],[114.22459999999998,22.302]]]}},{"type":"Feature","properties":{"id":"lu-kowloon-kwun-tong-00-07","class":"built_up","vegetationFraction":0.064,"pavedFraction":0.73,"waterFraction":0.005,"simulated":true},"geometry":{"type":"Polygon","coordinates":[[[114.22619999999998,22.302],[114.22779999999997,22.302],[114.22779999999997,22.3036],[114.22619999999998,22.3036],[114.22619999999998,22.302]]]}},{"type":"Feature","properties":{"id":"lu-kowloon-kwun-tong-00-08","class":"built_up","vegetationFraction":0.062,"pavedFraction":0.654,"waterFraction":0.027,"simulated":true},"geometry":{"type":"Polygon","coordinates":[[[114.22779999999997,22.302],[114.22939999999997,22.302],[114.22939999999997,22.3036],[114.22779999999997,22.3036],[114.22779999999997,22.302]]]}},{"type":"Feature","properties":{"id":"lu-kowloon-kwun-tong-00-09","class":"built_up","vegetationFraction":0.132,"pavedFraction":0.772,"waterFraction":0.051,"simulated":true},"geometry":{"type":"Polygon","coordinates":[[[114.22939999999997,22.302],[114.23099999999997,22.302],[114.23099999999997,22.3036],[114.22939999999997,22.3036],[114.22939999999997,22.302]]]}},{"type":"Feature","properties":{"id":"lu-kowloon-kwun-tong-00-10","class":"built_up","vegetationFraction":0.125,"pavedFraction":0.731,"waterFraction":0.044,"simulated":true},"geometry":{"type":"Polygon","coordinates":[[[114.23099999999997,22.302],[114.23259999999996,22.302],[114.23259999999996,22.3036],[114.23099999999997,22.3036],[114.23099999999997,22.302]]]}},{"type":"Feature","properties":{"id":"lu-kowloon-kwun-tong-00-11","class":"built_up","vegetationFraction":0.075,"pavedFraction":0.672,"waterFraction":0.056,"simulated":true},"geometry":{"type":"Polygon","coordinates":[[[114.23259999999996,22.302],[114.23419999999996,22.302],[114.23419999999996,22.3036],[114.23259999999996,22.3036],[114.23259999999996,22.302]]]}},{"type":"Feature","properties":{"id":"lu-kowloon-kwun-tong-00-12","class":"built_up","vegetationFraction":0.102,"pavedFraction":0.59,"waterFraction":0.016,"simulated":true},"geometry":{"type":"Polygon","coordinates":[[[114.23419999999996,22.302],[114.23579999999995,22.302],[114.23579999999995,22.3036],[114.23419999999996,22.3036],[114.23419999999996,22.302]]]}},{"type":"Feature","properties":{"id":"lu-kowloon-kwun-tong-00-13","class":"built_up","vegetationFraction":0.166,"pavedFraction":0.59,"waterFraction":0.012,"simulated":true},"geometry":{"type":"Polygon","coordinates":[[[114.23579999999995,22.302],[114.23739999999995,22.302],[114.23739999999995,22.3036],[114.23579999999995,22.3036],[114.23579999999995,22.302]]]}},{"type":"Feature","properties":{"id":"lu-kowloon-kwun-tong-00-14","class":"built_up","vegetationFraction":0.114,"pavedFraction":0.842,"waterFraction":0.059,"simulated":true},"geometry":{"type":"Polygon","coordinates":[[[114.23739999999995,22.302],[114.23899999999995,22.302],[114.23899999999995,22.3036],[114.23739999999995,22.3036],[114.23739999999995,22.302]]]}},{"type":"Feature","properties":{"id":"lu-kowloon-kwun-tong-00-15","class":"built_up","vegetationFraction":0.116,"pavedFraction":0.615,"waterFraction":0.054,"simulated":true},"geometry":{"type":"Polygon","coordinates":[[[114.23899999999995,22.302],[114.24059999999994,22.302],[114.24059999999994,22.3036],[114.23899999999995,22.3036],[114.23899999999995,22.302]]]}},{"type":"Feature","properties":{"id":"lu-kowloon-kwun-tong-01-00","class":"built_up","vegetationFraction":0.135,"pavedFraction":0.805,"waterFraction":0.035,"simulated":true},"geometry":{"type":"Polygon","coordinates":[[[114.215,22.3036],[114.2166,22.3036],[114.2166,22.3052],[114.215,22.3052],[114.215,22.3036]]]}},{"type":"Feature","properties":{"id":"lu-kowloon-kwun-tong-01-01","class":"built_up","vegetationFraction":0.062,"pavedFraction":0.658,"waterFraction":0.045,"simulated":true},"geometry":{"type":"Polygon","coordinates":[[[114.2166,22.3036],[114.2182,22.3036],[114.2182,22.3052],[114.2166,22.3052],[114.2166,22.3036]]]}},{"type":"Feature","properties":{"id":"lu-kowloon-kwun-tong-01-02","class":"built_up","vegetationFraction":0.083,"pavedFraction":0.816,"waterFraction":0.02,"simulated":true},"geometry":{"type":"Polygon","coordinates":[[[114.2182,22.3036],[114.21979999999999,22.3036],[114.21979999999999,22.3052],[114.2182,22.3052],[114.2182,22.3036]]]}},{"type":"Feature","properties":{"id":"lu-kowloon-kwun-tong-01-03","class":"built_up","vegetationFraction":0.17,"pavedFraction":0.676,"waterFraction":0.019,"simulated":true},"geometry":{"type":"Polygon","coordinates":[[[114.21979999999999,22.3036],[114.22139999999999,22.3036],[114.22139999999999,22.3052],[114.21979999999999,22.3052],[114.21979999999999,22.3036]]]}},{"type":"Feature","properties":{"id":"lu-kowloon-kwun-tong-01-04","class":"built_up","vegetationFraction":0.148,"pavedFraction":0.726,"waterFraction":0.02,"simulated":true},"geometry":{"type":"Polygon","coordinates":[[[114.22139999999999,22.3036],[114.22299999999998,22.3036],[114.22299999999998,22.3052],[114.22139999999999,22.3052],[114.22139999999999,22.3036]]]}},{"type":"Feature","properties":{"id":"lu-kowloon-kwun-tong-01-05","class":"built_up","vegetationFraction":0.147,"pavedFraction":0.764,"waterFraction":0.04,"simulated":true},"geometry":{"type":"Polygon","coordinates":[[[114.22299999999998,22.3036],[114.22459999999998,22.3036],[114.22459999999998,22.3052],[114.22299999999998,22.3052],[114.22299999999998,22.3036]]]}},{"type":"Feature","properties":{"id":"lu-kowloon-kwun-tong-01-06","class":"built_up","vegetationFraction":0.077,"pavedFraction":0.57,"waterFraction":0.046,"simulated":true},"geometry":{"type":"Polygon","coordinates":[[[114.22459999999998,22.3036],[114.22619999999998,22.3036],[114.22619999999998,22.3052],[114.22459999999998,22.3052],[114.22459999999998,22.3036]]]}},{"type":"Feature","properties":{"id":"lu-kowloon-kwun-tong-01-07","class":"built_up","vegetationFraction":0.143,"pavedFraction":0.683,"waterFraction":0.02,"simulated":true},"geometry":{"type":"Polygon","coordinates":[[[114.22619999999998,22.3036],[114.22779999999997,22.3036],[114.22779999999997,22.3052],[114.22619999999998,22.3052],[114.22619999999998,22.3036]]]}},{"type":"Feature","properties":{"id":"lu-kowloon-kwun-tong-01-08","class":"built_up","vegetationFraction":0.159,"pavedFraction":0.642,"waterFraction":0.021,"simulated":true},"geometry":{"type":"Polygon","coordinates":[[[114.22779999999997,22.3036],[114.22939999999997,22.3036],[114.22939999999997,22.3052],[114.22779999999997,22.3052],[114.22779999999997,22.3036]]]}},{"type":"Feature","properties":{"id":"lu-kowloon-kwun-tong-01-09","class":"built_up","vegetationFraction":0.146,"pavedFraction":0.814,"waterFraction":0.012,"simulated":true},"geometry":{"type":"Polygon","coordinates":[[[114.22939999999997,22.3036],[114.23099999999997,22.3036],[114.23099999999997,22.3052],[114.22939999999997,22.3052],[114.22939999999997,22.3036]]]}},{"type":"Feature","properties":{"id":"lu-kowloon-kwun-tong-01-10","class":"built_up","vegetationFraction":0.135,"pavedFraction":0.702,"waterFraction":0.056,"simulated":true},"geometry":{"type":"Polygon","coordinates":[[[114.23099999999997,22.3036],[114.23259999999996,22.3036],[114.23259999999996,22.3052],[114.23099999999997,22.3052],[114.23099999999997,22.3036]]]}},{"type":"Feature","properties":{"id":"lu-kowloon-kwun-tong-01-11","class":"built_up","vegetationFraction":0.099,"pavedFraction":0.822,"waterFraction":0.037,"simulated":true},"geometry":{"type":"Polygon","coordinates":[[[114.23259999999996,22.3036],[114.23419999999996,22.3036],[114.23419999999996,22.3052],[114.23259999999996,22.3052],[114.23259999999996,22.3036]]]}},{"type":"Feature","properties":{"id":"lu-kowloon-kwun-tong-01-12","class":"built_up","vegetationFraction":0.146,"pavedFraction":0.654,"waterFraction":0.028,"simulated":true},"geometry":{"type":"Polygon","coordinates":[[[114.23419999999996,22.3036],[114.23579999999995,22.3036],[114.23579999999995,22.3052],[114.23419999999996,22.3052],[114.23419999999996,22.3036]]]}},{"type":"Feature","properties":{"id":"lu-kowloon-kwun-tong-01-13","class":"built_up","vegetationFraction":0.167,"pavedFraction":0.762,"waterFraction":0.058,"simulated":true},"geometry":{"type":"Polygon","coordinates":[[[114.23579999999995,22.3036],[114.23739999999995,22.3036],[114.23739999999995,22.3052],[114.23579999999995,22.3052],[114.23579999999995,22.3036]]]}},{"type":"Feature","properties":{"id":"lu-kowloon-kwun-tong-01-14","class":"built_up","vegetationFraction":0.118,"pavedFraction":0.744,"waterFraction":0.003,"simulated":true},"geometry":{"type":"Polygon","coordinates":[[[114.23739999999995,22.3036],[114.23899999999995,22.3036],[114.23899999999995,22.3052],[114.23739999999995,22.3052],[114.23739999999995,22.3036]]]}},{"type":"Feature","properties":{"id":"lu-kowloon-kwun-tong-01-15","class":"built_up","vegetationFraction":0.164,"pavedFraction":0.752,"waterFraction":0.029,"simulated":true},"geometry":{"type":"Polygon","coordinates":[[[114.23899999999995,22.3036],[114.24059999999994,22.3036],[114.24059999999994,22.3052],[114.23899999999995,22.3052],[114.23899999999995,22.3036]]]}},{"type":"Feature","properties":{"id":"lu-kowloon-kwun-tong-02-00","class":"built_up","vegetationFraction":0.097,"pavedFraction":0.748,"waterFraction":0.024,"simulated":true},"geometry":{"type":"Polygon","coordinates":[[[114.215,22.3052],[114.2166,22.3052],[114.2166,22.3068],[114.215,22.3068],[114.215,22.3052]]]}},{"type":"Feature","properties":{"id":"lu-kowloon-kwun-tong-02-01","class":"built_up","vegetationFraction":0.173,"pavedFraction":0.752,"waterFraction":0.057,"simulated":true},"geometry":{"type":"Polygon","coordinates":[[[114.2166,22.3052],[114.2182,22.3052],[114.2182,22.3068],[114.2166,22.3068],[114.2166,22.3052]]]}},{"type":"Feature","properties":{"id":"lu-kowloon-kwun-tong-02-02","class":"built_up","vegetationFraction":0.082,"pavedFraction":0.797,"waterFraction":0.042,"simulated":true},"geometry":{"type":"Polygon","coordinates":[[[114.2182,22.3052],[114.21979999999999,22.3052],[114.21979999999999,22.3068],[114.2182,22.3068],[114.2182,22.3052]]]}},{"type":"Feature","properties":{"id":"lu-kowloon-kwun-tong-02-03","class":"built_up","vegetationFraction":0.155,"pavedFraction":0.697,"waterFraction":0.004,"simulated":true},"geometry":{"type":"Polygon","coordinates":[[[114.21979999999999,22.3052],[114.22139999999999,22.3052],[114.22139999999999,22.3068],[114.21979999999999,22.3068],[114.21979999999999,22.3052]]]}},{"type":"Feature","properties":{"id":"lu-kowloon-kwun-tong-02-04","class":"built_up","vegetationFraction":0.154,"pavedFraction":0.635,"waterFraction":0.014,"simulated":true},"geometry":{"type":"Polygon","coordinates":[[[114.22139999999999,22.3052],[114.22299999999998,22.3052],[114.22299999999998,22.3068],[114.22139999999999,22.3068],[114.22139999999999,22.3052]]]}},{"type":"Feature","properties":{"id":"lu-kowloon-kwun-tong-02-05","class":"built_up","vegetationFraction":0.179,"pavedFraction":0.792,"waterFraction":0.014,"simulated":true},"geometry":{"type":"Polygon","coordinates":[[[114.22299999999998,22.3052],[114.22459999999998,22.3052],[114.22459999999998,22.3068],[114.22299999999998,22.3068],[114.22299999999998,22.3052]]]}},{"type":"Feature","properties":{"id":"lu-kowloon-kwun-tong-02-06","class":"built_up","vegetationFraction":0.149,"pavedFraction":0.696,"waterFraction":0.021,"simulated":true},"geometry":{"type":"Polygon","coordinates":[[[114.22459999999998,22.3052],[114.22619999999998,22.3052],[114.22619999999998,22.3068],[114.22459999999998,22.3068],[114.22459999999998,22.3052]]]}},{"type":"Feature","properties":{"id":"lu-kowloon-kwun-tong-02-07","class":"built_up","vegetationFraction":0.16,"pavedFraction":0.657,"waterFraction":0.038,"simulated":true},"geometry":{"type":"Polygon","coordinates":[[[114.22619999999998,22.3052],[114.22779999999997,22.3052],[114.22779999999997,22.3068],[114.22619999999998,22.3068],[114.22619999999998,22.3052]]]}},{"type":"Feature","properties":{"id":"lu-kowloon-kwun-tong-02-08","class":"built_up","vegetationFraction":0.068,"pavedFraction":0.745,"waterFraction":0.013,"simulated":true},"geometry":{"type":"Polygon","coordinates":[[[114.22779999999997,22.3052],[114.22939999999997,22.3052],[114.22939999999997,22.3068],[114.22779999999997,22.3068],[114.22779999999997,22.3052]]]}},{"type":"Feature","properties":{"id":"lu-kowloon-kwun-tong-02-09","class":"built_up","vegetationFraction":0.131,"pavedFraction":0.658,"waterFraction":0.043,"simulated":true},"geometry":{"type":"Polygon","coordinates":[[[114.22939999999997,22.3052],[114.23099999999997,22.3052],[114.23099999999997,22.3068],[114.22939999999997,22.3068],[114.22939999999997,22.3052]]]}},{"type":"Feature","properties":{"id":"lu-kowloon-kwun-tong-02-10","class":"green_space","vegetationFraction":0.78,"pavedFraction":0.1,"waterFraction":0.053,"simulated":true},"geometry":{"type":"Polygon","coordinates":[[[114.23099999999997,22.3052],[114.23259999999996,22.3052],[114.23259999999996,22.3068],[114.23099999999997,22.3068],[114.23099999999997,22.3052]]]}},{"type":"Feature","properties":{"id":"lu-kowloon-kwun-tong-02-11","class":"green_space","vegetationFraction":0.78,"pavedFraction":0.1,"waterFraction":0.054,"simulated":true},"geometry":{"type":"Polygon","coordinates":[[[114.23259999999996,22.3052],[114.23419999999996,22.3052],[114.23419999999996,22.3068],[114.23259999999996,22.3068],[114.23259999999996,22.3052]]]}},{"type":"Feature","properties":{"id":"lu-kowloon-kwun-tong-02-12","class":"green_space","vegetationFraction":0.78,"pavedFraction":0.1,"waterFraction":0.049,"simulated":true},"geometry":{"type":"Polygon","coordinates":[[[114.23419999999996,22.3052],[114.23579999999995,22.3052],[114.23579999999995,22.3068],[114.23419999999996,22.3068],[114.23419999999996,22.3052]]]}},{"type":"Feature","properties":{"id":"lu-kowloon-kwun-tong-02-13","class":"green_space","vegetationFraction":0.78,"pavedFraction":0.1,"waterFraction":0.047,"simulated":true},"geometry":{"type":"Polygon","coordinates":[[[114.23579999999995,22.3052],[114.23739999999995,22.3052],[114.23739999999995,22.3068],[114.23579999999995,22.3068],[114.23579999999995,22.3052]]]}},{"type":"Feature","properties":{"id":"lu-kowloon-kwun-tong-02-14","class":"built_up","vegetationFraction":0.171,"pavedFraction":0.738,"waterFraction":0.003,"simulated":true},"geometry":{"type":"Polygon","coordinates":[[[114.23739999999995,22.3052],[114.23899999999995,22.3052],[114.23899999999995,22.3068],[114.23739999999995,22.3068],[114.23739999999995,22.3052]]]}},{"type":"Feature","properties":{"id":"lu-kowloon-kwun-tong-02-15","class":"built_up","vegetationFraction":0.06,"pavedFraction":0.736,"waterFraction":0.006,"simulated":true},"geometry":{"type":"Polygon","coordinates":[[[114.23899999999995,22.3052],[114.24059999999994,22.3052],[114.24059999999994,22.3068],[114.23899999999995,22.3068],[114.23899999999995,22.3052]]]}},{"type":"Feature","properties":{"id":"lu-kowloon-kwun-tong-03-00","class":"built_up","vegetationFraction":0.084,"pavedFraction":0.806,"waterFraction":0.031,"simulated":true},"geometry":{"type":"Polygon","coordinates":[[[114.215,22.3068],[114.2166,22.3068],[114.2166,22.3084],[114.215,22.3084],[114.215,22.3068]]]}},{"type":"Feature","properties":{"id":"lu-kowloon-kwun-tong-03-01","class":"built_up","vegetationFraction":0.082,"pavedFraction":0.842,"waterFraction":0.015,"simulated":true},"geometry":{"type":"Polygon","coordinates":[[[114.2166,22.3068],[114.2182,22.3068],[114.2182,22.3084],[114.2166,22.3084],[114.2166,22.3068]]]}},{"type":"Feature","properties":{"id":"lu-kowloon-kwun-tong-03-02","class":"built_up","vegetationFraction":0.158,"pavedFraction":0.835,"waterFraction":0.012,"simulated":true},"geometry":{"type":"Polygon","coordinates":[[[114.2182,22.3068],[114.21979999999999,22.3068],[114.21979999999999,22.3084],[114.2182,22.3084],[114.2182,22.3068]]]}},{"type":"Feature","properties":{"id":"lu-kowloon-kwun-tong-03-03","class":"built_up","vegetationFraction":0.117,"pavedFraction":0.565,"waterFraction":0.033,"simulated":true},"geometry":{"type":"Polygon","coordinates":[[[114.21979999999999,22.3068],[114.22139999999999,22.3068],[114.22139999999999,22.3084],[114.21979999999999,22.3084],[114.21979999999999,22.3068]]]}},{"type":"Feature","properties":{"id":"lu-kowloon-kwun-tong-03-04","class":"built_up","vegetationFraction":0.114,"pavedFraction":0.774,"waterFraction":0.035,"simulated":true},"geometry":{"type":"Polygon","coordinates":[[[114.22139999999999,22.3068],[114.22299999999998,22.3068],[114.22299999999998,22.3084],[114.22139999999999,22.3084],[114.22139999999999,22.3068]]]}},{"type":"Feature","properties":{"id":"lu-kowloon-kwun-tong-03-05","class":"built_up","vegetationFraction":0.125,"pavedFraction":0.752,"waterFraction":0.03,"simulated":true},"geometry":{"type":"Polygon","coordinates":[[[114.22299999999998,22.3068],[114.22459999999998,22.3068],[114.22459999999998,22.3084],[114.22299999999998,22.3084],[114.22299999999998,22.3068]]]}},{"type":"Feature","properties":{"id":"lu-kowloon-kwun-tong-03-06","class":"built_up","vegetationFraction":0.094,"pavedFraction":0.724,"waterFraction":0.041,"simulated":true},"geometry":{"type":"Polygon","coordinates":[[[114.22459999999998,22.3068],[114.22619999999998,22.3068],[114.22619999999998,22.3084],[114.22459999999998,22.3084],[114.22459999999998,22.3068]]]}},{"type":"Feature","properties":{"id":"lu-kowloon-kwun-tong-03-07","class":"built_up","vegetationFraction":0.151,"pavedFraction":0.748,"waterFraction":0.02,"simulated":true},"geometry":{"type":"Polygon","coordinates":[[[114.22619999999998,22.3068],[114.22779999999997,22.3068],[114.22779999999997,22.3084],[114.22619999999998,22.3084],[114.22619999999998,22.3068]]]}},{"type":"Feature","properties":{"id":"lu-kowloon-kwun-tong-03-08","class":"built_up","vegetationFraction":0.064,"pavedFraction":0.63,"waterFraction":0.048,"simulated":true},"geometry":{"type":"Polygon","coordinates":[[[114.22779999999997,22.3068],[114.22939999999997,22.3068],[114.22939999999997,22.3084],[114.22779999999997,22.3084],[114.22779999999997,22.3068]]]}},{"type":"Feature","properties":{"id":"lu-kowloon-kwun-tong-03-09","class":"built_up","vegetationFraction":0.06,"pavedFraction":0.766,"waterFraction":0.009,"simulated":true},"geometry":{"type":"Polygon","coordinates":[[[114.22939999999997,22.3068],[114.23099999999997,22.3068],[114.23099999999997,22.3084],[114.22939999999997,22.3084],[114.22939999999997,22.3068]]]}},{"type":"Feature","properties":{"id":"lu-kowloon-kwun-tong-03-10","class":"green_space","vegetationFraction":0.78,"pavedFraction":0.1,"waterFraction":0.05,"simulated":true},"geometry":{"type":"Polygon","coordinates":[[[114.23099999999997,22.3068],[114.23259999999996,22.3068],[114.23259999999996,22.3084],[114.23099999999997,22.3084],[114.23099999999997,22.3068]]]}},{"type":"Feature","properties":{"id":"lu-kowloon-kwun-tong-03-11","class":"green_space","vegetationFraction":0.78,"pavedFraction":0.1,"waterFraction":0.033,"simulated":true},"geometry":{"type":"Polygon","coordinates":[[[114.23259999999996,22.3068],[114.23419999999996,22.3068],[114.23419999999996,22.3084],[114.23259999999996,22.3084],[114.23259999999996,22.3068]]]}},{"type":"Feature","properties":{"id":"lu-kowloon-kwun-tong-03-12","class":"green_space","vegetationFraction":0.78,"pavedFraction":0.1,"waterFraction":0.005,"simulated":true},"geometry":{"type":"Polygon","coordinates":[[[114.23419999999996,22.3068],[114.23579999999995,22.3068],[114.23579999999995,22.3084],[114.23419999999996,22.3084],[114.23419999999996,22.3068]]]}},{"type":"Feature","properties":{"id":"lu-kowloon-kwun-tong-03-13","class":"green_space","vegetationFraction":0.78,"pavedFraction":0.1,"waterFraction":0.028,"simulated":true},"geometry":{"type":"Polygon","coordinates":[[[114.23579999999995,22.3068],[114.23739999999995,22.3068],[114.23739999999995,22.3084],[114.23579999999995,22.3084],[114.23579999999995,22.3068]]]}},{"type":"Feature","properties":{"id":"lu-kowloon-kwun-tong-03-14","class":"built_up","vegetationFraction":0.069,"pavedFraction":0.57,"waterFraction":0.017,"simulated":true},"geometry":{"type":"Polygon","coordinates":[[[114.23739999999995,22.3068],[114.23899999999995,22.3068],[114.23899999999995,22.3084],[114.23739999999995,22.3084],[114.23739999999995,22.3068]]]}},{"type":"Feature","properties":{"id":"lu-kowloon-kwun-tong-03-15","class":"built_up","vegetationFraction":0.132,"pavedFraction":0.835,"waterFraction":0.011,"simulated":true},"geometry":{"type":"Polygon","coordinates":[[[114.23899999999995,22.3068],[114.24059999999994,22.3068],[114.24059999999994,22.3084],[114.23899999999995,22.3084],[114.23899999999995,22.3068]]]}},{"type":"Feature","properties":{"id":"lu-kowloon-kwun-tong-04-00","class":"built_up","vegetationFraction":0.136,"pavedFraction":0.776,"waterFraction":0.053,"simulated":true},"geometry":{"type":"Polygon","coordinates":[[[114.215,22.3084],[114.2166,22.3084],[114.2166,22.31],[114.215,22.31],[114.215,22.3084]]]}},{"type":"Feature","properties":{"id":"lu-kowloon-kwun-tong-04-01","class":"built_up","vegetationFraction":0.07,"pavedFraction":0.762,"waterFraction":0.053,"simulated":true},"geometry":{"type":"Polygon","coordinates":[[[114.2166,22.3084],[114.2182,22.3084],[114.2182,22.31],[114.2166,22.31],[114.2166,22.3084]]]}},{"type":"Feature","properties":{"id":"lu-kowloon-kwun-tong-04-02","class":"built_up","vegetationFraction":0.07,"pavedFraction":0.588,"waterFraction":0.003,"simulated":true},"geometry":{"type":"Polygon","coordinates":[[[114.2182,22.3084],[114.21979999999999,22.3084],[114.21979999999999,22.31],[114.2182,22.31],[114.2182,22.3084]]]}},{"type":"Feature","properties":{"id":"lu-kowloon-kwun-tong-04-03","class":"built_up","vegetationFraction":0.066,"pavedFraction":0.776,"waterFraction":0.043,"simulated":true},"geometry":{"type":"Polygon","coordinates":[[[114.21979999999999,22.3084],[114.22139999999999,22.3084],[114.22139999999999,22.31],[114.21979999999999,22.31],[114.21979999999999,22.3084]]]}},{"type":"Feature","properties":{"id":"lu-kowloon-kwun-tong-04-04","class":"built_up","vegetationFraction":0.065,"pavedFraction":0.591,"waterFraction":0.05,"simulated":true},"geometry":{"type":"Polygon","coordinates":[[[114.22139999999999,22.3084],[114.22299999999998,22.3084],[114.22299999999998,22.31],[114.22139999999999,22.31],[114.22139999999999,22.3084]]]}},{"type":"Feature","properties":{"id":"lu-kowloon-kwun-tong-04-05","class":"built_up","vegetationFraction":0.158,"pavedFraction":0.668,"waterFraction":0.044,"simulated":true},"geometry":{"type":"Polygon","coordinates":[[[114.22299999999998,22.3084],[114.22459999999998,22.3084],[114.22459999999998,22.31],[114.22299999999998,22.31],[114.22299999999998,22.3084]]]}},{"type":"Feature","properties":{"id":"lu-kowloon-kwun-tong-04-06","class":"built_up","vegetationFraction":0.146,"pavedFraction":0.835,"waterFraction":0.029,"simulated":true},"geometry":{"type":"Polygon","coordinates":[[[114.22459999999998,22.3084],[114.22619999999998,22.3084],[114.22619999999998,22.31],[114.22459999999998,22.31],[114.22459999999998,22.3084]]]}},{"type":"Feature","properties":{"id":"lu-kowloon-kwun-tong-04-07","class":"built_up","vegetationFraction":0.116,"pavedFraction":0.638,"waterFraction":0.02,"simulated":true},"geometry":{"type":"Polygon","coordinates":[[[114.22619999999998,22.3084],[114.22779999999997,22.3084],[114.22779999999997,22.31],[114.22619999999998,22.31],[114.22619999999998,22.3084]]]}},{"type":"Feature","properties":{"id":"lu-kowloon-kwun-tong-04-08","class":"built_up","vegetationFraction":0.064,"pavedFraction":0.763,"waterFraction":0.012,"simulated":true},"geometry":{"type":"Polygon","coordinates":[[[114.22779999999997,22.3084],[114.22939999999997,22.3084],[114.22939999999997,22.31],[114.22779999999997,22.31],[114.22779999999997,22.3084]]]}},{"type":"Feature","properties":{"id":"lu-kowloon-kwun-tong-04-09","class":"built_up","vegetationFraction":0.112,"pavedFraction":0.648,"waterFraction":0.059,"simulated":true},"geometry":{"type":"Polygon","coordinates":[[[114.22939999999997,22.3084],[114.23099999999997,22.3084],[114.23099999999997,22.31],[114.22939999999997,22.31],[114.22939999999997,22.3084]]]}},{"type":"Feature","properties":{"id":"lu-kowloon-kwun-tong-04-10","class":"green_space","vegetationFraction":0.78,"pavedFraction":0.1,"waterFraction":0.017,"simulated":true},"geometry":{"type":"Polygon","coordinates":[[[114.23099999999997,22.3084],[114.23259999999996,22.3084],[114.23259999999996,22.31],[114.23099999999997,22.31],[114.23099999999997,22.3084]]]}},{"type":"Feature","properties":{"id":"lu-kowloon-kwun-tong-04-11","class":"green_space","vegetationFraction":0.78,"pavedFraction":0.1,"waterFraction":0.017,"simulated":true},"geometry":{"type":"Polygon","coordinates":[[[114.23259999999996,22.3084],[114.23419999999996,22.3084],[114.23419999999996,22.31],[114.23259999999996,22.31],[114.23259999999996,22.3084]]]}},{"type":"Feature","properties":{"id":"lu-kowloon-kwun-tong-04-12","class":"green_space","vegetationFraction":0.78,"pavedFraction":0.1,"waterFraction":0.013,"simulated":true},"geometry":{"type":"Polygon","coordinates":[[[114.23419999999996,22.3084],[114.23579999999995,22.3084],[114.23579999999995,22.31],[114.23419999999996,22.31],[114.23419999999996,22.3084]]]}},{"type":"Feature","properties":{"id":"lu-kowloon-kwun-tong-04-13","class":"green_space","vegetationFraction":0.78,"pavedFraction":0.1,"waterFraction":0.007,"simulated":true},"geometry":{"type":"Polygon","coordinates":[[[114.23579999999995,22.3084],[114.23739999999995,22.3084],[114.23739999999995,22.31],[114.23579999999995,22.31],[114.23579999999995,22.3084]]]}},{"type":"Feature","properties":{"id":"lu-kowloon-kwun-tong-04-14","class":"built_up","vegetationFraction":0.096,"pavedFraction":0.717,"waterFraction":0.057,"simulated":true},"geometry":{"type":"Polygon","coordinates":[[[114.23739999999995,22.3084],[114.23899999999995,22.3084],[114.23899999999995,22.31],[114.23739999999995,22.31],[114.23739999999995,22.3084]]]}},{"type":"Feature","properties":{"id":"lu-kowloon-kwun-tong-04-15","class":"built_up","vegetationFraction":0.163,"pavedFraction":0.779,"waterFraction":0.005,"simulated":true},"geometry":{"type":"Polygon","coordinates":[[[114.23899999999995,22.3084],[114.24059999999994,22.3084],[114.24059999999994,22.31],[114.23899999999995,22.31],[114.23899999999995,22.3084]]]}},{"type":"Feature","properties":{"id":"lu-kowloon-kwun-tong-05-00","class":"built_up","vegetationFraction":0.127,"pavedFraction":0.603,"waterFraction":0.015,"simulated":true},"geometry":{"type":"Polygon","coordinates":[[[114.215,22.31],[114.2166,22.31],[114.2166,22.3116],[114.215,22.3116],[114.215,22.31]]]}},{"type":"Feature","properties":{"id":"lu-kowloon-kwun-tong-05-01","class":"built_up","vegetationFraction":0.078,"pavedFraction":0.594,"waterFraction":0.04,"simulated":true},"geometry":{"type":"Polygon","coordinates":[[[114.2166,22.31],[114.2182,22.31],[114.2182,22.3116],[114.2166,22.3116],[114.2166,22.31]]]}},{"type":"Feature","properties":{"id":"lu-kowloon-kwun-tong-05-02","class":"built_up","vegetationFraction":0.123,"pavedFraction":0.689,"waterFraction":0.016,"simulated":true},"geometry":{"type":"Polygon","coordinates":[[[114.2182,22.31],[114.21979999999999,22.31],[114.21979999999999,22.3116],[114.2182,22.3116],[114.2182,22.31]]]}},{"type":"Feature","properties":{"id":"lu-kowloon-kwun-tong-05-03","class":"built_up","vegetationFraction":0.148,"pavedFraction":0.846,"waterFraction":0.013,"simulated":true},"geometry":{"type":"Polygon","coordinates":[[[114.21979999999999,22.31],[114.22139999999999,22.31],[114.22139999999999,22.3116],[114.21979999999999,22.3116],[114.21979999999999,22.31]]]}},{"type":"Feature","properties":{"id":"lu-kowloon-kwun-tong-05-04","class":"built_up","vegetationFraction":0.147,"pavedFraction":0.798,"waterFraction":0.044,"simulated":true},"geometry":{"type":"Polygon","coordinates":[[[114.22139999999999,22.31],[114.22299999999998,22.31],[114.22299999999998,22.3116],[114.22139999999999,22.3116],[114.22139999999999,22.31]]]}},{"type":"Feature","properties":{"id":"lu-kowloon-kwun-tong-05-05","class":"built_up","vegetationFraction":0.175,"pavedFraction":0.712,"waterFraction":0.01,"simulated":true},"geometry":{"type":"Polygon","coordinates":[[[114.22299999999998,22.31],[114.22459999999998,22.31],[114.22459999999998,22.3116],[114.22299999999998,22.3116],[114.22299999999998,22.31]]]}},{"type":"Feature","properties":{"id":"lu-kowloon-kwun-tong-05-06","class":"built_up","vegetationFraction":0.179,"pavedFraction":0.743,"waterFraction":0.015,"simulated":true},"geometry":{"type":"Polygon","coordinates":[[[114.22459999999998,22.31],[114.22619999999998,22.31],[114.22619999999998,22.3116],[114.22459999999998,22.3116],[114.22459999999998,22.31]]]}},{"type":"Feature","properties":{"id":"lu-kowloon-kwun-tong-05-07","class":"built_up","vegetationFraction":0.163,"pavedFraction":0.806,"waterFraction":0.035,"simulated":true},"geometry":{"type":"Polygon","coordinates":[[[114.22619999999998,22.31],[114.22779999999997,22.31],[114.22779999999997,22.3116],[114.22619999999998,22.3116],[114.22619999999998,22.31]]]}},{"type":"Feature","properties":{"id":"lu-kowloon-kwun-tong-05-08","class":"built_up","vegetationFraction":0.079,"pavedFraction":0.597,"waterFraction":0.054,"simulated":true},"geometry":{"type":"Polygon","coordinates":[[[114.22779999999997,22.31],[114.22939999999997,22.31],[114.22939999999997,22.3116],[114.22779999999997,22.3116],[114.22779999999997,22.31]]]}},{"type":"Feature","properties":{"id":"lu-kowloon-kwun-tong-05-09","class":"built_up","vegetationFraction":0.072,"pavedFraction":0.761,"waterFraction":0.003,"simulated":true},"geometry":{"type":"Polygon","coordinates":[[[114.22939999999997,22.31],[114.23099999999997,22.31],[114.23099999999997,22.3116],[114.22939999999997,22.3116],[114.22939999999997,22.31]]]}},{"type":"Feature","properties":{"id":"lu-kowloon-kwun-tong-05-10","class":"built_up","vegetationFraction":0.139,"pavedFraction":0.759,"waterFraction":0.018,"simulated":true},"geometry":{"type":"Polygon","coordinates":[[[114.23099999999997,22.31],[114.23259999999996,22.31],[114.23259999999996,22.3116],[114.23099999999997,22.3116],[114.23099999999997,22.31]]]}},{"type":"Feature","properties":{"id":"lu-kowloon-kwun-tong-05-11","class":"built_up","vegetationFraction":0.067,"pavedFraction":0.819,"waterFraction":0.013,"simulated":true},"geometry":{"type":"Polygon","coordinates":[[[114.23259999999996,22.31],[114.23419999999996,22.31],[114.23419999999996,22.3116],[114.23259999999996,22.3116],[114.23259999999996,22.31]]]}},{"type":"Feature","properties":{"id":"lu-kowloon-kwun-tong-05-12","class":"built_up","vegetationFraction":0.163,"pavedFraction":0.824,"waterFraction":0.034,"simulated":true},"geometry":{"type":"Polygon","coordinates":[[[114.23419999999996,22.31],[114.23579999999995,22.31],[114.23579999999995,22.3116],[114.23419999999996,22.3116],[114.23419999999996,22.31]]]}},{"type":"Feature","properties":{"id":"lu-kowloon-kwun-tong-05-13","class":"built_up","vegetationFraction":0.132,"pavedFraction":0.841,"waterFraction":0.037,"simulated":true},"geometry":{"type":"Polygon","coordinates":[[[114.23579999999995,22.31],[114.23739999999995,22.31],[114.23739999999995,22.3116],[114.23579999999995,22.3116],[114.23579999999995,22.31]]]}},{"type":"Feature","properties":{"id":"lu-kowloon-kwun-tong-05-14","class":"built_up","vegetationFraction":0.117,"pavedFraction":0.552,"waterFraction":0.038,"simulated":true},"geometry":{"type":"Polygon","coordinates":[[[114.23739999999995,22.31],[114.23899999999995,22.31],[114.23899999999995,22.3116],[114.23739999999995,22.3116],[114.23739999999995,22.31]]]}},{"type":"Feature","properties":{"id":"lu-kowloon-kwun-tong-05-15","class":"built_up","vegetationFraction":0.16,"pavedFraction":0.723,"waterFraction":0.024,"simulated":true},"geometry":{"type":"Polygon","coordinates":[[[114.23899999999995,22.31],[114.24059999999994,22.31],[114.24059999999994,22.3116],[114.23899999999995,22.3116],[114.23899999999995,22.31]]]}},{"type":"Feature","properties":{"id":"lu-kowloon-kwun-tong-06-00","class":"built_up","vegetationFraction":0.064,"pavedFraction":0.557,"waterFraction":0.005,"simulated":true},"geometry":{"type":"Polygon","coordinates":[[[114.215,22.3116],[114.2166,22.3116],[114.2166,22.3132],[114.215,22.3132],[114.215,22.3116]]]}},{"type":"Feature","properties":{"id":"lu-kowloon-kwun-tong-06-01","class":"built_up","vegetationFraction":0.12,"pavedFraction":0.623,"waterFraction":0.024,"simulated":true},"geometry":{"type":"Polygon","coordinates":[[[114.2166,22.3116],[114.2182,22.3116],[114.2182,22.3132],[114.2166,22.3132],[114.2166,22.3116]]]}},{"type":"Feature","properties":{"id":"lu-kowloon-kwun-tong-06-02","class":"built_up","vegetationFraction":0.108,"pavedFraction":0.566,"waterFraction":0.056,"simulated":true},"geometry":{"type":"Polygon","coordinates":[[[114.2182,22.3116],[114.21979999999999,22.3116],[114.21979999999999,22.3132],[114.2182,22.3132],[114.2182,22.3116]]]}},{"type":"Feature","properties":{"id":"lu-kowloon-kwun-tong-06-03","class":"built_up","vegetationFraction":0.167,"pavedFraction":0.591,"waterFraction":0.047,"simulated":true},"geometry":{"type":"Polygon","coordinates":[[[114.21979999999999,22.3116],[114.22139999999999,22.3116],[114.22139999999999,22.3132],[114.21979999999999,22.3132],[114.21979999999999,22.3116]]]}},{"type":"Feature","properties":{"id":"lu-kowloon-kwun-tong-06-04","class":"built_up","vegetationFraction":0.086,"pavedFraction":0.722,"waterFraction":0.057,"simulated":true},"geometry":{"type":"Polygon","coordinates":[[[114.22139999999999,22.3116],[114.22299999999998,22.3116],[114.22299999999998,22.3132],[114.22139999999999,22.3132],[114.22139999999999,22.3116]]]}},{"type":"Feature","properties":{"id":"lu-kowloon-kwun-tong-06-05","class":"built_up","vegetationFraction":0.135,"pavedFraction":0.59,"waterFraction":0.005,"simulated":true},"geometry":{"type":"Polygon","coordinates":[[[114.22299999999998,22.3116],[114.22459999999998,22.3116],[114.22459999999998,22.3132],[114.22299999999998,22.3132],[114.22299999999998,22.3116]]]}},{"type":"Feature","properties":{"id":"lu-kowloon-kwun-tong-06-06","class":"built_up","vegetationFraction":0.177,"pavedFraction":0.798,"waterFraction":0.055,"simulated":true},"geometry":{"type":"Polygon","coordinates":[[[114.22459999999998,22.3116],[114.22619999999998,22.3116],[114.22619999999998,22.3132],[114.22459999999998,22.3132],[114.22459999999998,22.3116]]]}},{"type":"Feature","properties":{"id":"lu-kowloon-kwun-tong-06-07","class":"built_up","vegetationFraction":0.124,"pavedFraction":0.589,"waterFraction":0.056,"simulated":true},"geometry":{"type":"Polygon","coordinates":[[[114.22619999999998,22.3116],[114.22779999999997,22.3116],[114.22779999999997,22.3132],[114.22619999999998,22.3132],[114.22619999999998,22.3116]]]}},{"type":"Feature","properties":{"id":"lu-kowloon-kwun-tong-06-08","class":"built_up","vegetationFraction":0.131,"pavedFraction":0.837,"waterFraction":0.041,"simulated":true},"geometry":{"type":"Polygon","coordinates":[[[114.22779999999997,22.3116],[114.22939999999997,22.3116],[114.22939999999997,22.3132],[114.22779999999997,22.3132],[114.22779999999997,22.3116]]]}},{"type":"Feature","properties":{"id":"lu-kowloon-kwun-tong-06-09","class":"built_up","vegetationFraction":0.17,"pavedFraction":0.702,"waterFraction":0.052,"simulated":true},"geometry":{"type":"Polygon","coordinates":[[[114.22939999999997,22.3116],[114.23099999999997,22.3116],[114.23099999999997,22.3132],[114.22939999999997,22.3132],[114.22939999999997,22.3116]]]}},{"type":"Feature","properties":{"id":"lu-kowloon-kwun-tong-06-10","class":"built_up","vegetationFraction":0.081,"pavedFraction":0.614,"waterFraction":0.008,"simulated":true},"geometry":{"type":"Polygon","coordinates":[[[114.23099999999997,22.3116],[114.23259999999996,22.3116],[114.23259999999996,22.3132],[114.23099999999997,22.3132],[114.23099999999997,22.3116]]]}},{"type":"Feature","properties":{"id":"lu-kowloon-kwun-tong-06-11","class":"built_up","vegetationFraction":0.07,"pavedFraction":0.603,"waterFraction":0.028,"simulated":true},"geometry":{"type":"Polygon","coordinates":[[[114.23259999999996,22.3116],[114.23419999999996,22.3116],[114.23419999999996,22.3132],[114.23259999999996,22.3132],[114.23259999999996,22.3116]]]}},{"type":"Feature","properties":{"id":"lu-kowloon-kwun-tong-06-12","class":"built_up","vegetationFraction":0.161,"pavedFraction":0.669,"waterFraction":0.014,"simulated":true},"geometry":{"type":"Polygon","coordinates":[[[114.23419999999996,22.3116],[114.23579999999995,22.3116],[114.23579999999995,22.3132],[114.23419999999996,22.3132],[114.23419999999996,22.3116]]]}},{"type":"Feature","properties":{"id":"lu-kowloon-kwun-tong-06-13","class":"built_up","vegetationFraction":0.163,"pavedFraction":0.624,"waterFraction":0.05,"simulated":true},"geometry":{"type":"Polygon","coordinates":[[[114.23579999999995,22.3116],[114.23739999999995,22.3116],[114.23739999999995,22.3132],[114.23579999999995,22.3132],[114.23579999999995,22.3116]]]}},{"type":"Feature","properties":{"id":"lu-kowloon-kwun-tong-06-14","class":"built_up","vegetationFraction":0.102,"pavedFraction":0.595,"waterFraction":0.039,"simulated":true},"geometry":{"type":"Polygon","coordinates":[[[114.23739999999995,22.3116],[114.23899999999995,22.3116],[114.23899999999995,22.3132],[114.23739999999995,22.3132],[114.23739999999995,22.3116]]]}},{"type":"Feature","properties":{"id":"lu-kowloon-kwun-tong-06-15","class":"built_up","vegetationFraction":0.18,"pavedFraction":0.734,"waterFraction":0.051,"simulated":true},"geometry":{"type":"Polygon","coordinates":[[[114.23899999999995,22.3116],[114.24059999999994,22.3116],[114.24059999999994,22.3132],[114.23899999999995,22.3132],[114.23899999999995,22.3116]]]}},{"type":"Feature","properties":{"id":"lu-kowloon-kwun-tong-07-00","class":"built_up","vegetationFraction":0.128,"pavedFraction":0.692,"waterFraction":0.023,"simulated":true},"geometry":{"type":"Polygon","coordinates":[[[114.215,22.3132],[114.2166,22.3132],[114.2166,22.314799999999998],[114.215,22.314799999999998],[114.215,22.3132]]]}},{"type":"Feature","properties":{"id":"lu-kowloon-kwun-tong-07-01","class":"built_up","vegetationFraction":0.111,"pavedFraction":0.752,"waterFraction":0.007,"simulated":true},"geometry":{"type":"Polygon","coordinates":[[[114.2166,22.3132],[114.2182,22.3132],[114.2182,22.314799999999998],[114.2166,22.314799999999998],[114.2166,22.3132]]]}},{"type":"Feature","properties":{"id":"lu-kowloon-kwun-tong-07-02","class":"built_up","vegetationFraction":0.08,"pavedFraction":0.568,"waterFraction":0.053,"simulated":true},"geometry":{"type":"Polygon","coordinates":[[[114.2182,22.3132],[114.21979999999999,22.3132],[114.21979999999999,22.314799999999998],[114.2182,22.314799999999998],[114.2182,22.3132]]]}},{"type":"Feature","properties":{"id":"lu-kowloon-kwun-tong-07-03","class":"built_up","vegetationFraction":0.077,"pavedFraction":0.67,"waterFraction":0.034,"simulated":true},"geometry":{"type":"Polygon","coordinates":[[[114.21979999999999,22.3132],[114.22139999999999,22.3132],[114.22139999999999,22.314799999999998],[114.21979999999999,22.314799999999998],[114.21979999999999,22.3132]]]}},{"type":"Feature","properties":{"id":"lu-kowloon-kwun-tong-07-04","class":"built_up","vegetationFraction":0.145,"pavedFraction":0.779,"waterFraction":0.026,"simulated":true},"geometry":{"type":"Polygon","coordinates":[[[114.22139999999999,22.3132],[114.22299999999998,22.3132],[114.22299999999998,22.314799999999998],[114.22139999999999,22.314799999999998],[114.22139999999999,22.3132]]]}},{"type":"Feature","properties":{"id":"lu-kowloon-kwun-tong-07-05","class":"built_up","vegetationFraction":0.124,"pavedFraction":0.717,"waterFraction":0.011,"simulated":true},"geometry":{"type":"Polygon","coordinates":[[[114.22299999999998,22.3132],[114.22459999999998,22.3132],[114.22459999999998,22.314799999999998],[114.22299999999998,22.314799999999998],[114.22299999999998,22.3132]]]}},{"type":"Feature","properties":{"id":"lu-kowloon-kwun-tong-07-06","class":"built_up","vegetationFraction":0.156,"pavedFraction":0.843,"waterFraction":0.045,"simulated":true},"geometry":{"type":"Polygon","coordinates":[[[114.22459999999998,22.3132],[114.22619999999998,22.3132],[114.22619999999998,22.314799999999998],[114.22459999999998,22.314799999999998],[114.22459999999998,22.3132]]]}},{"type":"Feature","properties":{"id":"lu-kowloon-kwun-tong-07-07","class":"built_up","vegetationFraction":0.174,"pavedFraction":0.757,"waterFraction":0.021,"simulated":true},"geometry":{"type":"Polygon","coordinates":[[[114.22619999999998,22.3132],[114.22779999999997,22.3132],[114.22779999999997,22.314799999999998],[114.22619999999998,22.314799999999998],[114.22619999999998,22.3132]]]}},{"type":"Feature","properties":{"id":"lu-kowloon-kwun-tong-07-08","class":"built_up","vegetationFraction":0.098,"pavedFraction":0.774,"waterFraction":0.013,"simulated":true},"geometry":{"type":"Polygon","coordinates":[[[114.22779999999997,22.3132],[114.22939999999997,22.3132],[114.22939999999997,22.314799999999998],[114.22779999999997,22.314799999999998],[114.22779999999997,22.3132]]]}},{"type":"Feature","properties":{"id":"lu-kowloon-kwun-tong-07-09","class":"built_up","vegetationFraction":0.094,"pavedFraction":0.584,"waterFraction":0.031,"simulated":true},"geometry":{"type":"Polygon","coordinates":[[[114.22939999999997,22.3132],[114.23099999999997,22.3132],[114.23099999999997,22.314799999999998],[114.22939999999997,22.314799999999998],[114.22939999999997,22.3132]]]}},{"type":"Feature","properties":{"id":"lu-kowloon-kwun-tong-07-10","class":"built_up","vegetationFraction":0.104,"pavedFraction":0.744,"waterFraction":0.005,"simulated":true},"geometry":{"type":"Polygon","coordinates":[[[114.23099999999997,22.3132],[114.23259999999996,22.3132],[114.23259999999996,22.314799999999998],[114.23099999999997,22.314799999999998],[114.23099999999997,22.3132]]]}},{"type":"Feature","properties":{"id":"lu-kowloon-kwun-tong-07-11","class":"built_up","vegetationFraction":0.123,"pavedFraction":0.821,"waterFraction":0.043,"simulated":true},"geometry":{"type":"Polygon","coordinates":[[[114.23259999999996,22.3132],[114.23419999999996,22.3132],[114.23419999999996,22.314799999999998],[114.23259999999996,22.314799999999998],[114.23259999999996,22.3132]]]}},{"type":"Feature","properties":{"id":"lu-kowloon-kwun-tong-07-12","class":"built_up","vegetationFraction":0.145,"pavedFraction":0.783,"waterFraction":0.042,"simulated":true},"geometry":{"type":"Polygon","coordinates":[[[114.23419999999996,22.3132],[114.23579999999995,22.3132],[114.23579999999995,22.314799999999998],[114.23419999999996,22.314799999999998],[114.23419999999996,22.3132]]]}},{"type":"Feature","properties":{"id":"lu-kowloon-kwun-tong-07-13","class":"built_up","vegetationFraction":0.141,"pavedFraction":0.792,"waterFraction":0.033,"simulated":true},"geometry":{"type":"Polygon","coordinates":[[[114.23579999999995,22.3132],[114.23739999999995,22.3132],[114.23739999999995,22.314799999999998],[114.23579999999995,22.314799999999998],[114.23579999999995,22.3132]]]}},{"type":"Feature","properties":{"id":"lu-kowloon-kwun-tong-07-14","class":"built_up","vegetationFraction":0.174,"pavedFraction":0.73,"waterFraction":0.051,"simulated":true},"geometry":{"type":"Polygon","coordinates":[[[114.23739999999995,22.3132],[114.23899999999995,22.3132],[114.23899999999995,22.314799999999998],[114.23739999999995,22.314799999999998],[114.23739999999995,22.3132]]]}},{"type":"Feature","properties":{"id":"lu-kowloon-kwun-tong-07-15","class":"built_up","vegetationFraction":0.107,"pavedFraction":0.621,"waterFraction":0.01,"simulated":true},"geometry":{"type":"Polygon","coordinates":[[[114.23899999999995,22.3132],[114.24059999999994,22.3132],[114.24059999999994,22.314799999999998],[114.23899999999995,22.314799999999998],[114.23899999999995,22.3132]]]}},{"type":"Feature","properties":{"id":"lu-kowloon-kwun-tong-08-00","class":"built_up","vegetationFraction":0.152,"pavedFraction":0.791,"waterFraction":0.051,"simulated":true},"geometry":{"type":"Polygon","coordinates":[[[114.215,22.314799999999998],[114.2166,22.314799999999998],[114.2166,22.316399999999998],[114.215,22.316399999999998],[114.215,22.314799999999998]]]}},{"type":"Feature","properties":{"id":"lu-kowloon-kwun-tong-08-01","class":"built_up","vegetationFraction":0.166,"pavedFraction":0.569,"waterFraction":0.038,"simulated":true},"geometry":{"type":"Polygon","coordinates":[[[114.2166,22.314799999999998],[114.2182,22.314799999999998],[114.2182,22.316399999999998],[114.2166,22.316399999999998],[114.2166,22.314799999999998]]]}},{"type":"Feature","properties":{"id":"lu-kowloon-kwun-tong-08-02","class":"built_up","vegetationFraction":0.141,"pavedFraction":0.715,"waterFraction":0.019,"simulated":true},"geometry":{"type":"Polygon","coordinates":[[[114.2182,22.314799999999998],[114.21979999999999,22.314799999999998],[114.21979999999999,22.316399999999998],[114.2182,22.316399999999998],[114.2182,22.314799999999998]]]}},{"type":"Feature","properties":{"id":"lu-kowloon-kwun-tong-08-03","class":"built_up","vegetationFraction":0.116,"pavedFraction":0.836,"waterFraction":0.023,"simulated":true},"geometry":{"type":"Polygon","coordinates":[[[114.21979999999999,22.314799999999998],[114.22139999999999,22.314799999999998],[114.22139999999999,22.316399999999998],[114.21979999999999,22.316399999999998],[114.21979999999999,22.314799999999998]]]}},{"type":"Feature","properties":{"id":"lu-kowloon-kwun-tong-08-04","class":"built_up","vegetationFraction":0.159,"pavedFraction":0.692,"waterFraction":0.035,"simulated":true},"geometry":{"type":"Polygon","coordinates":[[[114.22139999999999,22.314799999999998],[114.22299999999998,22.314799999999998],[114.22299999999998,22.316399999999998],[114.22139999999999,22.316399999999998],[114.22139999999999,22.314799999999998]]]}},{"type":"Feature","properties":{"id":"lu-kowloon-kwun-tong-08-05","class":"built_up","vegetationFraction":0.09,"pavedFraction":0.755,"waterFraction":0.006,"simulated":true},"geometry":{"type":"Polygon","coordinates":[[[114.22299999999998,22.314799999999998],[114.22459999999998,22.314799999999998],[114.22459999999998,22.316399999999998],[114.22299999999998,22.316399999999998],[114.22299999999998,22.314799999999998]]]}},{"type":"Feature","properties":{"id":"lu-kowloon-kwun-tong-08-06","class":"built_up","vegetationFraction":0.088,"pavedFraction":0.655,"waterFraction":0.057,"simulated":true},"geometry":{"type":"Polygon","coordinates":[[[114.22459999999998,22.314799999999998],[114.22619999999998,22.314799999999998],[114.22619999999998,22.316399999999998],[114.22459999999998,22.316399999999998],[114.22459999999998,22.314799999999998]]]}},{"type":"Feature","properties":{"id":"lu-kowloon-kwun-tong-08-07","class":"built_up","vegetationFraction":0.177,"pavedFraction":0.61,"waterFraction":0.057,"simulated":true},"geometry":{"type":"Polygon","coordinates":[[[114.22619999999998,22.314799999999998],[114.22779999999997,22.314799999999998],[114.22779999999997,22.316399999999998],[114.22619999999998,22.316399999999998],[114.22619999999998,22.314799999999998]]]}},{"type":"Feature","properties":{"id":"lu-kowloon-kwun-tong-08-08","class":"built_up","vegetationFraction":0.134,"pavedFraction":0.591,"waterFraction":0.012,"simulated":true},"geometry":{"type":"Polygon","coordinates":[[[114.22779999999997,22.314799999999998],[114.22939999999997,22.314799999999998],[114.22939999999997,22.316399999999998],[114.22779999999997,22.316399999999998],[114.22779999999997,22.314799999999998]]]}},{"type":"Feature","properties":{"id":"lu-kowloon-kwun-tong-08-09","class":"built_up","vegetationFraction":0.123,"pavedFraction":0.624,"waterFraction":0.035,"simulated":true},"geometry":{"type":"Polygon","coordinates":[[[114.22939999999997,22.314799999999998],[114.23099999999997,22.314799999999998],[114.23099999999997,22.316399999999998],[114.22939999999997,22.316399999999998],[114.22939999999997,22.314799999999998]]]}},{"type":"Feature","properties":{"id":"lu-kowloon-kwun-tong-08-10","class":"built_up","vegetationFraction":0.11,"pavedFraction":0.676,"waterFraction":0.019,"simulated":true},"geometry":{"type":"Polygon","coordinates":[[[114.23099999999997,22.314799999999998],[114.23259999999996,22.314799999999998],[114.23259999999996,22.316399999999998],[114.23099999999997,22.316399999999998],[114.23099999999997,22.314799999999998]]]}},{"type":"Feature","properties":{"id":"lu-kowloon-kwun-tong-08-11","class":"built_up","vegetationFraction":0.102,"pavedFraction":0.616,"waterFraction":0.042,"simulated":true},"geometry":{"type":"Polygon","coordinates":[[[114.23259999999996,22.314799999999998],[114.23419999999996,22.314799999999998],[114.23419999999996,22.316399999999998],[114.23259999999996,22.316399999999998],[114.23259999999996,22.314799999999998]]]}},{"type":"Feature","properties":{"id":"lu-kowloon-kwun-tong-08-12","class":"built_up","vegetationFraction":0.133,"pavedFraction":0.805,"waterFraction":0.045,"simulated":true},"geometry":{"type":"Polygon","coordinates":[[[114.23419999999996,22.314799999999998],[114.23579999999995,22.314799999999998],[114.23579999999995,22.316399999999998],[114.23419999999996,22.316399999999998],[114.23419999999996,22.314799999999998]]]}},{"type":"Feature","properties":{"id":"lu-kowloon-kwun-tong-08-13","class":"built_up","vegetationFraction":0.095,"pavedFraction":0.571,"waterFraction":0.015,"simulated":true},"geometry":{"type":"Polygon","coordinates":[[[114.23579999999995,22.314799999999998],[114.23739999999995,22.314799999999998],[114.23739999999995,22.316399999999998],[114.23579999999995,22.316399999999998],[114.23579999999995,22.314799999999998]]]}},{"type":"Feature","properties":{"id":"lu-kowloon-kwun-tong-08-14","class":"built_up","vegetationFraction":0.103,"pavedFraction":0.739,"waterFraction":0.041,"simulated":true},"geometry":{"type":"Polygon","coordinates":[[[114.23739999999995,22.314799999999998],[114.23899999999995,22.314799999999998],[114.23899999999995,22.316399999999998],[114.23739999999995,22.316399999999998],[114.23739999999995,22.314799999999998]]]}},{"type":"Feature","properties":{"id":"lu-kowloon-kwun-tong-08-15","class":"built_up","vegetationFraction":0.14,"pavedFraction":0.844,"waterFraction":0.006,"simulated":true},"geometry":{"type":"Polygon","coordinates":[[[114.23899999999995,22.314799999999998],[114.24059999999994,22.314799999999998],[114.24059999999994,22.316399999999998],[114.23899999999995,22.316399999999998],[114.23899999999995,22.314799999999998]]]}},{"type":"Feature","properties":{"id":"lu-kowloon-kwun-tong-09-00","class":"built_up","vegetationFraction":0.04,"pavedFraction":0.95,"waterFraction":0.054,"simulated":true},"geometry":{"type":"Polygon","coordinates":[[[114.215,22.316399999999998],[114.2166,22.316399999999998],[114.2166,22.317999999999998],[114.215,22.317999999999998],[114.215,22.316399999999998]]]}},{"type":"Feature","properties":{"id":"lu-kowloon-kwun-tong-09-01","class":"built_up","vegetationFraction":0.027,"pavedFraction":0.896,"waterFraction":0.048,"simulated":true},"geometry":{"type":"Polygon","coordinates":[[[114.2166,22.316399999999998],[114.2182,22.316399999999998],[114.2182,22.317999999999998],[114.2166,22.317999999999998],[114.2166,22.316399999999998]]]}},{"type":"Feature","properties":{"id":"lu-kowloon-kwun-tong-09-02","class":"built_up","vegetationFraction":0.024,"pavedFraction":0.95,"waterFraction":0.036,"simulated":true},"geometry":{"type":"Polygon","coordinates":[[[114.2182,22.316399999999998],[114.21979999999999,22.316399999999998],[114.21979999999999,22.317999999999998],[114.2182,22.317999999999998],[114.2182,22.316399999999998]]]}},{"type":"Feature","properties":{"id":"lu-kowloon-kwun-tong-09-03","class":"built_up","vegetationFraction":0.04,"pavedFraction":0.813,"waterFraction":0.021,"simulated":true},"geometry":{"type":"Polygon","coordinates":[[[114.21979999999999,22.316399999999998],[114.22139999999999,22.316399999999998],[114.22139999999999,22.317999999999998],[114.21979999999999,22.317999999999998],[114.21979999999999,22.316399999999998]]]}},{"type":"Feature","properties":{"id":"lu-kowloon-kwun-tong-09-04","class":"built_up","vegetationFraction":0.039,"pavedFraction":0.95,"waterFraction":0.05,"simulated":true},"geometry":{"type":"Polygon","coordinates":[[[114.22139999999999,22.316399999999998],[114.22299999999998,22.316399999999998],[114.22299999999998,22.317999999999998],[114.22139999999999,22.317999999999998],[114.22139999999999,22.316399999999998]]]}},{"type":"Feature","properties":{"id":"lu-kowloon-kwun-tong-09-05","class":"built_up","vegetationFraction":0.034,"pavedFraction":0.88,"waterFraction":0.007,"simulated":true},"geometry":{"type":"Polygon","coordinates":[[[114.22299999999998,22.316399999999998],[114.22459999999998,22.316399999999998],[114.22459999999998,22.317999999999998],[114.22299999999998,22.317999999999998],[114.22299999999998,22.316399999999998]]]}},{"type":"Feature","properties":{"id":"lu-kowloon-kwun-tong-09-06","class":"built_up","vegetationFraction":0.043,"pavedFraction":0.812,"waterFraction":0.026,"simulated":true},"geometry":{"type":"Polygon","coordinates":[[[114.22459999999998,22.316399999999998],[114.22619999999998,22.316399999999998],[114.22619999999998,22.317999999999998],[114.22459999999998,22.317999999999998],[114.22459999999998,22.316399999999998]]]}},{"type":"Feature","properties":{"id":"lu-kowloon-kwun-tong-09-07","class":"built_up","vegetationFraction":0.033,"pavedFraction":0.947,"waterFraction":0.051,"simulated":true},"geometry":{"type":"Polygon","coordinates":[[[114.22619999999998,22.316399999999998],[114.22779999999997,22.316399999999998],[114.22779999999997,22.317999999999998],[114.22619999999998,22.317999999999998],[114.22619999999998,22.316399999999998]]]}},{"type":"Feature","properties":{"id":"lu-kowloon-kwun-tong-09-08","class":"built_up","vegetationFraction":0.029,"pavedFraction":0.95,"waterFraction":0.05,"simulated":true},"geometry":{"type":"Polygon","coordinates":[[[114.22779999999997,22.316399999999998],[114.22939999999997,22.316399999999998],[114.22939999999997,22.317999999999998],[114.22779999999997,22.317999999999998],[114.22779999999997,22.316399999999998]]]}},{"type":"Feature","properties":{"id":"lu-kowloon-kwun-tong-09-09","class":"built_up","vegetationFraction":0.035,"pavedFraction":0.95,"waterFraction":0.01,"simulated":true},"geometry":{"type":"Polygon","coordinates":[[[114.22939999999997,22.316399999999998],[114.23099999999997,22.316399999999998],[114.23099999999997,22.317999999999998],[114.22939999999997,22.317999999999998],[114.22939999999997,22.316399999999998]]]}},{"type":"Feature","properties":{"id":"lu-kowloon-kwun-tong-09-10","class":"built_up","vegetationFraction":0.047,"pavedFraction":0.828,"waterFraction":0.038,"simulated":true},"geometry":{"type":"Polygon","coordinates":[[[114.23099999999997,22.316399999999998],[114.23259999999996,22.316399999999998],[114.23259999999996,22.317999999999998],[114.23099999999997,22.317999999999998],[114.23099999999997,22.316399999999998]]]}},{"type":"Feature","properties":{"id":"lu-kowloon-kwun-tong-09-11","class":"built_up","vegetationFraction":0.039,"pavedFraction":0.833,"waterFraction":0.031,"simulated":true},"geometry":{"type":"Polygon","coordinates":[[[114.23259999999996,22.316399999999998],[114.23419999999996,22.316399999999998],[114.23419999999996,22.317999999999998],[114.23259999999996,22.317999999999998],[114.23259999999996,22.316399999999998]]]}},{"type":"Feature","properties":{"id":"lu-kowloon-kwun-tong-09-12","class":"built_up","vegetationFraction":0.052,"pavedFraction":0.9,"waterFraction":0.006,"simulated":true},"geometry":{"type":"Polygon","coordinates":[[[114.23419999999996,22.316399999999998],[114.23579999999995,22.316399999999998],[114.23579999999995,22.317999999999998],[114.23419999999996,22.317999999999998],[114.23419999999996,22.316399999999998]]]}},{"type":"Feature","properties":{"id":"lu-kowloon-kwun-tong-09-13","class":"built_up","vegetationFraction":0.039,"pavedFraction":0.95,"waterFraction":0.032,"simulated":true},"geometry":{"type":"Polygon","coordinates":[[[114.23579999999995,22.316399999999998],[114.23739999999995,22.316399999999998],[114.23739999999995,22.317999999999998],[114.23579999999995,22.317999999999998],[114.23579999999995,22.316399999999998]]]}},{"type":"Feature","properties":{"id":"lu-kowloon-kwun-tong-09-14","class":"built_up","vegetationFraction":0.021,"pavedFraction":0.874,"waterFraction":0.033,"simulated":true},"geometry":{"type":"Polygon","coordinates":[[[114.23739999999995,22.316399999999998],[114.23899999999995,22.316399999999998],[114.23899999999995,22.317999999999998],[114.23739999999995,22.317999999999998],[114.23739999999995,22.316399999999998]]]}},{"type":"Feature","properties":{"id":"lu-kowloon-kwun-tong-09-15","class":"built_up","vegetationFraction":0.041,"pavedFraction":0.95,"waterFraction":0.015,"simulated":true},"geometry":{"type":"Polygon","coordinates":[[[114.23899999999995,22.316399999999998],[114.24059999999994,22.316399999999998],[114.24059999999994,22.317999999999998],[114.23899999999995,22.317999999999998],[114.23899999999995,22.316399999999998]]]}},{"type":"Feature","properties":{"id":"lu-kowloon-kwun-tong-10-00","class":"built_up","vegetationFraction":0.04,"pavedFraction":0.938,"waterFraction":0.037,"simulated":true},"geometry":{"type":"Polygon","coordinates":[[[114.215,22.317999999999998],[114.2166,22.317999999999998],[114.2166,22.319599999999998],[114.215,22.319599999999998],[114.215,22.317999999999998]]]}},{"type":"Feature","properties":{"id":"lu-kowloon-kwun-tong-10-01","class":"built_up","vegetationFraction":0.029,"pavedFraction":0.862,"waterFraction":0.042,"simulated":true},"geometry":{"type":"Polygon","coordinates":[[[114.2166,22.317999999999998],[114.2182,22.317999999999998],[114.2182,22.319599999999998],[114.2166,22.319599999999998],[114.2166,22.317999999999998]]]}},{"type":"Feature","properties":{"id":"lu-kowloon-kwun-tong-10-02","class":"built_up","vegetationFraction":0.043,"pavedFraction":0.9,"waterFraction":0.042,"simulated":true},"geometry":{"type":"Polygon","coordinates":[[[114.2182,22.317999999999998],[114.21979999999999,22.317999999999998],[114.21979999999999,22.319599999999998],[114.2182,22.319599999999998],[114.2182,22.317999999999998]]]}},{"type":"Feature","properties":{"id":"lu-kowloon-kwun-tong-10-03","class":"built_up","vegetationFraction":0.029,"pavedFraction":0.95,"waterFraction":0.02,"simulated":true},"geometry":{"type":"Polygon","coordinates":[[[114.21979999999999,22.317999999999998],[114.22139999999999,22.317999999999998],[114.22139999999999,22.319599999999998],[114.21979999999999,22.319599999999998],[114.21979999999999,22.317999999999998]]]}},{"type":"Feature","properties":{"id":"lu-kowloon-kwun-tong-10-04","class":"built_up","vegetationFraction":0.035,"pavedFraction":0.908,"waterFraction":0.039,"simulated":true},"geometry":{"type":"Polygon","coordinates":[[[114.22139999999999,22.317999999999998],[114.22299999999998,22.317999999999998],[114.22299999999998,22.319599999999998],[114.22139999999999,22.319599999999998],[114.22139999999999,22.317999999999998]]]}},{"type":"Feature","properties":{"id":"lu-kowloon-kwun-tong-10-05","class":"built_up","vegetationFraction":0.036,"pavedFraction":0.947,"waterFraction":0.053,"simulated":true},"geometry":{"type":"Polygon","coordinates":[[[114.22299999999998,22.317999999999998],[114.22459999999998,22.317999999999998],[114.22459999999998,22.319599999999998],[114.22299999999998,22.319599999999998],[114.22299999999998,22.317999999999998]]]}},{"type":"Feature","properties":{"id":"lu-kowloon-kwun-tong-10-06","class":"built_up","vegetationFraction":0.051,"pavedFraction":0.892,"waterFraction":0.051,"simulated":true},"geometry":{"type":"Polygon","coordinates":[[[114.22459999999998,22.317999999999998],[114.22619999999998,22.317999999999998],[114.22619999999998,22.319599999999998],[114.22459999999998,22.319599999999998],[114.22459999999998,22.317999999999998]]]}},{"type":"Feature","properties":{"id":"lu-kowloon-kwun-tong-10-07","class":"built_up","vegetationFraction":0.042,"pavedFraction":0.839,"waterFraction":0.044,"simulated":true},"geometry":{"type":"Polygon","coordinates":[[[114.22619999999998,22.317999999999998],[114.22779999999997,22.317999999999998],[114.22779999999997,22.319599999999998],[114.22619999999998,22.319599999999998],[114.22619999999998,22.317999999999998]]]}},{"type":"Feature","properties":{"id":"lu-kowloon-kwun-tong-10-08","class":"built_up","vegetationFraction":0.041,"pavedFraction":0.95,"waterFraction":0.024,"simulated":true},"geometry":{"type":"Polygon","coordinates":[[[114.22779999999997,22.317999999999998],[114.22939999999997,22.317999999999998],[114.22939999999997,22.319599999999998],[114.22779999999997,22.319599999999998],[114.22779999999997,22.317999999999998]]]}},{"type":"Feature","properties":{"id":"lu-kowloon-kwun-tong-10-09","class":"built_up","vegetationFraction":0.023,"pavedFraction":0.95,"waterFraction":0.011,"simulated":true},"geometry":{"type":"Polygon","coordinates":[[[114.22939999999997,22.317999999999998],[114.23099999999997,22.317999999999998],[114.23099999999997,22.319599999999998],[114.22939999999997,22.319599999999998],[114.22939999999997,22.317999999999998]]]}},{"type":"Feature","properties":{"id":"lu-kowloon-kwun-tong-10-10","class":"built_up","vegetationFraction":0.052,"pavedFraction":0.95,"waterFraction":0.026,"simulated":true},"geometry":{"type":"Polygon","coordinates":[[[114.23099999999997,22.317999999999998],[114.23259999999996,22.317999999999998],[114.23259999999996,22.319599999999998],[114.23099999999997,22.319599999999998],[114.23099999999997,22.317999999999998]]]}},{"type":"Feature","properties":{"id":"lu-kowloon-kwun-tong-10-11","class":"built_up","vegetationFraction":0.037,"pavedFraction":0.95,"waterFraction":0.049,"simulated":true},"geometry":{"type":"Polygon","coordinates":[[[114.23259999999996,22.317999999999998],[114.23419999999996,22.317999999999998],[114.23419999999996,22.319599999999998],[114.23259999999996,22.319599999999998],[114.23259999999996,22.317999999999998]]]}},{"type":"Feature","properties":{"id":"lu-kowloon-kwun-tong-10-12","class":"built_up","vegetationFraction":0.018,"pavedFraction":0.825,"waterFraction":0.023,"simulated":true},"geometry":{"type":"Polygon","coordinates":[[[114.23419999999996,22.317999999999998],[114.23579999999995,22.317999999999998],[114.23579999999995,22.319599999999998],[114.23419999999996,22.319599999999998],[114.23419999999996,22.317999999999998]]]}},{"type":"Feature","properties":{"id":"lu-kowloon-kwun-tong-10-13","class":"built_up","vegetationFraction":0.048,"pavedFraction":0.95,"waterFraction":0.002,"simulated":true},"geometry":{"type":"Polygon","coordinates":[[[114.23579999999995,22.317999999999998],[114.23739999999995,22.317999999999998],[114.23739999999995,22.319599999999998],[114.23579999999995,22.319599999999998],[114.23579999999995,22.317999999999998]]]}},{"type":"Feature","properties":{"id":"lu-kowloon-kwun-tong-10-14","class":"built_up","vegetationFraction":0.052,"pavedFraction":0.801,"waterFraction":0.029,"simulated":true},"geometry":{"type":"Polygon","coordinates":[[[114.23739999999995,22.317999999999998],[114.23899999999995,22.317999999999998],[114.23899999999995,22.319599999999998],[114.23739999999995,22.319599999999998],[114.23739999999995,22.317999999999998]]]}},{"type":"Feature","properties":{"id":"lu-kowloon-kwun-tong-10-15","class":"built_up","vegetationFraction":0.052,"pavedFraction":0.95,"waterFraction":0.056,"simulated":true},"geometry":{"type":"Polygon","coordinates":[[[114.23899999999995,22.317999999999998],[114.24059999999994,22.317999999999998],[114.24059999999994,22.319599999999998],[114.23899999999995,22.319599999999998],[114.23899999999995,22.317999999999998]]]}},{"type":"Feature","properties":{"id":"lu-kowloon-kwun-tong-11-00","class":"built_up","vegetationFraction":0.041,"pavedFraction":0.878,"waterFraction":0.054,"simulated":true},"geometry":{"type":"Polygon","coordinates":[[[114.215,22.319599999999998],[114.2166,22.319599999999998],[114.2166,22.321199999999997],[114.215,22.321199999999997],[114.215,22.319599999999998]]]}},{"type":"Feature","properties":{"id":"lu-kowloon-kwun-tong-11-01","class":"built_up","vegetationFraction":0.034,"pavedFraction":0.95,"waterFraction":0.042,"simulated":true},"geometry":{"type":"Polygon","coordinates":[[[114.2166,22.319599999999998],[114.2182,22.319599999999998],[114.2182,22.321199999999997],[114.2166,22.321199999999997],[114.2166,22.319599999999998]]]}},{"type":"Feature","properties":{"id":"lu-kowloon-kwun-tong-11-02","class":"built_up","vegetationFraction":0.053,"pavedFraction":0.95,"waterFraction":0.05,"simulated":true},"geometry":{"type":"Polygon","coordinates":[[[114.2182,22.319599999999998],[114.21979999999999,22.319599999999998],[114.21979999999999,22.321199999999997],[114.2182,22.321199999999997],[114.2182,22.319599999999998]]]}},{"type":"Feature","properties":{"id":"lu-kowloon-kwun-tong-11-03","class":"built_up","vegetationFraction":0.042,"pavedFraction":0.854,"waterFraction":0.052,"simulated":true},"geometry":{"type":"Polygon","coordinates":[[[114.21979999999999,22.319599999999998],[114.22139999999999,22.319599999999998],[114.22139999999999,22.321199999999997],[114.21979999999999,22.321199999999997],[114.21979999999999,22.319599999999998]]]}},{"type":"Feature","properties":{"id":"lu-kowloon-kwun-tong-11-04","class":"built_up","vegetationFraction":0.028,"pavedFraction":0.945,"waterFraction":0.033,"simulated":true},"geometry":{"type":"Polygon","coordinates":[[[114.22139999999999,22.319599999999998],[114.22299999999998,22.319599999999998],[114.22299999999998,22.321199999999997],[114.22139999999999,22.321199999999997],[114.22139999999999,22.319599999999998]]]}},{"type":"Feature","properties":{"id":"lu-kowloon-kwun-tong-11-05","class":"built_up","vegetationFraction":0.047,"pavedFraction":0.808,"waterFraction":0.059,"simulated":true},"geometry":{"type":"Polygon","coordinates":[[[114.22299999999998,22.319599999999998],[114.22459999999998,22.319599999999998],[114.22459999999998,22.321199999999997],[114.22299999999998,22.321199999999997],[114.22299999999998,22.319599999999998]]]}},{"type":"Feature","properties":{"id":"lu-kowloon-kwun-tong-11-06","class":"built_up","vegetationFraction":0.037,"pavedFraction":0.893,"waterFraction":0.041,"simulated":true},"geometry":{"type":"Polygon","coordinates":[[[114.22459999999998,22.319599999999998],[114.22619999999998,22.319599999999998],[114.22619999999998,22.321199999999997],[114.22459999999998,22.321199999999997],[114.22459999999998,22.319599999999998]]]}},{"type":"Feature","properties":{"id":"lu-kowloon-kwun-tong-11-07","class":"built_up","vegetationFraction":0.036,"pavedFraction":0.926,"waterFraction":0.035,"simulated":true},"geometry":{"type":"Polygon","coordinates":[[[114.22619999999998,22.319599999999998],[114.22779999999997,22.319599999999998],[114.22779999999997,22.321199999999997],[114.22619999999998,22.321199999999997],[114.22619999999998,22.319599999999998]]]}},{"type":"Feature","properties":{"id":"lu-kowloon-kwun-tong-11-08","class":"built_up","vegetationFraction":0.036,"pavedFraction":0.95,"waterFraction":0.003,"simulated":true},"geometry":{"type":"Polygon","coordinates":[[[114.22779999999997,22.319599999999998],[114.22939999999997,22.319599999999998],[114.22939999999997,22.321199999999997],[114.22779999999997,22.321199999999997],[114.22779999999997,22.319599999999998]]]}},{"type":"Feature","properties":{"id":"lu-kowloon-kwun-tong-11-09","class":"built_up","vegetationFraction":0.023,"pavedFraction":0.95,"waterFraction":0.039,"simulated":true},"geometry":{"type":"Polygon","coordinates":[[[114.22939999999997,22.319599999999998],[114.23099999999997,22.319599999999998],[114.23099999999997,22.321199999999997],[114.22939999999997,22.321199999999997],[114.22939999999997,22.319599999999998]]]}},{"type":"Feature","properties":{"id":"lu-kowloon-kwun-tong-11-10","class":"built_up","vegetationFraction":0.025,"pavedFraction":0.95,"waterFraction":0.057,"simulated":true},"geometry":{"type":"Polygon","coordinates":[[[114.23099999999997,22.319599999999998],[114.23259999999996,22.319599999999998],[114.23259999999996,22.321199999999997],[114.23099999999997,22.321199999999997],[114.23099999999997,22.319599999999998]]]}},{"type":"Feature","properties":{"id":"lu-kowloon-kwun-tong-11-11","class":"built_up","vegetationFraction":0.043,"pavedFraction":0.95,"waterFraction":0.008,"simulated":true},"geometry":{"type":"Polygon","coordinates":[[[114.23259999999996,22.319599999999998],[114.23419999999996,22.319599999999998],[114.23419999999996,22.321199999999997],[114.23259999999996,22.321199999999997],[114.23259999999996,22.319599999999998]]]}},{"type":"Feature","properties":{"id":"lu-kowloon-kwun-tong-11-12","class":"built_up","vegetationFraction":0.021,"pavedFraction":0.912,"waterFraction":0.019,"simulated":true},"geometry":{"type":"Polygon","coordinates":[[[114.23419999999996,22.319599999999998],[114.23579999999995,22.319599999999998],[114.23579999999995,22.321199999999997],[114.23419999999996,22.321199999999997],[114.23419999999996,22.319599999999998]]]}},{"type":"Feature","properties":{"id":"lu-kowloon-kwun-tong-11-13","class":"built_up","vegetationFraction":0.05,"pavedFraction":0.946,"waterFraction":0.024,"simulated":true},"geometry":{"type":"Polygon","coordinates":[[[114.23579999999995,22.319599999999998],[114.23739999999995,22.319599999999998],[114.23739999999995,22.321199999999997],[114.23579999999995,22.321199999999997],[114.23579999999995,22.319599999999998]]]}},{"type":"Feature","properties":{"id":"lu-kowloon-kwun-tong-11-14","class":"built_up","vegetationFraction":0.021,"pavedFraction":0.852,"waterFraction":0.06,"simulated":true},"geometry":{"type":"Polygon","coordinates":[[[114.23739999999995,22.319599999999998],[114.23899999999995,22.319599999999998],[114.23899999999995,22.321199999999997],[114.23739999999995,22.321199999999997],[114.23739999999995,22.319599999999998]]]}},{"type":"Feature","properties":{"id":"lu-kowloon-kwun-tong-11-15","class":"built_up","vegetationFraction":0.051,"pavedFraction":0.95,"waterFraction":0.049,"simulated":true},"geometry":{"type":"Polygon","coordinates":[[[114.23899999999995,22.319599999999998],[114.24059999999994,22.319599999999998],[114.24059999999994,22.321199999999997],[114.23899999999995,22.321199999999997],[114.23899999999995,22.319599999999998]]]}},{"type":"Feature","properties":{"id":"lu-kowloon-kwun-tong-12-00","class":"built_up","vegetationFraction":0.049,"pavedFraction":0.947,"waterFraction":0.004,"simulated":true},"geometry":{"type":"Polygon","coordinates":[[[114.215,22.321199999999997],[114.2166,22.321199999999997],[114.2166,22.322799999999997],[114.215,22.322799999999997],[114.215,22.321199999999997]]]}},{"type":"Feature","properties":{"id":"lu-kowloon-kwun-tong-12-01","class":"built_up","vegetationFraction":0.053,"pavedFraction":0.896,"waterFraction":0.042,"simulated":true},"geometry":{"type":"Polygon","coordinates":[[[114.2166,22.321199999999997],[114.2182,22.321199999999997],[114.2182,22.322799999999997],[114.2166,22.322799999999997],[114.2166,22.321199999999997]]]}},{"type":"Feature","properties":{"id":"lu-kowloon-kwun-tong-12-02","class":"built_up","vegetationFraction":0.037,"pavedFraction":0.806,"waterFraction":0.036,"simulated":true},"geometry":{"type":"Polygon","coordinates":[[[114.2182,22.321199999999997],[114.21979999999999,22.321199999999997],[114.21979999999999,22.322799999999997],[114.2182,22.322799999999997],[114.2182,22.321199999999997]]]}},{"type":"Feature","properties":{"id":"lu-kowloon-kwun-tong-12-03","class":"built_up","vegetationFraction":0.048,"pavedFraction":0.802,"waterFraction":0.022,"simulated":true},"geometry":{"type":"Polygon","coordinates":[[[114.21979999999999,22.321199999999997],[114.22139999999999,22.321199999999997],[114.22139999999999,22.322799999999997],[114.21979999999999,22.322799999999997],[114.21979999999999,22.321199999999997]]]}},{"type":"Feature","properties":{"id":"lu-kowloon-kwun-tong-12-04","class":"built_up","vegetationFraction":0.028,"pavedFraction":0.95,"waterFraction":0.026,"simulated":true},"geometry":{"type":"Polygon","coordinates":[[[114.22139999999999,22.321199999999997],[114.22299999999998,22.321199999999997],[114.22299999999998,22.322799999999997],[114.22139999999999,22.322799999999997],[114.22139999999999,22.321199999999997]]]}},{"type":"Feature","properties":{"id":"lu-kowloon-kwun-tong-12-05","class":"built_up","vegetationFraction":0.051,"pavedFraction":0.95,"waterFraction":0.025,"simulated":true},"geometry":{"type":"Polygon","coordinates":[[[114.22299999999998,22.321199999999997],[114.22459999999998,22.321199999999997],[114.22459999999998,22.322799999999997],[114.22299999999998,22.322799999999997],[114.22299999999998,22.321199999999997]]]}},{"type":"Feature","properties":{"id":"lu-kowloon-kwun-tong-12-06","class":"built_up","vegetationFraction":0.048,"pavedFraction":0.848,"waterFraction":0.007,"simulated":true},"geometry":{"type":"Polygon","coordinates":[[[114.22459999999998,22.321199999999997],[114.22619999999998,22.321199999999997],[114.22619999999998,22.322799999999997],[114.22459999999998,22.322799999999997],[114.22459999999998,22.321199999999997]]]}},{"type":"Feature","properties":{"id":"lu-kowloon-kwun-tong-12-07","class":"built_up","vegetationFraction":0.036,"pavedFraction":0.872,"waterFraction":0.011,"simulated":true},"geometry":{"type":"Polygon","coordinates":[[[114.22619999999998,22.321199999999997],[114.22779999999997,22.321199999999997],[114.22779999999997,22.322799999999997],[114.22619999999998,22.322799999999997],[114.22619999999998,22.321199999999997]]]}},{"type":"Feature","properties":{"id":"lu-kowloon-kwun-tong-12-08","class":"built_up","vegetationFraction":0.02,"pavedFraction":0.95,"waterFraction":0.05,"simulated":true},"geometry":{"type":"Polygon","coordinates":[[[114.22779999999997,22.321199999999997],[114.22939999999997,22.321199999999997],[114.22939999999997,22.322799999999997],[114.22779999999997,22.322799999999997],[114.22779999999997,22.321199999999997]]]}},{"type":"Feature","properties":{"id":"lu-kowloon-kwun-tong-12-09","class":"built_up","vegetationFraction":0.049,"pavedFraction":0.95,"waterFraction":0.034,"simulated":true},"geometry":{"type":"Polygon","coordinates":[[[114.22939999999997,22.321199999999997],[114.23099999999997,22.321199999999997],[114.23099999999997,22.322799999999997],[114.22939999999997,22.322799999999997],[114.22939999999997,22.321199999999997]]]}},{"type":"Feature","properties":{"id":"lu-kowloon-kwun-tong-12-10","class":"built_up","vegetationFraction":0.053,"pavedFraction":0.95,"waterFraction":0.013,"simulated":true},"geometry":{"type":"Polygon","coordinates":[[[114.23099999999997,22.321199999999997],[114.23259999999996,22.321199999999997],[114.23259999999996,22.322799999999997],[114.23099999999997,22.322799999999997],[114.23099999999997,22.321199999999997]]]}},{"type":"Feature","properties":{"id":"lu-kowloon-kwun-tong-12-11","class":"built_up","vegetationFraction":0.046,"pavedFraction":0.95,"waterFraction":0.055,"simulated":true},"geometry":{"type":"Polygon","coordinates":[[[114.23259999999996,22.321199999999997],[114.23419999999996,22.321199999999997],[114.23419999999996,22.322799999999997],[114.23259999999996,22.322799999999997],[114.23259999999996,22.321199999999997]]]}},{"type":"Feature","properties":{"id":"lu-kowloon-kwun-tong-12-12","class":"built_up","vegetationFraction":0.049,"pavedFraction":0.95,"waterFraction":0.05,"simulated":true},"geometry":{"type":"Polygon","coordinates":[[[114.23419999999996,22.321199999999997],[114.23579999999995,22.321199999999997],[114.23579999999995,22.322799999999997],[114.23419999999996,22.322799999999997],[114.23419999999996,22.321199999999997]]]}},{"type":"Feature","properties":{"id":"lu-kowloon-kwun-tong-12-13","class":"built_up","vegetationFraction":0.03,"pavedFraction":0.95,"waterFraction":0.052,"simulated":true},"geometry":{"type":"Polygon","coordinates":[[[114.23579999999995,22.321199999999997],[114.23739999999995,22.321199999999997],[114.23739999999995,22.322799999999997],[114.23579999999995,22.322799999999997],[114.23579999999995,22.321199999999997]]]}},{"type":"Feature","properties":{"id":"lu-kowloon-kwun-tong-12-14","class":"built_up","vegetationFraction":0.048,"pavedFraction":0.95,"waterFraction":0.045,"simulated":true},"geometry":{"type":"Polygon","coordinates":[[[114.23739999999995,22.321199999999997],[114.23899999999995,22.321199999999997],[114.23899999999995,22.322799999999997],[114.23739999999995,22.322799999999997],[114.23739999999995,22.321199999999997]]]}},{"type":"Feature","properties":{"id":"lu-kowloon-kwun-tong-12-15","class":"built_up","vegetationFraction":0.028,"pavedFraction":0.921,"waterFraction":0.023,"simulated":true},"geometry":{"type":"Polygon","coordinates":[[[114.23899999999995,22.321199999999997],[114.24059999999994,22.321199999999997],[114.24059999999994,22.322799999999997],[114.23899999999995,22.322799999999997],[114.23899999999995,22.321199999999997]]]}},{"type":"Feature","properties":{"id":"lu-kowloon-kwun-tong-13-00","class":"built_up","vegetationFraction":0.099,"pavedFraction":0.636,"waterFraction":0.052,"simulated":true},"geometry":{"type":"Polygon","coordinates":[[[114.215,22.322799999999997],[114.2166,22.322799999999997],[114.2166,22.324399999999997],[114.215,22.324399999999997],[114.215,22.322799999999997]]]}},{"type":"Feature","properties":{"id":"lu-kowloon-kwun-tong-13-01","class":"built_up","vegetationFraction":0.092,"pavedFraction":0.756,"waterFraction":0.005,"simulated":true},"geometry":{"type":"Polygon","coordinates":[[[114.2166,22.322799999999997],[114.2182,22.322799999999997],[114.2182,22.324399999999997],[114.2166,22.324399999999997],[114.2166,22.322799999999997]]]}},{"type":"Feature","properties":{"id":"lu-kowloon-kwun-tong-13-02","class":"built_up","vegetationFraction":0.076,"pavedFraction":0.791,"waterFraction":0.055,"simulated":true},"geometry":{"type":"Polygon","coordinates":[[[114.2182,22.322799999999997],[114.21979999999999,22.322799999999997],[114.21979999999999,22.324399999999997],[114.2182,22.324399999999997],[114.2182,22.322799999999997]]]}},{"type":"Feature","properties":{"id":"lu-kowloon-kwun-tong-13-03","class":"built_up","vegetationFraction":0.174,"pavedFraction":0.65,"waterFraction":0.014,"simulated":true},"geometry":{"type":"Polygon","coordinates":[[[114.21979999999999,22.322799999999997],[114.22139999999999,22.322799999999997],[114.22139999999999,22.324399999999997],[114.21979999999999,22.324399999999997],[114.21979999999999,22.322799999999997]]]}},{"type":"Feature","properties":{"id":"lu-kowloon-kwun-tong-13-04","class":"built_up","vegetationFraction":0.077,"pavedFraction":0.781,"waterFraction":0.03,"simulated":true},"geometry":{"type":"Polygon","coordinates":[[[114.22139999999999,22.322799999999997],[114.22299999999998,22.322799999999997],[114.22299999999998,22.324399999999997],[114.22139999999999,22.324399999999997],[114.22139999999999,22.322799999999997]]]}},{"type":"Feature","properties":{"id":"lu-kowloon-kwun-tong-13-05","class":"built_up","vegetationFraction":0.177,"pavedFraction":0.797,"waterFraction":0.028,"simulated":true},"geometry":{"type":"Polygon","coordinates":[[[114.22299999999998,22.322799999999997],[114.22459999999998,22.322799999999997],[114.22459999999998,22.324399999999997],[114.22299999999998,22.324399999999997],[114.22299999999998,22.322799999999997]]]}},{"type":"Feature","properties":{"id":"lu-kowloon-kwun-tong-13-06","class":"built_up","vegetationFraction":0.075,"pavedFraction":0.834,"waterFraction":0.012,"simulated":true},"geometry":{"type":"Polygon","coordinates":[[[114.22459999999998,22.322799999999997],[114.22619999999998,22.322799999999997],[114.22619999999998,22.324399999999997],[114.22459999999998,22.324399999999997],[114.22459999999998,22.322799999999997]]]}},{"type":"Feature","properties":{"id":"lu-kowloon-kwun-tong-13-07","class":"built_up","vegetationFraction":0.16,"pavedFraction":0.65,"waterFraction":0.05,"simulated":true},"geometry":{"type":"Polygon","coordinates":[[[114.22619999999998,22.322799999999997],[114.22779999999997,22.322799999999997],[114.22779999999997,22.324399999999997],[114.22619999999998,22.324399999999997],[114.22619999999998,22.322799999999997]]]}},{"type":"Feature","properties":{"id":"lu-kowloon-kwun-tong-13-08","class":"built_up","vegetationFraction":0.172,"pavedFraction":0.629,"waterFraction":0.038,"simulated":true},"geometry":{"type":"Polygon","coordinates":[[[114.22779999999997,22.322799999999997],[114.22939999999997,22.322799999999997],[114.22939999999997,22.324399999999997],[114.22779999999997,22.324399999999997],[114.22779999999997,22.322799999999997]]]}},{"type":"Feature","properties":{"id":"lu-kowloon-kwun-tong-13-09","class":"built_up","vegetationFraction":0.134,"pavedFraction":0.576,"waterFraction":0.051,"simulated":true},"geometry":{"type":"Polygon","coordinates":[[[114.22939999999997,22.322799999999997],[114.23099999999997,22.322799999999997],[114.23099999999997,22.324399999999997],[114.22939999999997,22.324399999999997],[114.22939999999997,22.322799999999997]]]}},{"type":"Feature","properties":{"id":"lu-kowloon-kwun-tong-13-10","class":"built_up","vegetationFraction":0.154,"pavedFraction":0.55,"waterFraction":0.019,"simulated":true},"geometry":{"type":"Polygon","coordinates":[[[114.23099999999997,22.322799999999997],[114.23259999999996,22.322799999999997],[114.23259999999996,22.324399999999997],[114.23099999999997,22.324399999999997],[114.23099999999997,22.322799999999997]]]}},{"type":"Feature","properties":{"id":"lu-kowloon-kwun-tong-13-11","class":"built_up","vegetationFraction":0.13,"pavedFraction":0.717,"waterFraction":0.027,"simulated":true},"geometry":{"type":"Polygon","coordinates":[[[114.23259999999996,22.322799999999997],[114.23419999999996,22.322799999999997],[114.23419999999996,22.324399999999997],[114.23259999999996,22.324399999999997],[114.23259999999996,22.322799999999997]]]}},{"type":"Feature","properties":{"id":"lu-kowloon-kwun-tong-13-12","class":"built_up","vegetationFraction":0.106,"pavedFraction":0.684,"waterFraction":0.028,"simulated":true},"geometry":{"type":"Polygon","coordinates":[[[114.23419999999996,22.322799999999997],[114.23579999999995,22.322799999999997],[114.23579999999995,22.324399999999997],[114.23419999999996,22.324399999999997],[114.23419999999996,22.322799999999997]]]}},{"type":"Feature","properties":{"id":"lu-kowloon-kwun-tong-13-13","class":"built_up","vegetationFraction":0.104,"pavedFraction":0.582,"waterFraction":0.011,"simulated":true},"geometry":{"type":"Polygon","coordinates":[[[114.23579999999995,22.322799999999997],[114.23739999999995,22.322799999999997],[114.23739999999995,22.324399999999997],[114.23579999999995,22.324399999999997],[114.23579999999995,22.322799999999997]]]}},{"type":"Feature","properties":{"id":"lu-kowloon-kwun-tong-13-14","class":"built_up","vegetationFraction":0.178,"pavedFraction":0.572,"waterFraction":0.014,"simulated":true},"geometry":{"type":"Polygon","coordinates":[[[114.23739999999995,22.322799999999997],[114.23899999999995,22.322799999999997],[114.23899999999995,22.324399999999997],[114.23739999999995,22.324399999999997],[114.23739999999995,22.322799999999997]]]}},{"type":"Feature","properties":{"id":"lu-kowloon-kwun-tong-13-15","class":"built_up","vegetationFraction":0.144,"pavedFraction":0.759,"waterFraction":0.04,"simulated":true},"geometry":{"type":"Polygon","coordinates":[[[114.23899999999995,22.322799999999997],[114.24059999999994,22.322799999999997],[114.24059999999994,22.324399999999997],[114.23899999999995,22.324399999999997],[114.23899999999995,22.322799999999997]]]}},{"type":"Feature","properties":{"id":"lu-kowloon-kwun-tong-14-00","class":"built_up","vegetationFraction":0.173,"pavedFraction":0.711,"waterFraction":0.032,"simulated":true},"geometry":{"type":"Polygon","coordinates":[[[114.215,22.324399999999997],[114.2166,22.324399999999997],[114.2166,22.325999999999997],[114.215,22.325999999999997],[114.215,22.324399999999997]]]}},{"type":"Feature","properties":{"id":"lu-kowloon-kwun-tong-14-01","class":"built_up","vegetationFraction":0.097,"pavedFraction":0.577,"waterFraction":0.05,"simulated":true},"geometry":{"type":"Polygon","coordinates":[[[114.2166,22.324399999999997],[114.2182,22.324399999999997],[114.2182,22.325999999999997],[114.2166,22.325999999999997],[114.2166,22.324399999999997]]]}},{"type":"Feature","properties":{"id":"lu-kowloon-kwun-tong-14-02","class":"built_up","vegetationFraction":0.156,"pavedFraction":0.665,"waterFraction":0.02,"simulated":true},"geometry":{"type":"Polygon","coordinates":[[[114.2182,22.324399999999997],[114.21979999999999,22.324399999999997],[114.21979999999999,22.325999999999997],[114.2182,22.325999999999997],[114.2182,22.324399999999997]]]}},{"type":"Feature","properties":{"id":"lu-kowloon-kwun-tong-14-03","class":"built_up","vegetationFraction":0.068,"pavedFraction":0.75,"waterFraction":0.059,"simulated":true},"geometry":{"type":"Polygon","coordinates":[[[114.21979999999999,22.324399999999997],[114.22139999999999,22.324399999999997],[114.22139999999999,22.325999999999997],[114.21979999999999,22.325999999999997],[114.21979999999999,22.324399999999997]]]}},{"type":"Feature","properties":{"id":"lu-kowloon-kwun-tong-14-04","class":"built_up","vegetationFraction":0.096,"pavedFraction":0.842,"waterFraction":0.034,"simulated":true},"geometry":{"type":"Polygon","coordinates":[[[114.22139999999999,22.324399999999997],[114.22299999999998,22.324399999999997],[114.22299999999998,22.325999999999997],[114.22139999999999,22.325999999999997],[114.22139999999999,22.324399999999997]]]}},{"type":"Feature","properties":{"id":"lu-kowloon-kwun-tong-14-05","class":"built_up","vegetationFraction":0.078,"pavedFraction":0.784,"waterFraction":0.007,"simulated":true},"geometry":{"type":"Polygon","coordinates":[[[114.22299999999998,22.324399999999997],[114.22459999999998,22.324399999999997],[114.22459999999998,22.325999999999997],[114.22299999999998,22.325999999999997],[114.22299999999998,22.324399999999997]]]}},{"type":"Feature","properties":{"id":"lu-kowloon-kwun-tong-14-06","class":"built_up","vegetationFraction":0.088,"pavedFraction":0.652,"waterFraction":0.034,"simulated":true},"geometry":{"type":"Polygon","coordinates":[[[114.22459999999998,22.324399999999997],[114.22619999999998,22.324399999999997],[114.22619999999998,22.325999999999997],[114.22459999999998,22.325999999999997],[114.22459999999998,22.324399999999997]]]}},{"type":"Feature","properties":{"id":"lu-kowloon-kwun-tong-14-07","class":"built_up","vegetationFraction":0.171,"pavedFraction":0.826,"waterFraction":0.019,"simulated":true},"geometry":{"type":"Polygon","coordinates":[[[114.22619999999998,22.324399999999997],[114.22779999999997,22.324399999999997],[114.22779999999997,22.325999999999997],[114.22619999999998,22.325999999999997],[114.22619999999998,22.324399999999997]]]}},{"type":"Feature","properties":{"id":"lu-kowloon-kwun-tong-14-08","class":"built_up","vegetationFraction":0.07,"pavedFraction":0.672,"waterFraction":0.056,"simulated":true},"geometry":{"type":"Polygon","coordinates":[[[114.22779999999997,22.324399999999997],[114.22939999999997,22.324399999999997],[114.22939999999997,22.325999999999997],[114.22779999999997,22.325999999999997],[114.22779999999997,22.324399999999997]]]}},{"type":"Feature","properties":{"id":"lu-kowloon-kwun-tong-14-09","class":"built_up","vegetationFraction":0.067,"pavedFraction":0.605,"waterFraction":0.019,"simulated":true},"geometry":{"type":"Polygon","coordinates":[[[114.22939999999997,22.324399999999997],[114.23099999999997,22.324399999999997],[114.23099999999997,22.325999999999997],[114.22939999999997,22.325999999999997],[114.22939999999997,22.324399999999997]]]}},{"type":"Feature","properties":{"id":"lu-kowloon-kwun-tong-14-10","class":"built_up","vegetationFraction":0.158,"pavedFraction":0.644,"waterFraction":0.054,"simulated":true},"geometry":{"type":"Polygon","coordinates":[[[114.23099999999997,22.324399999999997],[114.23259999999996,22.324399999999997],[114.23259999999996,22.325999999999997],[114.23099999999997,22.325999999999997],[114.23099999999997,22.324399999999997]]]}},{"type":"Feature","properties":{"id":"lu-kowloon-kwun-tong-14-11","class":"built_up","vegetationFraction":0.124,"pavedFraction":0.723,"waterFraction":0.041,"simulated":true},"geometry":{"type":"Polygon","coordinates":[[[114.23259999999996,22.324399999999997],[114.23419999999996,22.324399999999997],[114.23419999999996,22.325999999999997],[114.23259999999996,22.325999999999997],[114.23259999999996,22.324399999999997]]]}},{"type":"Feature","properties":{"id":"lu-kowloon-kwun-tong-14-12","class":"built_up","vegetationFraction":0.126,"pavedFraction":0.59,"waterFraction":0.007,"simulated":true},"geometry":{"type":"Polygon","coordinates":[[[114.23419999999996,22.324399999999997],[114.23579999999995,22.324399999999997],[114.23579999999995,22.325999999999997],[114.23419999999996,22.325999999999997],[114.23419999999996,22.324399999999997]]]}},{"type":"Feature","properties":{"id":"lu-kowloon-kwun-tong-14-13","class":"built_up","vegetationFraction":0.139,"pavedFraction":0.674,"waterFraction":0.036,"simulated":true},"geometry":{"type":"Polygon","coordinates":[[[114.23579999999995,22.324399999999997],[114.23739999999995,22.324399999999997],[114.23739999999995,22.325999999999997],[114.23579999999995,22.325999999999997],[114.23579999999995,22.324399999999997]]]}},{"type":"Feature","properties":{"id":"lu-kowloon-kwun-tong-14-14","class":"built_up","vegetationFraction":0.086,"pavedFraction":0.674,"waterFraction":0.041,"simulated":true},"geometry":{"type":"Polygon","coordinates":[[[114.23739999999995,22.324399999999997],[114.23899999999995,22.324399999999997],[114.23899999999995,22.325999999999997],[114.23739999999995,22.325999999999997],[114.23739999999995,22.324399999999997]]]}},{"type":"Feature","properties":{"id":"lu-kowloon-kwun-tong-14-15","class":"built_up","vegetationFraction":0.091,"pavedFraction":0.695,"waterFraction":0.048,"simulated":true},"geometry":{"type":"Polygon","coordinates":[[[114.23899999999995,22.324399999999997],[114.24059999999994,22.324399999999997],[114.24059999999994,22.325999999999997],[114.23899999999995,22.325999999999997],[114.23899999999995,22.324399999999997]]]}},{"type":"Feature","properties":{"id":"lu-kowloon-kwun-tong-15-00","class":"built_up","vegetationFraction":0.107,"pavedFraction":0.551,"waterFraction":0.053,"simulated":true},"geometry":{"type":"Polygon","coordinates":[[[114.215,22.325999999999997],[114.2166,22.325999999999997],[114.2166,22.327599999999997],[114.215,22.327599999999997],[114.215,22.325999999999997]]]}},{"type":"Feature","properties":{"id":"lu-kowloon-kwun-tong-15-01","class":"built_up","vegetationFraction":0.103,"pavedFraction":0.599,"waterFraction":0.052,"simulated":true},"geometry":{"type":"Polygon","coordinates":[[[114.2166,22.325999999999997],[114.2182,22.325999999999997],[114.2182,22.327599999999997],[114.2166,22.327599999999997],[114.2166,22.325999999999997]]]}},{"type":"Feature","properties":{"id":"lu-kowloon-kwun-tong-15-02","class":"built_up","vegetationFraction":0.108,"pavedFraction":0.638,"waterFraction":0.04,"simulated":true},"geometry":{"type":"Polygon","coordinates":[[[114.2182,22.325999999999997],[114.21979999999999,22.325999999999997],[114.21979999999999,22.327599999999997],[114.2182,22.327599999999997],[114.2182,22.325999999999997]]]}},{"type":"Feature","properties":{"id":"lu-kowloon-kwun-tong-15-03","class":"built_up","vegetationFraction":0.124,"pavedFraction":0.715,"waterFraction":0.043,"simulated":true},"geometry":{"type":"Polygon","coordinates":[[[114.21979999999999,22.325999999999997],[114.22139999999999,22.325999999999997],[114.22139999999999,22.327599999999997],[114.21979999999999,22.327599999999997],[114.21979999999999,22.325999999999997]]]}},{"type":"Feature","properties":{"id":"lu-kowloon-kwun-tong-15-04","class":"built_up","vegetationFraction":0.107,"pavedFraction":0.561,"waterFraction":0.027,"simulated":true},"geometry":{"type":"Polygon","coordinates":[[[114.22139999999999,22.325999999999997],[114.22299999999998,22.325999999999997],[114.22299999999998,22.327599999999997],[114.22139999999999,22.327599999999997],[114.22139999999999,22.325999999999997]]]}},{"type":"Feature","properties":{"id":"lu-kowloon-kwun-tong-15-05","class":"built_up","vegetationFraction":0.143,"pavedFraction":0.756,"waterFraction":0.011,"simulated":true},"geometry":{"type":"Polygon","coordinates":[[[114.22299999999998,22.325999999999997],[114.22459999999998,22.325999999999997],[114.22459999999998,22.327599999999997],[114.22299999999998,22.327599999999997],[114.22299999999998,22.325999999999997]]]}},{"type":"Feature","properties":{"id":"lu-kowloon-kwun-tong-15-06","class":"built_up","vegetationFraction":0.079,"pavedFraction":0.683,"waterFraction":0.016,"simulated":true},"geometry":{"type":"Polygon","coordinates":[[[114.22459999999998,22.325999999999997],[114.22619999999998,22.325999999999997],[114.22619999999998,22.327599999999997],[114.22459999999998,22.327599999999997],[114.22459999999998,22.325999999999997]]]}},{"type":"Feature","properties":{"id":"lu-kowloon-kwun-tong-15-07","class":"built_up","vegetationFraction":0.13,"pavedFraction":0.676,"waterFraction":0.057,"simulated":true},"geometry":{"type":"Polygon","coordinates":[[[114.22619999999998,22.325999999999997],[114.22779999999997,22.325999999999997],[114.22779999999997,22.327599999999997],[114.22619999999998,22.327599999999997],[114.22619999999998,22.325999999999997]]]}},{"type":"Feature","properties":{"id":"lu-kowloon-kwun-tong-15-08","class":"built_up","vegetationFraction":0.101,"pavedFraction":0.772,"waterFraction":0.051,"simulated":true},"geometry":{"type":"Polygon","coordinates":[[[114.22779999999997,22.325999999999997],[114.22939999999997,22.325999999999997],[114.22939999999997,22.327599999999997],[114.22779999999997,22.327599999999997],[114.22779999999997,22.325999999999997]]]}},{"type":"Feature","properties":{"id":"lu-kowloon-kwun-tong-15-09","class":"built_up","vegetationFraction":0.148,"pavedFraction":0.719,"waterFraction":0.057,"simulated":true},"geometry":{"type":"Polygon","coordinates":[[[114.22939999999997,22.325999999999997],[114.23099999999997,22.325999999999997],[114.23099999999997,22.327599999999997],[114.22939999999997,22.327599999999997],[114.22939999999997,22.325999999999997]]]}},{"type":"Feature","properties":{"id":"lu-kowloon-kwun-tong-15-10","class":"built_up","vegetationFraction":0.115,"pavedFraction":0.583,"waterFraction":0.028,"simulated":true},"geometry":{"type":"Polygon","coordinates":[[[114.23099999999997,22.325999999999997],[114.23259999999996,22.325999999999997],[114.23259999999996,22.327599999999997],[114.23099999999997,22.327599999999997],[114.23099999999997,22.325999999999997]]]}},{"type":"Feature","properties":{"id":"lu-kowloon-kwun-tong-15-11","class":"built_up","vegetationFraction":0.08,"pavedFraction":0.581,"waterFraction":0.02,"simulated":true},"geometry":{"type":"Polygon","coordinates":[[[114.23259999999996,22.325999999999997],[114.23419999999996,22.325999999999997],[114.23419999999996,22.327599999999997],[114.23259999999996,22.327599999999997],[114.23259999999996,22.325999999999997]]]}},{"type":"Feature","properties":{"id":"lu-kowloon-kwun-tong-15-12","class":"built_up","vegetationFraction":0.068,"pavedFraction":0.571,"waterFraction":0.038,"simulated":true},"geometry":{"type":"Polygon","coordinates":[[[114.23419999999996,22.325999999999997],[114.23579999999995,22.325999999999997],[114.23579999999995,22.327599999999997],[114.23419999999996,22.327599999999997],[114.23419999999996,22.325999999999997]]]}},{"type":"Feature","properties":{"id":"lu-kowloon-kwun-tong-15-13","class":"built_up","vegetationFraction":0.144,"pavedFraction":0.808,"waterFraction":0.016,"simulated":true},"geometry":{"type":"Polygon","coordinates":[[[114.23579999999995,22.325999999999997],[114.23739999999995,22.325999999999997],[114.23739999999995,22.327599999999997],[114.23579999999995,22.327599999999997],[114.23579999999995,22.325999999999997]]]}},{"type":"Feature","properties":{"id":"lu-kowloon-kwun-tong-15-14","class":"built_up","vegetationFraction":0.157,"pavedFraction":0.583,"waterFraction":0.051,"simulated":true},"geometry":{"type":"Polygon","coordinates":[[[114.23739999999995,22.325999999999997],[114.23899999999995,22.325999999999997],[114.23899999999995,22.327599999999997],[114.23739999999995,22.327599999999997],[114.23739999999995,22.325999999999997]]]}},{"type":"Feature","properties":{"id":"lu-kowloon-kwun-tong-15-15","class":"built_up","vegetationFraction":0.169,"pavedFraction":0.729,"waterFraction":0.047,"simulated":true},"geometry":{"type":"Polygon","coordinates":[[[114.23899999999995,22.325999999999997],[114.24059999999994,22.325999999999997],[114.24059999999994,22.327599999999997],[114.23899999999995,22.327599999999997],[114.23899999999995,22.325999999999997]]]}}]}