{"type":"FeatureCollection","features":[{"type":"Feature","properties":{"id":"nt-islands:n0000->n0001:avenue","kind":"avenue","lengthM":2401.3,"gradientPct":0.0},"geometry":{"type":"LineString","coordinates":[[113.915,22.255],[113.93833333333333,22.255]]}},{"type":"Feature","properties":{"id":"nt-islands:n0001->n0002:avenue","kind":"avenue","lengthM":2401.3,"gradientPct":0.0},"geometry":{"type":"LineString","coordinates":[[113.93833333333333,22.255],[113.96166666666667,22.255]]}},{"type":"Feature","properties":{"id":"nt-islands:n0002->n0003:avenue","kind":"avenue","lengthM":2401.3,"gradientPct":0.0},"geometry":{"type":"LineString","coordinates":[[113.96166666666667,22.255],[113.98500000000001,22.255]]}},{"type":"Feature","properties":{"id":"nt-islands:n0003->n0004:avenue","kind":"avenue","lengthM":2401.3,"gradientPct":0.0},"geometry":{"type":"LineString","coordinates":[[113.98500000000001,22.255],[114.00833333333334,22.255]]}},{"type":"Feature","properties":{"id":"nt-islands:n0004->n0005:avenue","kind":"avenue","lengthM":2401.3,"gradientPct":0.0},"geometry":{"type":"LineString","coordinates":[[114.00833333333334,22.255],[114.03166666666667,22.255]]}},{"type":"Feature","properties":{"id":"nt-islands:n0005->n0006:avenue","kind":"avenue","lengthM":2401.3,"gradientPct":0.0},"geometry":{"type":"LineString","coordinates":[[114.03166666666667,22.255],[114.055,22.255]]}},{"type":"Feature","properties":{"id":"nt-islands:n0007->n0008:street","kind":"street","lengthM":2401.1,"gradientPct":0.0},"geometry":{"type":"LineString","coordinates":[[113.915,22.267],[113.93833333333333,22.267]]}},{"type":"Feature","properties":{"id":"nt-islands:n0008->n0009:street","kind":"street","lengthM":2401.1,"gradientPct":0.0},"geometry":{"type":"LineString","coordinates":[[113.93833333333333,22.267],[113.96166666666667,22.267]]}},{"type":"Feature","properties":{"id":"nt-islands:n0009->n0010:street","kind":"street","lengthM":2401.1,"gradientPct":0.0},"geometry":{"type":"LineString","coordinates":[[113.96166666666667,22.267],[113.98500000000001,22.267]]}},{"type":"Feature","properties":{"id":"nt-islands:n0010->n0011:street","kind":"street","lengthM":2401.1,"gradientPct":0.0},"geometry":{"type":"LineString","coordinates":[[113.98500000000001,22.267],[114.00833333333334,22.267]]}},{"type":"Feature","properties":{"id":"nt-islands:n0011->n0012:street","kind":"street","lengthM":2401.1,"gradientPct":0.0},"geometry":{"type":"LineString","coordinates":[[114.00833333333334,22.267],[114.03166666666667,22.267]]}},{"type":"Feature","properties":{"id":"nt-islands:n0012->n0013:street","kind":"street","lengthM":2401.1,"gradientPct":0.0},"geometry":{"type":"LineString","coordinates":[[114.03166666666667,22.267],[114.055,22.267]]}},{"type":"Feature","properties":{"id":"nt-islands:n0014->n0015:street","kind":"street","lengthM":2400.9,"gradientPct":0.0},"geometry":{"type":"LineString","coordinates":[[113.915,22.279],[113.93833333333333,22.279]]}},{"type":"Feature","properties":{"id":"nt-islands:n0015->n0016:street","kind":"street","lengthM":2400.9,"gradientPct":0.0},"geometry":{"type":"LineString","coordinates":[[113.93833333333333,22.279],[113.96166666666667,22.279]]}},{"type":"Feature","properties":{"id":"nt-islands:n0016->n0017:street","kind":"street","lengthM":2400.9,"gradientPct":0.0},"geometry":{"type":"LineString","coordinates":[[113.96166666666667,22.279],[113.98500000000001,22.279]]}},{"type":"Feature","properties":{"id":"nt-islands:n0017->n0018:street","kind":"street","lengthM":2400.9,"gradientPct":0.0},"geometry":{"type":"LineString","coordinates":[[113.98500000000001,22.279],[114.00833333333334,22.279]]}},{"type":"Feature","properties":{"id":"nt-islands:n0018->n0019:street","kind":"street","lengthM":2400.9,"gradientPct":0.0},"geometry":{"type":"LineString","coordinates":[[114.00833333333334,22.279],[114.03166666666667,22.279]]}},{"type":"Feature","properties":{"id":"nt-islands:n0019->n0020:street","kind":"street","lengthM":2400.9,"gradientPct":0.0},"geometry":{"type":"LineString","coordinates":[[114.03166666666667,22.279],[114.055,22.279]]}},{"type":"Feature","properties":{"id":"nt-islands:n0021->n0022:street","kind":"street","lengthM":2400.7,"gradientPct":0.0},"geometry":{"type":"LineString","coordinates":[[113.915,22.291],[113.93833333333333,22.291]]}},{"type":"Feature","properties":{"id":"nt-islands:n0022->n0023:street","kind":"street","lengthM":2400.7,"gradientPct":0.0},"geometry":{"type":"LineString","coordinates":[[113.93833333333333,22.291],[113.96166666666667,22.291]]}},{"type":"Feature","properties":{"id":"nt-islands:n0023->n0024:street","kind":"street","lengthM":2400.7,"gradientPct":0.0},"geometry":{"type":"LineString","coordinates":[[113.96166666666667,22.291],[113.98500000000001,22.291]]}},{"type":"Feature","properties":{"id":"nt-islands:n0024->n0025:street","kind":"street","lengthM":2400.7,"gradientPct":0.0},"geometry":{"type":"LineString","coordinates":[[113.98500000000001,22.291],[114.00833333333334,22.291]]}},{"type":"Feature","properties":{"id":"nt-islands:n0025->n0026:street","kind":"street","lengthM":2400.7,"gradientPct":0.0},"geometry":{"type":"LineString","coordinates":[[114.00833333333334,22.291],[114.03166666666667,22.291]]}},{"type":"Feature","properties":{"id":"nt-islands:n0026->n0027:street","kind":"street","lengthM":2400.7,"gradientPct":0.0},"geometry":{"type":"LineString","coordinates":[[114.03166666666667,22.291],[114.055,22.291]]}},{"type":"Feature","properties":{"id":"nt-islands:n0028->n0029:street","kind":"street","lengthM":2400.4,"gradientPct":0.0},"geometry":{"type":"LineString","coordinates":[[113.915,22.303],[113.93833333333333,22.303]]}},{"type":"Feature","properties":{"id":"nt-islands:n0029->n0030:street","kind":"street","lengthM":2400.4,"gradientPct":0.0},"geometry":{"type":"LineString","coordinates":[[113.93833333333333,22.303],[113.96166666666667,22.303]]}},{"type":"Feature","properties":{"id":"nt-islands:n0030->n0031:street","kind":"street","lengthM":2400.4,"gradientPct":0.0},"geometry":{"type":"LineString","coordinates":[[113.96166666666667,22.303],[113.98500000000001,22.303]]}},{"type":"Feature","properties":{"id":"nt-islands:n0031->n0032:street","kind":"street","lengthM":2400.4,"gradientPct":0.0},"geometry":{"type":"LineString","coordinates":[[113.98500000000001,22.303],[114.00833333333334,22.303]]}},{"type":"Feature","properties":{"id":"nt-islands:n0032->n0033:street","kind":"street","lengthM":2400.4,"gradientPct":0.0},"geometry":{"type":"LineString","coordinates":[[114.00833333333334,22.303],[114.03166666666667,22.303]]}},{"type":"Feature","properties":{"id":"nt-islands:n0033->n0034:street","kind":"street","lengthM":2400.4,"gradientPct":0.0},"geometry":{"type":"LineString","coordinates":[[114.03166666666667,22.303],[114.055,22.303]]}},{"type":"Feature","properties":{"id":"nt-islands:n0035->n0036:avenue","kind":"avenue","lengthM":2400.2,"gradientPct":0.0},"geometry":{"type":"LineString","coordinates":[[113.915,22.315],[113.93833333333333,22.315]]}},{"type":"Feature","properties":{"id":"nt-islands:n0036->n0037:avenue","kind":"avenue","lengthM":2400.2,"gradientPct":0.0},"geometry":{"type":"LineString","coordinates":[[113.93833333333333,22.315],[113.96166666666667,22.315]]}},{"type":"Feature","properties":{"id":"nt-islands:n0037->n0038:avenue","kind":"avenue","lengthM":2400.2,"gradientPct":0.0},"geometry":{"type":"LineString","coordinates":[[113.96166666666667,22.315],[113.98500000000001,22.315]]}},{"type":"Feature","properties":{"id":"nt-islands:n0038->n0039:avenue","kind":"avenue","lengthM":2400.2,"gradientPct":0.0},"geometry":{"type":"LineString","coordinates":[[113.98500000000001,22.315],[114.00833333333334,22.315]]}},{"type":"Feature","properties":{"id":"nt-islands:n0039->n0040:avenue","kind":"avenue","lengthM":2400.2,"gradientPct":0.0},"geometry":{"type":"LineString","coordinates":[[114.00833333333334,22.315],[114.03166666666667,22.315]]}},{"type":"Feature","properties":{"id":"nt-islands:n0040->n0041:avenue","kind":"avenue","lengthM":2400.2,"gradientPct":0.0},"geometry":{"type":"LineString","coordinates":[[114.03166666666667,22.315],[114.055,22.315]]}},{"type":"Feature","properties":{"id":"nt-islands:n0000->n0007:avenue","kind":"avenue","lengthM":1334.3,"gradientPct":0.0},"geometry":{"type":"LineString","coordinates":[[113.915,22.255],[113.915,22.267]]}},{"type":"Feature","properties":{"id":"nt-islands:n0007->n0014:avenue","kind":"avenue","lengthM":1334.3,"gradientPct":0.0},"geometry":{"type":"LineString","coordinates":[[113.915,22.267],[113.915,22.279]]}},{"type":"Feature","properties":{"id":"nt-islands:n0014->n0021:avenue","kind":"avenue","lengthM":1334.3,"gradientPct":0.0},"geometry":{"type":"LineString","coordinates":[[113.915,22.279],[113.915,22.291]]}},{"type":"Feature","properties":{"id":"nt-islands:n0021->n0028:avenue","kind":"avenue","lengthM":1334.3,"gradientPct":0.0},"geometry":{"type":"LineString","coordinates":[[113.915,22.291],[113.915,22.303]]}},{"type":"Feature","properties":{"id":"nt-islands:n0028->n0035:avenue","kind":"avenue","lengthM":1334.3,"gradientPct":0.0},"geometry":{"type":"LineString","coordinates":[[113.915,22.303],[113.915,22.315]]}},{"type":"Feature","properties":{"id":"nt-islands:n0001->n0008:street","kind":"street","lengthM":1334.3,"gradientPct":0.0},"geometry":{"type":"LineString","coordinates":[[113.93833333333333,22.255],[113.93833333333333,22.267]]}},{"type":"Feature","properties":{"id":"nt-islands:n0008->n0015:street","kind":"street","lengthM":1334.3,"gradientPct":0.0},"geometry":{"type":"LineString","coordinates":[[113.93833333333333,22.267],[113.93833333333333,22.279]]}},{"type":"Feature","properties":{"id":"nt-islands:n0015->n0022:street","kind":"street","lengthM":1334.3,"gradientPct":0.0},"geometry":{"type":"LineString","coordinates":[[113.93833333333333,22.279],[113.93833333333333,22.291]]}},{"type":"Feature","properties":{"id":"nt-islands:n0022->n0029:street","kind":"street","lengthM":1334.3,"gradientPct":0.0},"geometry":{"type":"LineString","coordinates":[[113.93833333333333,22.291],[113.93833333333333,22.303]]}},{"type":"Feature","properties":{"id":"nt-islands:n0029->n0036:street","kind":"street","lengthM":1334.3,"gradientPct":0.0},"geometry":{"type":"LineString","coordinates":[[113.93833333333333,22.303],[113.93833333333333,22.315]]}},{"type":"Feature","properties":{"id":"nt-islands:n0002->n0009:street","kind":"street","lengthM":1334.3,"gradientPct":0.0},"geometry":{"type":"LineString","coordinates":[[113.96166666666667,22.255],[113.96166666666667,22.267]]}},{"type":"Feature","properties":{"id":"nt-islands:n0009->n0016:street","kind":"street","lengthM":1334.3,"gradientPct":0.0},"geometry":{"type":"LineString","coordinates":[[113.96166666666667,22.267],[113.96166666666667,22.279]]}},{"type":"Feature","properties":{"id":"nt-islands:n0016->n0023:street","kind":"street","lengthM":1334.3,"gradientPct":0.0},"geometry":{"type":"LineString","coordinates":[[113.96166666666667,22.279],[113.96166666666667,22.291]]}},{"type":"Feature","properties":{"id":"nt-islands:n0023->n0030:street","kind":"street","lengthM":1334.3,"gradientPct":0.0},"geometry":{"type":"LineString","coordinates":[[113.96166666666667,22.291],[113.96166666666667,22.303]]}},{"type":"Feature","properties":{"id":"nt-islands:n0030->n0037:street","kind":"street","lengthM":1334.3,"gradientPct":0.0},"geometry":{"type":"LineString","coordinates":[[113.96166666666667,22.303],[113.96166666666667,22.315]]}},{"type":"Feature","properties":{"id":"nt-islands:n0003->n0010:street","kind":"street","lengthM":1334.3,"gradientPct":0.0},"geometry":{"type":"LineString","coordinates":[[113.98500000000001,22.255],[113.98500000000001,22.267]]}},{"type":"Feature","properties":{"id":"nt-islands:n0010->n0017:street","kind":"street","lengthM":1334.3,"gradientPct":0.0},"geometry":{"type":"LineString","coordinates":[[113.98500000000001,22.267],[113.98500000000001,22.279]]}},{"type":"Feature","properties":{"id":"nt-islands:n0017->n0024:street","kind":"street","lengthM":1334.3,"gradientPct":0.0},"geometry":{"type":"LineString","coordinates":[[113.98500000000001,22.279],[113.98500000000001,22.291]]}},{"type":"Feature","properties":{"id":"nt-islands:n0024->n0031:street","kind":"street","lengthM":1334.3,"gradientPct":0.0},"geometry":{"type":"LineString","coordinates":[[113.98500000000001,22.291],[113.98500000000001,22.303]]}},{"type":"Feature","properties":{"id":"nt-islands:n0031->n0038:street","kind":"street","lengthM":1334.3,"gradientPct":0.0},"geometry":{"type":"LineString","coordinates":[[113.98500000000001,22.303],[113.98500000000001,22.315]]}},{"type":"Feature","properties":{"id":"nt-islands:n0004->n0011:street","kind":"street","lengthM":1334.3,"gradientPct":0.0},"geometry":{"type":"LineString","coordinates":[[114.00833333333334,22.255],[114.00833333333334,22.267]]}},{"type":"Feature","properties":{"id":"nt-islands:n0011->n0018:street","kind":"street","lengthM":1334.3,"gradientPct":0.0},"geometry":{"type":"LineString","coordinates":[[114.00833333333334,22.267],[114.00833333333334,22.279]]}},{"type":"Feature","properties":{"id":"nt-islands:n0018->n0025:street","kind":"street","lengthM":1334.3,"gradientPct":0.0},"geometry":{"type":"LineString","coordinates":[[114.00833333333334,22.279],[114.00833333333334,22.291]]}},{"type":"Feature","properties":{"id":"nt-islands:n0025->n0032:street","kind":"street","lengthM":1334.3,"gradientPct":0.0},"geometry":{"type":"LineString","coordinates":[[114.00833333333334,22.291],[114.00833333333334,22.303]]}},{"type":"Feature","properties":{"id":"nt-islands:n0032->n0039:street","kind":"street","lengthM":1334.3,"gradientPct":0.0},"geometry":{"type":"LineString","coordinates":[[114.00833333333334,22.303],[114.00833333333334,22.315]]}},{"type":"Feature","properties":{"id":"nt-islands:n0005->n0012:street","kind":"street","lengthM":1334.3,"gradientPct":0.0},"geometry":{"type":"LineString","coordinates":[[114.03166666666667,22.255],[114.03166666666667,22.267]]}},{"type":"Feature","properties":{"id":"nt-islands:n0012->n0019:street","kind":"street","lengthM":1334.3,"gradientPct":0.0},"geometry":{"type":"LineString","coordinates":[[114.03166666666667,22.267],[114.03166666666667,22.279]]}},{"type":"Feature","properties":{"id":"nt-islands:n0019->n0026:street","kind":"street","lengthM":1334.3,"gradientPct":0.0},"geometry":{"type":"LineString","coordinates":[[114.03166666666667,22.279],[114.03166666666667,22.291]]}},{"type":"Feature","properties":{"id":"nt-islands:n0026->n0033:street","kind":"street","lengthM":1334.3,"gradientPct":0.0},"geometry":{"type":"LineString","coordinates":[[114.03166666666667,22.291],[114.03166666666667,22.303]]}},{"type":"Feature","properties":{"id":"nt-islands:n0033->n0040:street","kind":"street","lengthM":1334.3,"gradientPct":0.0},"geometry":{"type":"LineString","coordinates":[[114.03166666666667,22.303],[114.03166666666667,22.315]]}},{"type":"Feature","properties":{"id":"nt-islands:n0006->n0013:avenue","kind":"avenue","lengthM":1334.3,"gradientPct":0.0},"geometry":{"type":"LineString","coordinates":[[114.055,22.255],[114.055,22.267]]}},{"type":"Feature","properties":{"id":"nt-islands:n0013->n0020:avenue","kind":"avenue","lengthM":1334.3,"gradientPct":0.0},"geometry":{"type":"LineString","coordinates":[[114.055,22.267],[114.055,22.279]]}},{"type":"Feature","properties":{"id":"nt-islands:n0020->n0027:avenue","kind":"avenue","lengthM":1334.3,"gradientPct":0.0},"geometry":{"type":"LineString","coordinates":[[114.055,22.279],[114.055,22.291]]}},{"type":"Feature","properties":{"id":"nt-islands:n0027->n0034:avenue","kind":"avenue","lengthM":1334.3,"gradientPct":0.0},"geometry":{"type":"LineString","coordinates":[[114.055,22.291],[114.055,22.303]]}},{"type":"Feature","properties":{"id":"nt-islands:n0034->n0041:avenue","kind":"avenue","lengthM":1334.3,"gradientPct":0.0},"geometry":{"type":"LineString","coordinates":[[114.055,22.303],[114.055,22.315]]}}]}