{"type":"FeatureCollection","features":[{"type":"Feature","properties":{"id":"nt-tai-po:n0000->n0001:avenue","kind":"avenue","lengthM":599.5,"gradientPct":0.0},"geometry":{"type":"LineString","coordinates":[[114.155,22.438],[114.16083333333333,22.438]]}},{"type":"Feature","properties":{"id":"nt-tai-po:n0001->n0002:avenue","kind":"avenue","lengthM":599.5,"gradientPct":0.0},"geometry":{"type":"LineString","coordinates":[[114.16083333333333,22.438],[114.16666666666667,22.438]]}},{"type":"Feature","properties":{"id":"nt-tai-po:n0002->n0003:avenue","kind":"avenue","lengthM":599.5,"gradientPct":0.0},"geometry":{"type":"LineString","coordinates":[[114.16666666666667,22.438],[114.1725,22.438]]}},{"type":"Feature","properties":{"id":"nt-tai-po:n0003->n0004:avenue","kind":"avenue","lengthM":599.5,"gradientPct":0.0},"geometry":{"type":"LineString","coordinates":[[114.1725,22.438],[114.17833333333333,22.438]]}},{"type":"Feature","properties":{"id":"nt-tai-po:n0004->n0005:avenue","kind":"avenue","lengthM":599.5,"gradientPct":0.0},"geometry":{"type":"LineString","coordinates":[[114.17833333333333,22.438],[114.18416666666667,22.438]]}},{"type":"Feature","properties":{"id":"nt-tai-po:n0005->n0006:avenue","kind":"avenue","lengthM":599.5,"gradientPct":0.0},"geometry":{"type":"LineString","coordinates":[[114.18416666666667,22.438],[114.19,22.438]]}},{"type":"Feature","properties":{"id":"nt-tai-po:n0007->n0008:street","kind":"street","lengthM":599.5,"gradientPct":0.0},"geometry":{"type":"LineString","coordinates":[[114.155,22.4428],[114.16083333333333,22.4428]]}},{"type":"Feature","properties":{"id":"nt-tai-po:n0008->n0009:street","kind":"street","lengthM":599.5,"gradientPct":0.0},"geometry":{"type":"LineString","coordinates":[[114.16083333333333,22.4428],[114.16666666666667,22.4428]]}},{"type":"Feature","properties":{"id":"nt-tai-po:n0009->n0010:street","kind":"street","lengthM":599.5,"gradientPct":0.0},"geometry":{"type":"LineString","coordinates":[[114.16666666666667,22.4428],[114.1725,22.4428]]}},{"type":"Feature","properties":{"id":"nt-tai-po:n0010->n0011:street","kind":"street","lengthM":599.5,"gradientPct":0.0},"geometry":{"type":"LineString","coordinates":[[114.1725,22.4428],[114.17833333333333,22.4428]]}},{"type":"Feature","properties":{"id":"nt-tai-po:n0011->n0012:street","kind":"street","lengthM":599.5,"gradientPct":0.0},"geometry":{"type":"LineString","coordinates":[[114.17833333333333,22.4428],[114.18416666666667,22.4428]]}},{"type":"Feature","properties":{"id":"nt-tai-po:n0012->n0013:street","kind":"street","lengthM":599.5,"gradientPct":0.0},"geometry":{"type":"LineString","coordinates":[[114.18416666666667,22.4428],[114.19,22.4428]]}},{"type":"Feature","properties":{"id":"nt-tai-po:n0014->n0015:street","kind":"street","lengthM":599.5,"gradientPct":0.0},"geometry":{"type":"LineString","coordinates":[[114.155,22.447599999999998],[114.16083333333333,22.447599999999998]]}},{"type":"Feature","properties":{"id":"nt-tai-po:n0015->n0016:street","kind":"street","lengthM":599.5,"gradientPct":0.0},"geometry":{"type":"LineString","coordinates":[[114.16083333333333,22.447599999999998],[114.16666666666667,22.447599999999998]]}},{"type":"Feature","properties":{"id":"nt-tai-po:n0016->n0017:street","kind":"street","lengthM":599.5,"gradientPct":0.0},"geometry":{"type":"LineString","coordinates":[[114.16666666666667,22.447599999999998],[114.1725,22.447599999999998]]}},{"type":"Feature","properties":{"id":"nt-tai-po:n0017->n0018:street","kind":"street","lengthM":599.5,"gradientPct":0.0},"geometry":{"type":"LineString","coordinates":[[114.1725,22.447599999999998],[114.17833333333333,22.447599999999998]]}},{"type":"Feature","properties":{"id":"nt-tai-po:n0018->n0019:street","kind":"street","lengthM":599.5,"gradientPct":0.0},"geometry":{"type":"LineString","coordinates":[[114.17833333333333,22.447599999999998],[114.18416666666667,22.447599999999998]]}},{"type":"Feature","properties":{"id":"nt-tai-po:n0019->n0020:street","kind":"street","lengthM":599.5,"gradientPct":0.0},"geometry":{"type":"LineString","coordinates":[[114.18416666666667,22.447599999999998],[114.19,22.447599999999998]]}},{"type":"Feature","properties":{"id":"nt-tai-po:n0021->n0022:street","kind":"street","lengthM":599.5,"gradientPct":0.0},"geometry":{"type":"LineString","coordinates":[[114.155,22.4524],[114.16083333333333,22.4524]]}},{"type":"Feature","properties":{"id":"nt-tai-po:n0022->n0023:street","kind":"street","lengthM":599.5,"gradientPct":0.0},"geometry":{"type":"LineString","coordinates":[[114.16083333333333,22.4524],[114.16666666666667,22.4524]]}},{"type":"Feature","properties":{"id":"nt-tai-po:n0023->n0024:street","kind":"street","lengthM":599.5,"gradientPct":0.0},"geometry":{"type":"LineString","coordinates":[[114.16666666666667,22.4524],[114.1725,22.4524]]}},{"type":"Feature","properties":{"id":"nt-tai-po:n0024->n0025:street","kind":"street","lengthM":599.5,"gradientPct":0.0},"geometry":{"type":"LineString","coordinates":[[114.1725,22.4524],[114.17833333333333,22.4524]]}},{"type":"Feature","properties":{"id":"nt-tai-po:n0025->n0026:street","kind":"street","lengthM":599.5,"gradientPct":0.0},"geometry":{"type":"LineString","coordinates":[[114.17833333333333,22.4524],[114.18416666666667,22.4524]]}},{"type":"Feature","properties":{"id":"nt-tai-po:n0026->n0027:street","kind":"street","lengthM":599.5,"gradientPct":0.0},"geometry":{"type":"LineString","coordinates":[[114.18416666666667,22.4524],[114.19,22.4524]]}},{"type":"Feature","properties":{"id":"nt-tai-po:n0028->n0029:street","kind":"street","lengthM":599.4,"gradientPct":0.0},"geometry":{"type":"LineString","coordinates":[[114.155,22.4572],[114.16083333333333,22.4572]]}},{"type":"Feature","properties":{"id":"nt-tai-po:n0029->n0030:street","kind":"street","lengthM":599.4,"gradientPct":0.0},"geometry":{"type":"LineString","coordinates":[[114.16083333333333,22.4572],[114.16666666666667,22.4572]]}},{"type":"Feature","properties":{"id":"nt-tai-po:n0030->n0031:street","kind":"street","lengthM":599.4,"gradientPct":0.0},"geometry":{"type":"LineString","coordinates":[[114.16666666666667,22.4572],[114.1725,22.4572]]}},{"type":"Feature","properties":{"id":"nt-tai-po:n0031->n0032:street","kind":"street","lengthM":599.4,"gradientPct":0.0},"geometry":{"type":"LineString","coordinates":[[114.1725,22.4572],[114.17833333333333,22.4572]]}},{"type":"Feature","properties":{"id":"nt-tai-po:n0032->n0033:street","kind":"street","lengthM":599.4,"gradientPct":0.0},"geometry":{"type":"LineString","coordinates":[[114.17833333333333,22.4572],[114.18416666666667,22.4572]]}},{"type":"Feature","properties":{"id":"nt-tai-po:n0033->n0034:street","kind":"street","lengthM":599.4,"gradientPct":0.0},"geometry":{"type":"LineString","coordinates":[[114.18416666666667,22.4572],[114.19,22.4572]]}},{"type":"Feature","properties":{"id":"nt-tai-po:n0035->n0036:avenue","kind":"avenue","lengthM":599.4,"gradientPct":0.0},"geometry":{"type":"LineString","coordinates":[[114.155,22.462],[114.16083333333333,22.462]]}},{"type":"Feature","properties":{"id":"nt-tai-po:n0036->n0037:avenue","kind":"avenue","lengthM":599.4,"gradientPct":0.0},"geometry":{"type":"LineString","coordinates":[[114.16083333333333,22.462],[114.16666666666667,22.462]]}},{"type":"Feature","properties":{"id":"nt-tai-po:n0037->n0038:avenue","kind":"avenue","lengthM":599.4,"gradientPct":0.0},"geometry":{"type":"LineString","coordinates":[[114.16666666666667,22.462],[114.1725,22.462]]}},{"type":"Feature","properties":{"id":"nt-tai-po:n0038->n0039:avenue","kind":"avenue","lengthM":599.4,"gradientPct":0.0},"geometry":{"type":"LineString","coordinates":[[114.1725,22.462],[114.17833333333333,22.462]]}},{"type":"Feature","properties":{"id":"nt-tai-po:n0039->n0040:avenue","kind":"avenue","lengthM":599.4,"gradientPct":0.0},"geometry":{"type":"LineString","coordinates":[[114.17833333333333,22.462],[114.18416666666667,22.462]]}},{"type":"Feature","properties":{"id":"nt-tai-po:n0040->n0041:avenue","kind":"avenue","lengthM":599.4,"gradientPct":0.0},"geometry":{"type":"LineString","coordinates":[[114.18416666666667,22.462],[114.19,22.462]]}},{"type":"Feature","properties":{"id":"nt-tai-po:n0000->n0007:avenue","kind":"avenue","lengthM":533.7,"gradientPct":0.0},"geometry":{"type":"LineString","coordinates":[[114.155,22.438],[114.155,22.4428]]}},{"type":"Feature","properties":{"id":"nt-tai-po:n0007->n0014:avenue","kind":"avenue","lengthM":533.7,"gradientPct":0.0},"geometry":{"type":"LineString","coordinates":[[114.155,22.4428],[114.155,22.447599999999998]]}},{"type":"Feature","properties":{"id":"nt-tai-po:n0014->n0021:avenue","kind":"avenue","lengthM":533.7,"gradientPct":0.0},"geometry":{"type":"LineString","coordinates":[[114.155,22.447599999999998],[114.155,22.4524]]}},{"type":"Feature","properties":{"id":"nt-tai-po:n0021->n0028:avenue","kind":"avenue","lengthM":533.7,"gradientPct":0.0},"geometry":{"type":"LineString","coordinates":[[114.155,22.4524],[114.155,22.4572]]}},{"type":"Feature","properties":{"id":"nt-tai-po:n0028->n0035:avenue","kind":"avenue","lengthM":533.7,"gradientPct":0.0},"geometry":{"type":"LineString","coordinates":[[114.155,22.4572],[114.155,22.462]]}},{"type":"Feature","properties":{"id":"nt-tai-po:n0001->n0008:street","kind":"street","lengthM":533.7,"gradientPct":0.0},"geometry":{"type":"LineString","coordinates":[[114.16083333333333,22.438],[114.16083333333333,22.4428]]}},{"type":"Feature","properties":{"id":"nt-tai-po:n0008->n0015:street","kind":"street","lengthM":533.7,"gradientPct":0.0},"geometry":{"type":"LineString","coordinates":[[114.16083333333333,22.4428],[114.16083333333333,22.447599999999998]]}},{"type":"Feature","properties":{"id":"nt-tai-po:n0015->n0022:street","kind":"street","lengthM":533.7,"gradientPct":0.0},"geometry":{"type":"LineString","coordinates":[[114.16083333333333,22.447599999999998],[114.16083333333333,22.4524]]}},{"type":"Feature","properties":{"id":"nt-tai-po:n0022->n0029:street","kind":"street","lengthM":533.7,"gradientPct":0.0},"geometry":{"type":"LineString","coordinates":[[114.16083333333333,22.4524],[114.16083333333333,22.4572]]}},{"type":"Feature","properties":{"id":"nt-tai-po:n0029->n0036:street","kind":"street","lengthM":533.7,"gradientPct":0.0},"geometry":{"type":"LineString","coordinates":[[114.16083333333333,22.4572],[114.16083333333333,22.462]]}},{"type":"Feature","properties":{"id":"nt-tai-po:n0002->n0009:street","kind":"street","lengthM":533.7,"gradientPct":0.0},"geometry":{"type":"LineString","coordinates":[[114.16666666666667,22.438],[114.16666666666667,22.4428]]}},{"type":"Feature","properties":{"id":"nt-tai-po:n0009->n0016:street","kind":"street","lengthM":533.7,"gradientPct":0.0},"geometry":{"type":"LineString","coordinates":[[114.16666666666667,22.4428],[114.16666666666667,22.447599999999998]]}},{"type":"Feature","properties":{"id":"nt-tai-po:n0016->n0023:street","kind":"street","lengthM":533.7,"gradientPct":0.0},"geometry":{"type":"LineString","coordinates":[[114.16666666666667,22.447599999999998],[114.16666666666667,22.4524]]}},{"type":"Feature","properties":{"id":"nt-tai-po:n0023->n0030:street","kind":"street","lengthM":533.7,"gradientPct":0.0},"geometry":{"type":"LineString","coordinates":[[114.16666666666667,22.4524],[114.16666666666667,22.4572]]}},{"type":"Feature","properties":{"id":"nt-tai-po:n0030->n0037:street","kind":"street","lengthM":533.7,"gradientPct":0.0},"geometry":{"type":"LineString","coordinates":[[114.16666666666667,22.4572],[114.16666666666667,22.462]]}},{"type":"Feature","properties":{"id":"nt-tai-po:n0003->n0010:street","kind":"street","lengthM":533.7,"gradientPct":0.0},"geometry":{"type":"LineString","coordinates":[[114.1725,22.438],[114.1725,22.4428]]}},{"type":"Feature","properties":{"id":"nt-tai-po:n0010->n0017:street","kind":"street","lengthM":533.7,"gradientPct":0.0},"geometry":{"type":"LineString","coordinates":[[114.1725,22.4428],[114.1725,22.447599999999998]]}},{"type":"Feature","properties":{"id":"nt-tai-po:n0017->n0024:street","kind":"street","lengthM":533.7,"gradientPct":0.0},"geometry":{"type":"LineString","coordinates":[[114.1725,22.447599999999998],[114.1725,22.4524]]}},{"type":"Feature","properties":{"id":"nt-tai-po:n0024->n0031:street","kind":"street","lengthM":533.7,"gradientPct":0.0},"geometry":{"type":"LineString","coordinates":[[114.1725,22.4524],[114.1725,22.4572]]}},{"type":"Feature","properties":{"id":"nt-tai-po:n0031->n0038:street","kind":"street","lengthM":533.7,"gradientPct":0.0},"geometry":{"type":"LineString","coordinates":[[114.1725,22.4572],[114.1725,22.462]]}},{"type":"Feature","properties":{"id":"nt-tai-po:n0004->n0011:street","kind":"street","lengthM":533.7,"gradientPct":0.0},"geometry":{"type":"LineString","coordinates":[[114.17833333333333,22.438],[114.17833333333333,22.4428]]}},{"type":"Feature","properties":{"id":"nt-tai-po:n0011->n0018:street","kind":"street","lengthM":533.7,"gradientPct":0.0},"geometry":{"type":"LineString","coordinates":[[114.17833333333333,22.4428],[114.17833333333333,22.447599999999998]]}},{"type":"Feature","properties":{"id":"nt-tai-po:n0018->n0025:street","kind":"street","lengthM":533.7,"gradientPct":0.0},"geometry":{"type":"LineString","coordinates":[[114.17833333333333,22.447599999999998],[114.17833333333333,22.4524]]}},{"type":"Feature","properties":{"id":"nt-tai-po:n0025->n0032:street","kind":"street","lengthM":533.7,"gradientPct":0.0},"geometry":{"type":"LineString","coordinates":[[114.17833333333333,22.4524],[114.17833333333333,22.4572]]}},{"type":"Feature","properties":{"id":"nt-tai-po:n0032->n0039:street","kind":"street","lengthM":533.7,"gradientPct":0.0},"geometry":{"type":"LineString","coordinates":[[114.17833333333333,22.4572],[114.17833333333333,22.462]]}},{"type":"Feature","properties":{"id":"nt-tai-po:n0005->n0012:street","kind":"street","lengthM":533.7,"gradientPct":0.0},"geometry":{"type":"LineString","coordinates":[[114.18416666666667,22.438],[114.18416666666667,22.4428]]}},{"type":"Feature","properties":{"id":"nt-tai-po:n0012->n0019:street","kind":"street","lengthM":533.7,"gradientPct":0.0},"geometry":{"type":"LineString","coordinates":[[114.18416666666667,22.4428],[114.18416666666667,22.447599999999998]]}},{"type":"Feature","properties":{"id":"nt-tai-po:n0019->n0026:street","kind":"street","lengthM":533.7,"gradientPct":0.0},"geometry":{"type":"LineString","coordinates":[[114.18416666666667,22.447599999999998],[114.18416666666667,22.4524]]}},{"type":"Feature","properties":{"id":"nt-tai-po:n0026->n0033:street","kind":"street","lengthM":533.7,"gradientPct":0.0},"geometry":{"type":"LineString","coordinates":[[114.18416666666667,22.4524],[114.18416666666667,22.4572]]}},{"type":"Feature","properties":{"id":"nt-tai-po:n0033->n0040:street","kind":"street","lengthM":533.7,"gradientPct":0.0},"geometry":{"type":"LineString","coordinates":[[114.18416666666667,22.4572],[114.18416666666667,22.462]]}},{"type":"Feature","properties":{"id":"nt-tai-po:n0006->n0013:avenue","kind":"avenue","lengthM":533.7,"gradientPct":0.0},"geometry":{"type":"LineString","coordinates":[[114.19,22.438],[114.19,22.4428]]}},{"type":"Feature","properties":{"id":"nt-tai-po:n0013->n0020:avenue","kind":"avenue","lengthM":533.7,"gradientPct":0.0},"geometry":{"type":"LineString","coordinates":[[114.19,22.4428],[114.19,22.447599999999998]]}},{"type":"Feature","properties":{"id":"nt-tai-po:n0020->n0027:avenue","kind":"avenue","lengthM":533.7,"gradientPct":0.0},"geometry":{"type":"LineString","coordinates":[[114.19,22.447599999999998],[114.19,22.4524]]}},{"type":"Feature","properties":{"id":"nt-tai-po:n0027->n0034:avenue","kind":"avenue","lengthM":533.7,"gradientPct":0.0},"geometry":{"type":"LineString","coordinates":[[114.19,22.4524],[114.19,22.4572]]}},{"type":"Feature","properties":{"id":"nt-tai-po:n0034->n0041:avenue","kind":"avenue","lengthM":533.7,"gradientPct":0.0},"geometry":{"type":"LineString","coordinates":[[114.19,22.4572],[114.19,22.462]]}}]}