{"type":"FeatureCollection","features":[{"type":"Feature","properties":{"id":"kowloon-wong-tai-sin:n0000->n0001:avenue","kind":"avenue","lengthM":497.1,"gradientPct":0.0},"geometry":{"type":"LineString","coordinates":[[114.183,22.336],[114.18783333333334,22.336]]}},{"type":"Feature","properties":{"id":"kowloon-wong-tai-sin:n0001->n0002:avenue","kind":"avenue","lengthM":497.1,"gradientPct":0.0},"geometry":{"type":"LineString","coordinates":[[114.18783333333334,22.336],[114.19266666666667,22.336]]}},{"type":"Feature","properties":{"id":"kowloon-wong-tai-sin:n0002->n0003:avenue","kind":"avenue","lengthM":497.1,"gradientPct":0.0},"geometry":{"type":"LineString","coordinates":[[114.19266666666667,22.336],[114.1975,22.336]]}},{"type":"Feature","properties":{"id":"kowloon-wong-tai-sin:n0003->n0004:avenue","kind":"avenue","lengthM":497.1,"gradientPct":0.0},"geometry":{"type":"LineString","coordinates":[[114.1975,22.336],[114.20233333333334,22.336]]}},{"type":"Feature","properties":{"id":"kowloon-wong-tai-sin:n0004->n0005:avenue","kind":"avenue","lengthM":497.1,"gradientPct":0.0},"geometry":{"type":"LineString","coordinates":[[114.20233333333334,22.336],[114.20716666666667,22.336]]}},{"type":"Feature","properties":{"id":"kowloon-wong-tai-sin:n0005->n0006:avenue","kind":"avenue","lengthM":497.1,"gradientPct":0.0},"geometry":{"type":"LineString","coordinates":[[114.20716666666667,22.336],[114.212,22.336]]}},{"type":"Feature","properties":{"id":"kowloon-wong-tai-sin:n0007->n0008:street","kind":"street","lengthM":497.1,"gradientPct":0.0},"geometry":{"type":"LineString","coordinates":[[114.183,22.339599999999997],[114.18783333333334,22.339599999999997]]}},{"type":"Feature","properties":{"id":"kowloon-wong-tai-sin:n0008->n0009:street","kind":"street","lengthM":497.1,"gradientPct":0.0},"geometry":{"type":"LineString","coordinates":[[114.18783333333334,22.339599999999997],[114.19266666666667,22.339599999999997]]}},{"type":"Feature","properties":{"id":"kowloon-wong-tai-sin:n0009->n0010:street","kind":"street","lengthM":497.1,"gradientPct":0.0},"geometry":{"type":"LineString","coordinates":[[114.19266666666667,22.339599999999997],[114.1975,22.339599999999997]]}},{"type":"Feature","properties":{"id":"kowloon-wong-tai-sin:n0010->n0011:street","kind":"street","lengthM":497.1,"gradientPct":0.0},"geometry":{"type":"LineString","coordinates":[[114.1975,22.339599999999997],[114.20233333333334,22.339599999999997]]}},{"type":"Feature","properties":{"id":"kowloon-wong-tai-sin:n0011->n0012:street","kind":"street","lengthM":497.1,"gradientPct":0.0},"geometry":{"type":"LineString","coordinates":[[114.20233333333334,22.339599999999997],[114.20716666666667,22.339599999999997]]}},{"type":"Feature","properties":{"id":"kowloon-wong-tai-sin:n0012->n0013:street","kind":"street","lengthM":497.1,"gradientPct":0.0},"geometry":{"type":"LineString","coordinates":[[114.20716666666667,22.339599999999997],[114.212,22.339599999999997]]}},{"type":"Feature","properties":{"id":"kowloon-wong-tai-sin:n0014->n0015:street","kind":"street","lengthM":497.1,"gradientPct":0.0},"geometry":{"type":"LineString","coordinates":[[114.183,22.3432],[114.18783333333334,22.3432]]}},{"type":"Feature","properties":{"id":"kowloon-wong-tai-sin:n0015->n0016:street","kind":"street","lengthM":497.1,"gradientPct":0.0},"geometry":{"type":"LineString","coordinates":[[114.18783333333334,22.3432],[114.19266666666667,22.3432]]}},{"type":"Feature","properties":{"id":"kowloon-wong-tai-sin:n0016->n0017:street","kind":"street","lengthM":497.1,"gradientPct":0.0},"geometry":{"type":"LineString","coordinates":[[114.19266666666667,22.3432],[114.1975,22.3432]]}},{"type":"Feature","properties":{"id":"kowloon-wong-tai-sin:n0017->n0018:street","kind":"street","lengthM":497.1,"gradientPct":0.0},"geometry":{"type":"LineString","coordinates":[[114.1975,22.3432],[114.20233333333334,22.3432]]}},{"type":"Feature","properties":{"id":"kowloon-wong-tai-sin:n0018->n0019:street","kind":"street","lengthM":497.1,"gradientPct":0.0},"geometry":{"type":"LineString","coordinates":[[114.20233333333334,22.3432],[114.20716666666667,22.3432]]}},{"type":"Feature","properties":{"id":"kowloon-wong-tai-sin:n0019->n0020:street","kind":"street","lengthM":497.1,"gradientPct":0.0},"geometry":{"type":"LineString","coordinates":[[114.20716666666667,22.3432],[114.212,22.3432]]}},{"type":"Feature","properties":{"id":"kowloon-wong-tai-sin:n0021->n0022:street","kind":"street","lengthM":497.1,"gradientPct":0.0},"geometry":{"type":"LineString","coordinates":[[114.183,22.346799999999998],[114.18783333333334,22.346799999999998]]}},{"type":"Feature","properties":{"id":"kowloon-wong-tai-sin:n0022->n0023:street","kind":"street","lengthM":497.1,"gradientPct":0.0},"geometry":{"type":"LineString","coordinates":[[114.18783333333334,22.346799999999998],[114.19266666666667,22.346799999999998]]}},{"type":"Feature","properties":{"id":"kowloon-wong-tai-sin:n0023->n0024:street","kind":"street","lengthM":497.1,"gradientPct":0.0},"geometry":{"type":"LineString","coordinates":[[114.19266666666667,22.346799999999998],[114.1975,22.346799999999998]]}},{"type":"Feature","properties":{"id":"kowloon-wong-tai-sin:n0024->n0025:street","kind":"street","lengthM":497.1,"gradientPct":0.0},"geometry":{"type":"LineString","coordinates":[[114.1975,22.346799999999998],[114.20233333333334,22.346799999999998]]}},{"type":"Feature","properties":{"id":"kowloon-wong-tai-sin:n0025->n0026:street","kind":"street","lengthM":497.1,"gradientPct":0.0},"geometry":{"type":"LineString","coordinates":[[114.20233333333334,22.346799999999998],[114.20716666666667,22.346799999999998]]}},{"type":"Feature","properties":{"id":"kowloon-wong-tai-sin:n0026->n0027:street","kind":"street","lengthM":497.1,"gradientPct":0.0},"geometry":{"type":"LineString","coordinates":[[114.20716666666667,22.346799999999998],[114.212,22.346799999999998]]}},{"type":"Feature","properties":{"id":"kowloon-wong-tai-sin:n0028->n0029:street","kind":"street","lengthM":497.1,"gradientPct":0.0},"geometry":{"type":"LineString","coordinates":[[114.183,22.3504],[114.18783333333334,22.3504]]}},{"type":"Feature","properties":{"id":"kowloon-wong-tai-sin:n0029->n0030:street","kind":"street","lengthM":497.1,"gradientPct":0.0},"geometry":{"type":"LineString","coordinates":[[114.18783333333334,22.3504],[114.19266666666667,22.3504]]}},{"type":"Feature","properties":{"id":"kowloon-wong-tai-sin:n0030->n0031:street","kind":"street","lengthM":497.1,"gradientPct":0.0},"geometry":{"type":"LineString","coordinates":[[114.19266666666667,22.3504],[114.1975,22.3504]]}},{"type":"Feature","properties":{"id":"kowloon-wong-tai-sin:n0031->n0032:street","kind":"street","lengthM":497.1,"gradientPct":0.0},"geometry":{"type":"LineString","coordinates":[[114.1975,22.3504],[114.20233333333334,22.3504]]}},{"type":"Feature","properties":{"id":"kowloon-wong-tai-sin:n0032->n0033:street","kind":"street","lengthM":497.1,"gradientPct":0.0},"geometry":{"type":"LineString","coordinates":[[114.20233333333334,22.3504],[114.20716666666667,22.3504]]}},{"type":"Feature","properties":{"id":"kowloon-wong-tai-sin:n0033->n0034:street","kind":"street","lengthM":497.1,"gradientPct":0.0},"geometry":{"type":"LineString","coordinates":[[114.20716666666667,22.3504],[114.212,22.3504]]}},{"type":"Feature","properties":{"id":"kowloon-wong-tai-sin:n0035->n0036:avenue","kind":"avenue","lengthM":497.1,"gradientPct":0.0},"geometry":{"type":"LineString","coordinates":[[114.183,22.354],[114.18783333333334,22.354]]}},{"type":"Feature","properties":{"id":"kowloon-wong-tai-sin:n0036->n0037:avenue","kind":"avenue","lengthM":497.1,"gradientPct":0.0},"geometry":{"type":"LineString","coordinates":[[114.18783333333334,22.354],[114.19266666666667,22.354]]}},{"type":"Feature","properties":{"id":"kowloon-wong-tai-sin:n0037->n0038:avenue","kind":"avenue","lengthM":497.1,"gradientPct":0.0},"geometry":{"type":"LineString","coordinates":[[114.19266666666667,22.354],[114.1975,22.354]]}},{"type":"Feature","properties":{"id":"kowloon-wong-tai-sin:n0038->n0039:avenue","kind":"avenue","lengthM":497.1,"gradientPct":0.0},"geometry":{"type":"LineString","coordinates":[[114.1975,22.354],[114.20233333333334,22.354]]}},{"type":"Feature","properties":{"id":"kowloon-wong-tai-sin:n0039->n0040:avenue","kind":"avenue","lengthM":497.1,"gradientPct":0.0},"geometry":{"type":"LineString","coordinates":[[114.20233333333334,22.354],[114.20716666666667,22.354]]}},{"type":"Feature","properties":{"id":"kowloon-wong-tai-sin:n0040->n0041:avenue","kind":"avenue","lengthM":497.1,"gradientPct":0.0},"geometry":{"type":"LineString","coordinates":[[114.20716666666667,22.354],[114.212,22.354]]}},{"type":"Feature","properties":{"id":"kowloon-wong-tai-sin:n0000->n0007:avenue","kind":"avenue","lengthM":400.3,"gradientPct":0.0},"geometry":{"type":"LineString","coordinates":[[114.183,22.336],[114.183,22.339599999999997]]}},{"type":"Feature","properties":{"id":"kowloon-wong-tai-sin:n0007->n0014:avenue","kind":"avenue","lengthM":400.3,"gradientPct":0.0},"geometry":{"type":"LineString","coordinates":[[114.183,22.339599999999997],[114.183,22.3432]]}},{"type":"Feature","properties":{"id":"kowloon-wong-tai-sin:n0014->n0021:avenue","kind":"avenue","lengthM":400.3,"gradientPct":0.0},"geometry":{"type":"LineString","coordinates":[[114.183,22.3432],[114.183,22.346799999999998]]}},{"type":"Feature","properties":{"id":"kowloon-wong-tai-sin:n0021->n0028:avenue","kind":"avenue","lengthM":400.3,"gradientPct":0.0},"geometry":{"type":"LineString","coordinates":[[114.183,22.346799999999998],[114.183,22.3504]]}},{"type":"Feature","properties":{"id":"kowloon-wong-tai-sin:n0028->n0035:avenue","kind":"avenue","lengthM":400.3,"gradientPct":0.0},"geometry":{"type":"LineString","coordinates":[[114.183,22.3504],[114.183,22.354]]}},{"type":"Feature","properties":{"id":"kowloon-wong-tai-sin:n0001->n0008:street","kind":"street","lengthM":400.3,"gradientPct":0.0},"geometry":{"type":"LineString","coordinates":[[114.18783333333334,22.336],[114.18783333333334,22.339599999999997]]}},{"type":"Feature","properties":{"id":"kowloon-wong-tai-sin:n0008->n0015:street","kind":"street","lengthM":400.3,"gradientPct":0.0},"geometry":{"type":"LineString","coordinates":[[114.18783333333334,22.339599999999997],[114.18783333333334,22.3432]]}},{"type":"Feature","properties":{"id":"kowloon-wong-tai-sin:n0015->n0022:street","kind":"street","lengthM":400.3,"gradientPct":0.0},"geometry":{"type":"LineString","coordinates":[[114.18783333333334,22.3432],[114.18783333333334,22.346799999999998]]}},{"type":"Feature","properties":{"id":"kowloon-wong-tai-sin:n0022->n0029:street","kind":"street","lengthM":400.3,"gradientPct":0.0},"geometry":{"type":"LineString","coordinates":[[114.18783333333334,22.346799999999998],[114.18783333333334,22.3504]]}},{"type":"Feature","properties":{"id":"kowloon-wong-tai-sin:n0029->n0036:street","kind":"street","lengthM":400.3,"gradientPct":0.0},"geometry":{"type":"LineString","coordinates":[[114.18783333333334,22.3504],[114.18783333333334,22.354]]}},{"type":"Feature","properties":{"id":"kowloon-wong-tai-sin:n0002->n0009:street","kind":"street","lengthM":400.3,"gradientPct":0.0},"geometry":{"type":"LineString","coordinates":[[114.19266666666667,22.336],[114.19266666666667,22.339599999999997]]}},{"type":"Feature","properties":{"id":"kowloon-wong-tai-sin:n0009->n0016:street","kind":"street","lengthM":400.3,"gradientPct":0.0},"geometry":{"type":"LineString","coordinates":[[114.19266666666667,22.339599999999997],[114.19266666666667,22.3432]]}},{"type":"Feature","properties":{"id":"kowloon-wong-tai-sin:n0016->n0023:street","kind":"street","lengthM":400.3,"gradientPct":0.0},"geometry":{"type":"LineString","coordinates":[[114.19266666666667,22.3432],[114.19266666666667,22.346799999999998]]}},{"type":"Feature","properties":{"id":"kowloon-wong-tai-sin:n0023->n0030:street","kind":"street","lengthM":400.3,"gradientPct":0.0},"geometry":{"type":"LineString","coordinates":[[114.19266666666667,22.346799999999998],[114.19266666666667,22.3504]]}},{"type":"Feature","properties":{"id":"kowloon-wong-tai-sin:n0030->n0037:street","kind":"street","lengthM":400.3,"gradientPct":0.0},"geometry":{"type":"LineString","coordinates":[[114.19266666666667,22.3504],[114.19266666666667,22.354]]}},{"type":"Feature","properties":{"id":"kowloon-wong-tai-sin:n0003->n0010:street","kind":"street","lengthM":400.3,"gradientPct":0.0},"geometry":{"type":"LineString","coordinates":[[114.1975,22.336],[114.1975,22.339599999999997]]}},{"type":"Feature","properties":{"id":"kowloon-wong-tai-sin:n0010->n0017:street","kind":"street","lengthM":400.3,"gradientPct":0.0},"geometry":{"type":"LineString","coordinates":[[114.1975,22.339599999999997],[114.1975,22.3432]]}},{"type":"Feature","properties":{"id":"kowloon-wong-tai-sin:n0017->n0024:street","kind":"street","lengthM":400.3,"gradientPct":0.0},"geometry":{"type":"LineString","coordinates":[[114.1975,22.3432],[114.1975,22.346799999999998]]}},{"type":"Feature","properties":{"id":"kowloon-wong-tai-sin:n0024->n0031:street","kind":"street","lengthM":400.3,"gradientPct":0.0},"geometry":{"type":"LineString","coordinates":[[114.1975,22.346799999999998],[114.1975,22.3504]]}},{"type":"Feature","properties":{"id":"kowloon-wong-tai-sin:n0031->n0038:street","kind":"street","lengthM":400.3,"gradientPct":0.0},"geometry":{"type":"LineString","coordinates":[[114.1975,22.3504],[114.1975,22.354]]}},{"type":"Feature","properties":{"id":"kowloon-wong-tai-sin:n0004->n0011:street","kind":"street","lengthM":400.3,"gradientPct":0.0},"geometry":{"type":"LineString","coordinates":[[114.20233333333334,22.336],[114.20233333333334,22.339599999999997]]}},{"type":"Feature","properties":{"id":"kowloon-wong-tai-sin:n0011->n0018:street","kind":"street","lengthM":400.3,"gradientPct":0.0},"geometry":{"type":"LineString","coordinates":[[114.20233333333334,22.339599999999997],[114.20233333333334,22.3432]]}},{"type":"Feature","properties":{"id":"kowloon-wong-tai-sin:n0018->n0025:street","kind":"street","lengthM":400.3,"gradientPct":0.0},"geometry":{"type":"LineString","coordinates":[[114.20233333333334,22.3432],[114.20233333333334,22.346799999999998]]}},{"type":"Feature","properties":{"id":"kowloon-wong-tai-sin:n0025->n0032:street","kind":"street","lengthM":400.3,"gradientPct":0.0},"geometry":{"type":"LineString","coordinates":[[114.20233333333334,22.346799999999998],[114.20233333333334,22.3504]]}},{"type":"Feature","properties":{"id":"kowloon-wong-tai-sin:n0032->n0039:street","kind":"street","lengthM":400.3,"gradientPct":0.0},"geometry":{"type":"LineString","coordinates":[[114.20233333333334,22.3504],[114.20233333333334,22.354]]}},{"type":"Feature","properties":{"id":"kowloon-wong-tai-sin:n0005->n0012:street","kind":"street","lengthM":400.3,"gradientPct":0.0},"geometry":{"type":"LineString","coordinates":[[114.20716666666667,22.336],[114.20716666666667,22.339599999999997]]}},{"type":"Feature","properties":{"id":"kowloon-wong-tai-sin:n0012->n0019:street","kind":"street","lengthM":400.3,"gradientPct":0.0},"geometry":{"type":"LineString","coordinates":[[114.20716666666667,22.339599999999997],[114.20716666666667,22.3432]]}},{"type":"Feature","properties":{"id":"kowloon-wong-tai-sin:n0019->n0026:street","kind":"street","lengthM":400.3,"gradientPct":0.0},"geometry":{"type":"LineString","coordinates":[[114.20716666666667,22.3432],[114.20716666666667,22.346799999999998]]}},{"type":"Feature","properties":{"id":"kowloon-wong-tai-sin:n0026->n0033:street","kind":"street","lengthM":400.3,"gradientPct":0.0},"geometry":{"type":"LineString","coordinates":[[114.20716666666667,22.346799999999998],[114.20716666666667,22.3504]]}},{"type":"Feature","properties":{"id":"kowloon-wong-tai-sin:n0033->n0040:street","kind":"street","lengthM":400.3,"gradientPct":0.0},"geometry":{"type":"LineString","coordinates":[[114.20716666666667,22.3504],[114.20716666666667,22.354]]}},{"type":"Feature","properties":{"id":"kowloon-wong-tai-sin:n0006->n0013:avenue","kind":"avenue","lengthM":400.3,"gradientPct":0.0},"geometry":{"type":"LineString","coordinates":[[114.212,22.336],[114.212,22.339599999999997]]}},{"type":"Feature","properties":{"id":"kowloon-wong-tai-sin:n0013->n0020:avenue","kind":"avenue","lengthM":400.3,"gradientPct":0.0},"geometry":{"type":"LineString","coordinates":[[114.212,22.339599999999997],[114.212,22.3432]]}},{"type":"Feature","properties":{"id":"kowloon-wong-tai-sin:n0020->n0027:avenue","kind":"avenue","lengthM":400.3,"gradientPct":0.0},"geometry":{"type":"LineString","coordinates":[[114.212,22.3432],[114.212,22.346799999999998]]}},{"type":"Feature","properties":{"id":"kowloon-wong-tai-sin:n0027->n0034:avenue","kind":"avenue","lengthM":400.3,"gradientPct":0.0},"geometry":{"type":"LineString","coordinates":[[114.212,22.346799999999998],[114.212,22.3504]]}},{"type":"Feature","properties":{"id":"kowloon-wong-tai-sin:n0034->n0041:avenue","kind":"avenue","lengthM":400.3,"gradientPct":0.0},"geometry":{"type":"LineString","coordinates":[[114.212,22.3504],[114.212,22.354]]}}]}