{"type":"FeatureCollection","features":[{"type":"Feature","properties":{"id":"nt-north:n0000->n0001:avenue","kind":"avenue","lengthM":684.9,"gradientPct":0.0},"geometry":{"type":"LineString","coordinates":[[114.128,22.49],[114.13466666666667,22.49]]}},{"type":"Feature","properties":{"id":"nt-north:n0001->n0002:avenue","kind":"avenue","lengthM":684.9,"gradientPct":0.0},"geometry":{"type":"LineString","coordinates":[[114.13466666666667,22.49],[114.14133333333334,22.49]]}},{"type":"Feature","properties":{"id":"nt-north:n0002->n0003:avenue","kind":"avenue","lengthM":684.9,"gradientPct":0.0},"geometry":{"type":"LineString","coordinates":[[114.14133333333334,22.49],[114.148,22.49]]}},{"type":"Feature","properties":{"id":"nt-north:n0003->n0004:avenue","kind":"avenue","lengthM":684.9,"gradientPct":0.0},"geometry":{"type":"LineString","coordinates":[[114.148,22.49],[114.15466666666667,22.49]]}},{"type":"Feature","properties":{"id":"nt-north:n0004->n0005:avenue","kind":"avenue","lengthM":684.9,"gradientPct":0.0},"geometry":{"type":"LineString","coordinates":[[114.15466666666667,22.49],[114.16133333333335,22.49]]}},{"type":"Feature","properties":{"id":"nt-north:n0005->n0006:avenue","kind":"avenue","lengthM":684.9,"gradientPct":0.0},"geometry":{"type":"LineString","coordinates":[[114.16133333333335,22.49],[114.168,22.49]]}},{"type":"Feature","properties":{"id":"nt-north:n0007->n0008:street","kind":"street","lengthM":684.9,"gradientPct":0.0},"geometry":{"type":"LineString","coordinates":[[114.128,22.4984],[114.13466666666667,22.4984]]}},{"type":"Feature","properties":{"id":"nt-north:n0008->n0009:street","kind":"street","lengthM":684.9,"gradientPct":0.0},"geometry":{"type":"LineString","coordinates":[[114.13466666666667,22.4984],[114.14133333333334,22.4984]]}},{"type":"Feature","properties":{"id":"nt-north:n0009->n0010:street","kind":"street","lengthM":684.9,"gradientPct":0.0},"geometry":{"type":"LineString","coordinates":[[114.14133333333334,22.4984],[114.148,22.4984]]}},{"type":"Feature","properties":{"id":"nt-north:n0010->n0011:street","kind":"street","lengthM":684.9,"gradientPct":0.0},"geometry":{"type":"LineString","coordinates":[[114.148,22.4984],[114.15466666666667,22.4984]]}},{"type":"Feature","properties":{"id":"nt-north:n0011->n0012:street","kind":"street","lengthM":684.9,"gradientPct":0.0},"geometry":{"type":"LineString","coordinates":[[114.15466666666667,22.4984],[114.16133333333335,22.4984]]}},{"type":"Feature","properties":{"id":"nt-north:n0012->n0013:street","kind":"street","lengthM":684.9,"gradientPct":0.0},"geometry":{"type":"LineString","coordinates":[[114.16133333333335,22.4984],[114.168,22.4984]]}},{"type":"Feature","properties":{"id":"nt-north:n0014->n0015:street","kind":"street","lengthM":684.8,"gradientPct":0.0},"geometry":{"type":"LineString","coordinates":[[114.128,22.5068],[114.13466666666667,22.5068]]}},{"type":"Feature","properties":{"id":"nt-north:n0015->n0016:street","kind":"street","lengthM":684.8,"gradientPct":0.0},"geometry":{"type":"LineString","coordinates":[[114.13466666666667,22.5068],[114.14133333333334,22.5068]]}},{"type":"Feature","properties":{"id":"nt-north:n0016->n0017:street","kind":"street","lengthM":684.8,"gradientPct":0.0},"geometry":{"type":"LineString","coordinates":[[114.14133333333334,22.5068],[114.148,22.5068]]}},{"type":"Feature","properties":{"id":"nt-north:n0017->n0018:street","kind":"street","lengthM":684.8,"gradientPct":0.0},"geometry":{"type":"LineString","coordinates":[[114.148,22.5068],[114.15466666666667,22.5068]]}},{"type":"Feature","properties":{"id":"nt-north:n0018->n0019:street","kind":"street","lengthM":684.8,"gradientPct":0.0},"geometry":{"type":"LineString","coordinates":[[114.15466666666667,22.5068],[114.16133333333335,22.5068]]}},{"type":"Feature","properties":{"id":"nt-north:n0019->n0020:street","kind":"street","lengthM":684.8,"gradientPct":0.0},"geometry":{"type":"LineString","coordinates":[[114.16133333333335,22.5068],[114.168,22.5068]]}},{"type":"Feature","properties":{"id":"nt-north:n0021->n0022:street","kind":"street","lengthM":684.8,"gradientPct":0.0},"geometry":{"type":"LineString","coordinates":[[114.128,22.5152],[114.13466666666667,22.5152]]}},{"type":"Feature","properties":{"id":"nt-north:n0022->n0023:street","kind":"street","lengthM":684.8,"gradientPct":0.0},"geometry":{"type":"LineString","coordinates":[[114.13466666666667,22.5152],[114.14133333333334,22.5152]]}},{"type":"Feature","properties":{"id":"nt-north:n0023->n0024:street","kind":"street","lengthM":684.8,"gradientPct":0.0},"geometry":{"type":"LineString","coordinates":[[114.14133333333334,22.5152],[114.148,22.5152]]}},{"type":"Feature","properties":{"id":"nt-north:n0024->n0025:street","kind":"street","lengthM":684.8,"gradientPct":0.0},"geometry":{"type":"LineString","coordinates":[[114.148,22.5152],[114.15466666666667,22.5152]]}},{"type":"Feature","properties":{"id":"nt-north:n0025->n0026:street","kind":"street","lengthM":684.8,"gradientPct":0.0},"geometry":{"type":"LineString","coordinates":[[114.15466666666667,22.5152],[114.16133333333335,22.5152]]}},{"type":"Feature","properties":{"id":"nt-north:n0026->n0027:street","kind":"street","lengthM":684.8,"gradientPct":0.0},"geometry":{"type":"LineString","coordinates":[[114.16133333333335,22.5152],[114.168,22.5152]]}},{"type":"Feature","properties":{"id":"nt-north:n0028->n0029:street","kind":"street","lengthM":684.8,"gradientPct":0.0},"geometry":{"type":"LineString","coordinates":[[114.128,22.5236],[114.13466666666667,22.5236]]}},{"type":"Feature","properties":{"id":"nt-north:n0029->n0030:street","kind":"street","lengthM":684.8,"gradientPct":0.0},"geometry":{"type":"LineString","coordinates":[[114.13466666666667,22.5236],[114.14133333333334,22.5236]]}},{"type":"Feature","properties":{"id":"nt-north:n0030->n0031:street","kind":"street","lengthM":684.8,"gradientPct":0.0},"geometry":{"type":"LineString","coordinates":[[114.14133333333334,22.5236],[114.148,22.5236]]}},{"type":"Feature","properties":{"id":"nt-north:n0031->n0032:street","kind":"street","lengthM":684.8,"gradientPct":0.0},"geometry":{"type":"LineString","coordinates":[[114.148,22.5236],[114.15466666666667,22.5236]]}},{"type":"Feature","properties":{"id":"nt-north:n0032->n0033:street","kind":"street","lengthM":684.8,"gradientPct":0.0},"geometry":{"type":"LineString","coordinates":[[114.15466666666667,22.5236],[114.16133333333335,22.5236]]}},{"type":"Feature","properties":{"id":"nt-north:n0033->n0034:street","kind":"street","lengthM":684.8,"gradientPct":0.0},"geometry":{"type":"LineString","coordinates":[[114.16133333333335,22.5236],[114.168,22.5236]]}},{"type":"Feature","properties":{"id":"nt-north:n0035->n0036:avenue","kind":"avenue","lengthM":684.7,"gradientPct":0.0},"geometry":{"type":"LineString","coordinates":[[114.128,22.532],[114.13466666666667,22.532]]}},{"type":"Feature","properties":{"id":"nt-north:n0036->n0037:avenue","kind":"avenue","lengthM":684.7,"gradientPct":0.0},"geometry":{"type":"LineString","coordinates":[[114.13466666666667,22.532],[114.14133333333334,22.532]]}},{"type":"Feature","properties":{"id":"nt-north:n0037->n0038:avenue","kind":"avenue","lengthM":684.7,"gradientPct":0.0},"geometry":{"type":"LineString","coordinates":[[114.14133333333334,22.532],[114.148,22.532]]}},{"type":"Feature","properties":{"id":"nt-north:n0038->n0039:avenue","kind":"avenue","lengthM":684.7,"gradientPct":0.0},"geometry":{"type":"LineString","coordinates":[[114.148,22.532],[114.15466666666667,22.532]]}},{"type":"Feature","properties":{"id":"nt-north:n0039->n0040:avenue","kind":"avenue","lengthM":684.7,"gradientPct":0.0},"geometry":{"type":"LineString","coordinates":[[114.15466666666667,22.532],[114.16133333333335,22.532]]}},{"type":"Feature","properties":{"id":"nt-north:n0040->n0041:avenue","kind":"avenue","lengthM":684.7,"gradientPct":0.0},"geometry":{"type":"LineString","coordinates":[[114.16133333333335,22.532],[114.168,22.532]]}},{"type":"Feature","properties":{"id":"nt-north:n0000->n0007:avenue","kind":"avenue","lengthM":934.0,"gradientPct":0.0},"geometry":{"type":"LineString","coordinates":[[114.128,22.49],[114.128,22.4984]]}},{"type":"Feature","properties":{"id":"nt-north:n0007->n0014:avenue","kind":"avenue","lengthM":934.0,"gradientPct":0.0},"geometry":{"type":"LineString","coordinates":[[114.128,22.4984],[114.128,22.5068]]}},{"type":"Feature","properties":{"id":"nt-north:n0014->n0021:avenue","kind":"avenue","lengthM":934.0,"gradientPct":0.0},"geometry":{"type":"LineString","coordinates":[[114.128,22.5068],[114.128,22.5152]]}},{"type":"Feature","properties":{"id":"nt-north:n0021->n0028:avenue","kind":"avenue","lengthM":934.0,"gradientPct":0.0},"geometry":{"type":"LineString","coordinates":[[114.128,22.5152],[114.128,22.5236]]}},{"type":"Feature","properties":{"id":"nt-north:n0028->n0035:avenue","kind":"avenue","lengthM":934.0,"gradientPct":0.0},"geometry":{"type":"LineString","coordinates":[[114.128,22.5236],[114.128,22.532]]}},{"type":"Feature","properties":{"id":"nt-north:n0001->n0008:street","kind":"street","lengthM":934.0,"gradientPct":0.0},"geometry":{"type":"LineString","coordinates":[[114.13466666666667,22.49],[114.13466666666667,22.4984]]}},{"type":"Feature","properties":{"id":"nt-north:n0008->n0015:street","kind":"street","lengthM":934.0,"gradientPct":0.0},"geometry":{"type":"LineString","coordinates":[[114.13466666666667,22.4984],[114.13466666666667,22.5068]]}},{"type":"Feature","properties":{"id":"nt-north:n0015->n0022:street","kind":"street","lengthM":934.0,"gradientPct":0.0},"geometry":{"type":"LineString","coordinates":[[114.13466666666667,22.5068],[114.13466666666667,22.5152]]}},{"type":"Feature","properties":{"id":"nt-north:n0022->n0029:street","kind":"street","lengthM":934.0,"gradientPct":0.0},"geometry":{"type":"LineString","coordinates":[[114.13466666666667,22.5152],[114.13466666666667,22.5236]]}},{"type":"Feature","properties":{"id":"nt-north:n0029->n0036:street","kind":"street","lengthM":934.0,"gradientPct":0.0},"geometry":{"type":"LineString","coordinates":[[114.13466666666667,22.5236],[114.13466666666667,22.532]]}},{"type":"Feature","properties":{"id":"nt-north:n0002->n0009:street","kind":"street","lengthM":934.0,"gradientPct":0.0},"geometry":{"type":"LineString","coordinates":[[114.14133333333334,22.49],[114.14133333333334,22.4984]]}},{"type":"Feature","properties":{"id":"nt-north:n0009->n0016:street","kind":"street","lengthM":934.0,"gradientPct":0.0},"geometry":{"type":"LineString","coordinates":[[114.14133333333334,22.4984],[114.14133333333334,22.5068]]}},{"type":"Feature","properties":{"id":"nt-north:n0016->n0023:street","kind":"street","lengthM":934.0,"gradientPct":0.0},"geometry":{"type":"LineString","coordinates":[[114.14133333333334,22.5068],[114.14133333333334,22.5152]]}},{"type":"Feature","properties":{"id":"nt-north:n0023->n0030:street","kind":"street","lengthM":934.0,"gradientPct":0.0},"geometry":{"type":"LineString","coordinates":[[114.14133333333334,22.5152],[114.14133333333334,22.5236]]}},{"type":"Feature","properties":{"id":"nt-north:n0030->n0037:street","kind":"street","lengthM":934.0,"gradientPct":0.0},"geometry":{"type":"LineString","coordinates":[[114.14133333333334,22.5236],[114.14133333333334,22.532]]}},{"type":"Feature","properties":{"id":"nt-north:n0003->n0010:street","kind":"street","lengthM":934.0,"gradientPct":0.0},"geometry":{"type":"LineString","coordinates":[[114.148,22.49],[114.148,22.4984]]}},{"type":"Feature","properties":{"id":"nt-north:n0010->n0017:street","kind":"street","lengthM":934.0,"gradientPct":0.0},"geometry":{"type":"LineString","coordinates":[[114.148,22.4984],[114.148,22.5068]]}},{"type":"Feature","properties":{"id":"nt-north:n0017->n0024:street","kind":"street","lengthM":934.0,"gradientPct":0.0},"geometry":{"type":"LineString","coordinates":[[114.148,22.5068],[114.148,22.5152]]}},{"type":"Feature","properties":{"id":"nt-north:n0024->n0031:street","kind":"street","lengthM":934.0,"gradientPct":0.0},"geometry":{"type":"LineString","coordinates":[[114.148,22.5152],[114.148,22.5236]]}},{"type":"Feature","properties":{"id":"nt-north:n0031->n0038:street","kind":"street","lengthM":934.0,"gradientPct":0.0},"geometry":{"type":"LineString","coordinates":[[114.148,22.5236],[114.148,22.532]]}},{"type":"Feature","properties":{"id":"nt-north:n0004->n0011:street","kind":"street","lengthM":934.0,"gradientPct":0.0},"geometry":{"type":"LineString","coordinates":[[114.15466666666667,22.49],[114.15466666666667,22.4984]]}},{"type":"Feature","properties":{"id":"nt-north:n0011->n0018:street","kind":"street","lengthM":934.0,"gradientPct":0.0},"geometry":{"type":"LineString","coordinates":[[114.15466666666667,22.4984],[114.15466666666667,22.5068]]}},{"type":"Feature","properties":{"id":"nt-north:n0018->n0025:street","kind":"street","lengthM":934.0,"gradientPct":0.0},"geometry":{"type":"LineString","coordinates":[[114.15466666666667,22.5068],[114.15466666666667,22.5152]]}},{"type":"Feature","properties":{"id":"nt-north:n0025->n0032:street","kind":"street","lengthM":934.0,"gradientPct":0.0},"geometry":{"type":"LineString","coordinates":[[114.15466666666667,22.5152],[114.15466666666667,22.5236]]}},{"type":"Feature","properties":{"id":"nt-north:n0032->n0039:street","kind":"street","lengthM":934.0,"gradientPct":0.0},"geometry":{"type":"LineString","coordinates":[[114.15466666666667,22.5236],[114.15466666666667,22.532]]}},{"type":"Feature","properties":{"id":"nt-north:n0005->n0012:street","kind":"street","lengthM":934.0,"gradientPct":0.0},"geometry":{"type":"LineString","coordinates":[[114.16133333333335,22.49],[114.16133333333335,22.4984]]}},{"type":"Feature","properties":{"id":"nt-north:n0012->n0019:street","kind":"street","lengthM":934.0,"gradientPct":0.0},"geometry":{"type":"LineString","coordinates":[[114.16133333333335,22.4984],[114.16133333333335,22.5068]]}},{"type":"Feature","properties":{"id":"nt-north:n0019->n0026:street","kind":"street","lengthM":934.0,"gradientPct":0.0},"geometry":{"type":"LineString","coordinates":[[114.16133333333335,22.5068],[114.16133333333335,22.5152]]}},{"type":"Feature","properties":{"id":"nt-north:n0026->n0033:street","kind":"street","lengthM":934.0,"gradientPct":0.0},"geometry":{"type":"LineString","coordinates":[[114.16133333333335,22.5152],[114.16133333333335,22.5236]]}},{"type":"Feature","properties":{"id":"nt-north:n0033->n0040:street","kind":"street","lengthM":934.0,"gradientPct":0.0},"geometry":{"type":"LineString","coordinates":[[114.16133333333335,22.5236],[114.16133333333335,22.532]]}},{"type":"Feature","properties":{"id":"nt-north:n0006->n0013:avenue","kind":"avenue","lengthM":934.0,"gradientPct":0.0},"geometry":{"type":"LineString","coordinates":[[114.168,22.49],[114.168,22.4984]]}},{"type":"Feature","properties":{"id":"nt-north:n0013->n0020:avenue","kind":"avenue","lengthM":934.0,"gradientPct":0.0},"geometry":{"type":"LineString","coordinates":[[114.168,22.4984],[114.168,22.5068]]}},{"type":"Feature","properties":{"id":"nt-north:n0020->n0027:avenue","kind":"avenue","lengthM":934.0,"gradientPct":0.0},"geometry":{"type":"LineString","coordinates":[[114.168,22.5068],[114.168,22.5152]]}},{"type":"Feature","properties":{"id":"nt-north:n0027->n0034:avenue","kind":"avenue","lengthM":934.0,"gradientPct":0.0},"geometry":{"type":"LineString","coordinates":[[114.168,22.5152],[114.168,22.5236]]}},{"type":"Feature","properties":{"id":"nt-north:n0034->n0041:avenue","kind":"avenue","lengthM":934.0,"gradientPct":0.0},"geometry":{"type":"LineString","coordinates":[[114.168,22.5236],[114.168,22.532]]}}]}