{"type":"FeatureCollection","features":[{"type":"Feature","properties":{"id":"kowloon-kwai-tsing:n0000->n0001:avenue","kind":"avenue","lengthM":634.2,"gradientPct":0.0},"geometry":{"type":"LineString","coordinates":[[114.098,22.352],[114.10416666666667,22.352]]}},{"type":"Feature","properties":{"id":"kowloon-kwai-tsing:n0001->n0002:avenue","kind":"avenue","lengthM":634.2,"gradientPct":0.0},"geometry":{"type":"LineString","coordinates":[[114.10416666666667,22.352],[114.11033333333333,22.352]]}},{"type":"Feature","properties":{"id":"kowloon-kwai-tsing:n0002->n0003:avenue","kind":"avenue","lengthM":634.2,"gradientPct":0.0},"geometry":{"type":"LineString","coordinates":[[114.11033333333333,22.352],[114.1165,22.352]]}},{"type":"Feature","properties":{"id":"kowloon-kwai-tsing:n0003->n0004:avenue","kind":"avenue","lengthM":634.2,"gradientPct":0.0},"geometry":{"type":"LineString","coordinates":[[114.1165,22.352],[114.12266666666667,22.352]]}},{"type":"Feature","properties":{"id":"kowloon-kwai-tsing:n0004->n0005:avenue","kind":"avenue","lengthM":634.2,"gradientPct":0.0},"geometry":{"type":"LineString","coordinates":[[114.12266666666667,22.352],[114.12883333333333,22.352]]}},{"type":"Feature","properties":{"id":"kowloon-kwai-tsing:n0005->n0006:avenue","kind":"avenue","lengthM":634.2,"gradientPct":0.0},"geometry":{"type":"LineString","coordinates":[[114.12883333333333,22.352],[114.135,22.352]]}},{"type":"Feature","properties":{"id":"kowloon-kwai-tsing:n0007->n0008:street","kind":"street","lengthM":634.2,"gradientPct":0.0},"geometry":{"type":"LineString","coordinates":[[114.098,22.356],[114.10416666666667,22.356]]}},{"type":"Feature","properties":{"id":"kowloon-kwai-tsing:n0008->n0009:street","kind":"street","lengthM":634.2,"gradientPct":0.0},"geometry":{"type":"LineString","coordinates":[[114.10416666666667,22.356],[114.11033333333333,22.356]]}},{"type":"Feature","properties":{"id":"kowloon-kwai-tsing:n0009->n0010:street","kind":"street","lengthM":634.2,"gradientPct":0.0},"geometry":{"type":"LineString","coordinates":[[114.11033333333333,22.356],[114.1165,22.356]]}},{"type":"Feature","properties":{"id":"kowloon-kwai-tsing:n0010->n0011:street","kind":"street","lengthM":634.2,"gradientPct":0.0},"geometry":{"type":"LineString","coordinates":[[114.1165,22.356],[114.12266666666667,22.356]]}},{"type":"Feature","properties":{"id":"kowloon-kwai-tsing:n0011->n0012:street","kind":"street","lengthM":634.2,"gradientPct":0.0},"geometry":{"type":"LineString","coordinates":[[114.12266666666667,22.356],[114.12883333333333,22.356]]}},{"type":"Feature","properties":{"id":"kowloon-kwai-tsing:n0012->n0013:street","kind":"street","lengthM":634.2,"gradientPct":0.0},"geometry":{"type":"LineString","coordinates":[[114.12883333333333,22.356],[114.135,22.356]]}},{"type":"Feature","properties":{"id":"kowloon-kwai-tsing:n0014->n0015:street","kind":"street","lengthM":634.1,"gradientPct":0.0},"geometry":{"type":"LineString","coordinates":[[114.098,22.36],[114.10416666666667,22.36]]}},{"type":"Feature","properties":{"id":"kowloon-kwai-tsing:n0015->n0016:street","kind":"street","lengthM":634.1,"gradientPct":0.0},"geometry":{"type":"LineString","coordinates":[[114.10416666666667,22.36],[114.11033333333333,22.36]]}},{"type":"Feature","properties":{"id":"kowloon-kwai-tsing:n0016->n0017:street","kind":"street","lengthM":634.1,"gradientPct":0.0},"geometry":{"type":"LineString","coordinates":[[114.11033333333333,22.36],[114.1165,22.36]]}},{"type":"Feature","properties":{"id":"kowloon-kwai-tsing:n0017->n0018:street","kind":"street","lengthM":634.1,"gradientPct":0.0},"geometry":{"type":"LineString","coordinates":[[114.1165,22.36],[114.12266666666667,22.36]]}},{"type":"Feature","properties":{"id":"kowloon-kwai-tsing:n0018->n0019:street","kind":"street","lengthM":634.1,"gradientPct":0.0},"geometry":{"type":"LineString","coordinates":[[114.12266666666667,22.36],[114.12883333333333,22.36]]}},{"type":"Feature","properties":{"id":"kowloon-kwai-tsing:n0019->n0020:street","kind":"street","lengthM":634.1,"gradientPct":0.0},"geometry":{"type":"LineString","coordinates":[[114.12883333333333,22.36],[114.135,22.36]]}},{"type":"Feature","properties":{"id":"kowloon-kwai-tsing:n0021->n0022:street","kind":"street","lengthM":634.1,"gradientPct":0.0},"geometry":{"type":"LineString","coordinates":[[114.098,22.364],[114.10416666666667,22.364]]}},{"type":"Feature","properties":{"id":"kowloon-kwai-tsing:n0022->n0023:street","kind":"street","lengthM":634.1,"gradientPct":0.0},"geometry":{"type":"LineString","coordinates":[[114.10416666666667,22.364],[114.11033333333333,22.364]]}},{"type":"Feature","properties":{"id":"kowloon-kwai-tsing:n0023->n0024:street","kind":"street","lengthM":634.1,"gradientPct":0.0},"geometry":{"type":"LineString","coordinates":[[114.11033333333333,22.364],[114.1165,22.364]]}},{"type":"Feature","properties":{"id":"kowloon-kwai-tsing:n0024->n0025:street","kind":"street","lengthM":634.1,"gradientPct":0.0},"geometry":{"type":"LineString","coordinates":[[114.1165,22.364],[114.12266666666667,22.364]]}},{"type":"Feature","properties":{"id":"kowloon-kwai-tsing:n0025->n0026:street","kind":"street","lengthM":634.1,"gradientPct":0.0},"geometry":{"type":"LineString","coordinates":[[114.12266666666667,22.364],[114.12883333333333,22.364]]}},{"type":"Feature","properties":{"id":"kowloon-kwai-tsing:n0026->n0027:street","kind":"street","lengthM":634.1,"gradientPct":0.0},"geometry":{"type":"LineString","coordinates":[[114.12883333333333,22.364],[114.135,22.364]]}},{"type":"Feature","properties":{"id":"kowloon-kwai-tsing:n0028->n0029:street","kind":"street","lengthM":634.1,"gradientPct":0.0},"geometry":{"type":"LineString","coordinates":[[114.098,22.368],[114.10416666666667,22.368]]}},{"type":"Feature","properties":{"id":"kowloon-kwai-tsing:n0029->n0030:street","kind":"street","lengthM":634.1,"gradientPct":0.0},"geometry":{"type":"LineString","coordinates":[[114.10416666666667,22.368],[114.11033333333333,22.368]]}},{"type":"Feature","properties":{"id":"kowloon-kwai-tsing:n0030->n0031:street","kind":"street","lengthM":634.1,"gradientPct":0.0},"geometry":{"type":"LineString","coordinates":[[114.11033333333333,22.368],[114.1165,22.368]]}},{"type":"Feature","properties":{"id":"kowloon-kwai-tsing:n0031->n0032:street","kind":"street","lengthM":634.1,"gradientPct":0.0},"geometry":{"type":"LineString","coordinates":[[114.1165,22.368],[114.12266666666667,22.368]]}},{"type":"Feature","properties":{"id":"kowloon-kwai-tsing:n0032->n0033:street","kind":"street","lengthM":634.1,"gradientPct":0.0},"geometry":{"type":"LineString","coordinates":[[114.12266666666667,22.368],[114.12883333333333,22.368]]}},{"type":"Feature","properties":{"id":"kowloon-kwai-tsing:n0033->n0034:street","kind":"street","lengthM":634.1,"gradientPct":0.0},"geometry":{"type":"LineString","coordinates":[[114.12883333333333,22.368],[114.135,22.368]]}},{"type":"Feature","properties":{"id":"kowloon-kwai-tsing:n0035->n0036:avenue","kind":"avenue","lengthM":634.1,"gradientPct":0.0},"geometry":{"type":"LineString","coordinates":[[114.098,22.372],[114.10416666666667,22.372]]}},{"type":"Feature","properties":{"id":"kowloon-kwai-tsing:n0036->n0037:avenue","kind":"avenue","lengthM":634.1,"gradientPct":0.0},"geometry":{"type":"LineString","coordinates":[[114.10416666666667,22.372],[114.11033333333333,22.372]]}},{"type":"Feature","properties":{"id":"kowloon-kwai-tsing:n0037->n0038:avenue","kind":"avenue","lengthM":634.1,"gradientPct":0.0},"geometry":{"type":"LineString","coordinates":[[114.11033333333333,22.372],[114.1165,22.372]]}},{"type":"Feature","properties":{"id":"kowloon-kwai-tsing:n0038->n0039:avenue","kind":"avenue","lengthM":634.1,"gradientPct":0.0},"geometry":{"type":"LineString","coordinates":[[114.1165,22.372],[114.12266666666667,22.372]]}},{"type":"Feature","properties":{"id":"kowloon-kwai-tsing:n0039->n0040:avenue","kind":"avenue","lengthM":634.1,"gradientPct":0.0},"geometry":{"type":"LineString","coordinates":[[114.12266666666667,22.372],[114.12883333333333,22.372]]}},{"type":"Feature","properties":{"id":"kowloon-kwai-tsing:n0040->n0041:avenue","kind":"avenue","lengthM":634.1,"gradientPct":0.0},"geometry":{"type":"LineString","coordinates":[[114.12883333333333,22.372],[114.135,22.372]]}},{"type":"Feature","properties":{"id":"kowloon-kwai-tsing:n0000->n0007:avenue","kind":"avenue","lengthM":444.8,"gradientPct":0.0},"geometry":{"type":"LineString","coordinates":[[114.098,22.352],[114.098,22.356]]}},{"type":"Feature","properties":{"id":"kowloon-kwai-tsing:n0007->n0014:avenue","kind":"avenue","lengthM":444.8,"gradientPct":0.0},"geometry":{"type":"LineString","coordinates":[[114.098,22.356],[114.098,22.36]]}},{"type":"Feature","properties":{"id":"kowloon-kwai-tsing:n0014->n0021:avenue","kind":"avenue","lengthM":444.8,"gradientPct":0.0},"geometry":{"type":"LineString","coordinates":[[114.098,22.36],[114.098,22.364]]}},{"type":"Feature","properties":{"id":"kowloon-kwai-tsing:n0021->n0028:avenue","kind":"avenue","lengthM":444.8,"gradientPct":0.0},"geometry":{"type":"LineString","coordinates":[[114.098,22.364],[114.098,22.368]]}},{"type":"Feature","properties":{"id":"kowloon-kwai-tsing:n0028->n0035:avenue","kind":"avenue","lengthM":444.8,"gradientPct":0.0},"geometry":{"type":"LineString","coordinates":[[114.098,22.368],[114.098,22.372]]}},{"type":"Feature","properties":{"id":"kowloon-kwai-tsing:n0001->n0008:street","kind":"street","lengthM":444.8,"gradientPct":0.0},"geometry":{"type":"LineString","coordinates":[[114.10416666666667,22.352],[114.10416666666667,22.356]]}},{"type":"Feature","properties":{"id":"kowloon-kwai-tsing:n0008->n0015:street","kind":"street","lengthM":444.8,"gradientPct":0.0},"geometry":{"type":"LineString","coordinates":[[114.10416666666667,22.356],[114.10416666666667,22.36]]}},{"type":"Feature","properties":{"id":"kowloon-kwai-tsing:n0015->n0022:street","kind":"street","lengthM":444.8,"gradientPct":0.0},"geometry":{"type":"LineString","coordinates":[[114.10416666666667,22.36],[114.10416666666667,22.364]]}},{"type":"Feature","properties":{"id":"kowloon-kwai-tsing:n0022->n0029:street","kind":"street","lengthM":444.8,"gradientPct":0.0},"geometry":{"type":"LineString","coordinates":[[114.10416666666667,22.364],[114.10416666666667,22.368]]}},{"type":"Feature","properties":{"id":"kowloon-kwai-tsing:n0029->n0036:street","kind":"street","lengthM":444.8,"gradientPct":0.0},"geometry":{"type":"LineString","coordinates":[[114.10416666666667,22.368],[114.10416666666667,22.372]]}},{"type":"Feature","properties":{"id":"kowloon-kwai-tsing:n0002->n0009:street","kind":"street","lengthM":444.8,"gradientPct":0.0},"geometry":{"type":"LineString","coordinates":[[114.11033333333333,22.352],[114.11033333333333,22.356]]}},{"type":"Feature","properties":{"id":"kowloon-kwai-tsing:n0009->n0016:street","kind":"street","lengthM":444.8,"gradientPct":0.0},"geometry":{"type":"LineString","coordinates":[[114.11033333333333,22.356],[114.11033333333333,22.36]]}},{"type":"Feature","properties":{"id":"kowloon-kwai-tsing:n0016->n0023:street","kind":"street","lengthM":444.8,"gradientPct":0.0},"geometry":{"type":"LineString","coordinates":[[114.11033333333333,22.36],[114.11033333333333,22.364]]}},{"type":"Feature","properties":{"id":"kowloon-kwai-tsing:n0023->n0030:street","kind":"street","lengthM":444.8,"gradientPct":0.0},"geometry":{"type":"LineString","coordinates":[[114.11033333333333,22.364],[114.11033333333333,22.368]]}},{"type":"Feature","properties":{"id":"kowloon-kwai-tsing:n0030->n0037:street","kind":"street","lengthM":444.8,"gradientPct":0.0},"geometry":{"type":"LineString","coordinates":[[114.11033333333333,22.368],[114.11033333333333,22.372]]}},{"type":"Feature","properties":{"id":"kowloon-kwai-tsing:n0003->n0010:street","kind":"street","lengthM":444.8,"gradientPct":0.0},"geometry":{"type":"LineString","coordinates":[[114.1165,22.352],[114.1165,22.356]]}},{"type":"Feature","properties":{"id":"kowloon-kwai-tsing:n0010->n0017:street","kind":"street","lengthM":444.8,"gradientPct":0.0},"geometry":{"type":"LineString","coordinates":[[114.1165,22.356],[114.1165,22.36]]}},{"type":"Feature","properties":{"id":"kowloon-kwai-tsing:n0017->n0024:street","kind":"street","lengthM":444.8,"gradientPct":0.0},"geometry":{"type":"LineString","coordinates":[[114.1165,22.36],[114.1165,22.364]]}},{"type":"Feature","properties":{"id":"kowloon-kwai-tsing:n0024->n0031:street","kind":"street","lengthM":444.8,"gradientPct":0.0},"geometry":{"type":"LineString","coordinates":[[114.1165,22.364],[114.1165,22.368]]}},{"type":"Feature","properties":{"id":"kowloon-kwai-tsing:n0031->n0038:street","kind":"street","lengthM":444.8,"gradientPct":0.0},"geometry":{"type":"LineString","coordinates":[[114.1165,22.368],[114.1165,22.372]]}},{"type":"Feature","properties":{"id":"kowloon-kwai-tsing:n0004->n0011:street","kind":"street","lengthM":444.8,"gradientPct":0.0},"geometry":{"type":"LineString","coordinates":[[114.12266666666667,22.352],[114.12266666666667,22.356]]}},{"type":"Feature","properties":{"id":"kowloon-kwai-tsing:n0011->n0018:street","kind":"street","lengthM":444.8,"gradientPct":0.0},"geometry":{"type":"LineString","coordinates":[[114.12266666666667,22.356],[114.12266666666667,22.36]]}},{"type":"Feature","properties":{"id":"kowloon-kwai-tsing:n0018->n0025:street","kind":"street","lengthM":444.8,"gradientPct":0.0},"geometry":{"type":"LineString","coordinates":[[114.12266666666667,22.36],[114.12266666666667,22.364]]}},{"type":"Feature","properties":{"id":"kowloon-kwai-tsing:n0025->n0032:street","kind":"street","lengthM":444.8,"gradientPct":0.0},"geometry":{"type":"LineString","coordinates":[[114.12266666666667,22.364],[114.12266666666667,22.368]]}},{"type":"Feature","properties":{"id":"kowloon-kwai-tsing:n0032->n0039:street","kind":"street","lengthM":444.8,"gradientPct":0.0},"geometry":{"type":"LineString","coordinates":[[114.12266666666667,22.368],[114.12266666666667,22.372]]}},{"type":"Feature","properties":{"id":"kowloon-kwai-tsing:n0005->n0012:street","kind":"street","lengthM":444.8,"gradientPct":0.0},"geometry":{"type":"LineString","coordinates":[[114.12883333333333,22.352],[114.12883333333333,22.356]]}},{"type":"Feature","properties":{"id":"kowloon-kwai-tsing:n0012->n0019:street","kind":"street","lengthM":444.8,"gradientPct":0.0},"geometry":{"type":"LineString","coordinates":[[114.12883333333333,22.356],[114.12883333333333,22.36]]}},{"type":"Feature","properties":{"id":"kowloon-kwai-tsing:n0019->n0026:street","kind":"street","lengthM":444.8,"gradientPct":0.0},"geometry":{"type":"LineString","coordinates":[[114.12883333333333,22.36],[114.12883333333333,22.364]]}},{"type":"Feature","properties":{"id":"kowloon-kwai-tsing:n0026->n0033:street","kind":"street","lengthM":444.8,"gradientPct":0.0},"geometry":{"type":"LineString","coordinates":[[114.12883333333333,22.364],[114.12883333333333,22.368]]}},{"type":"Feature","properties":{"id":"kowloon-kwai-tsing:n0033->n0040:street","kind":"street","lengthM":444.8,"gradientPct":0.0},"geometry":{"type":"LineString","coordinates":[[114.12883333333333,22.368],[114.12883333333333,22.372]]}},{"type":"Feature","properties":{"id":"kowloon-kwai-tsing:n0006->n0013:avenue","kind":"avenue","lengthM":444.8,"gradientPct":0.0},"geometry":{"type":"LineString","coordinates":[[114.135,22.352],[114.135,22.356]]}},{"type":"Feature","properties":{"id":"kowloon-kwai-tsing:n0013->n0020:avenue","kind":"avenue","lengthM":444.8,"gradientPct":0.0},"geometry":{"type":"LineString","coordinates":[[114.135,22.356],[114.135,22.36]]}},{"type":"Feature","properties":{"id":"kowloon-kwai-tsing:n0020->n0027:avenue","kind":"avenue","lengthM":444.8,"gradientPct":0.0},"geometry":{"type":"LineString","coordinates":[[114.135,22.36],[114.135,22.364]]}},{"type":"Feature","properties":{"id":"kowloon-kwai-tsing:n0027->n0034:avenue","kind":"avenue","lengthM":444.8,"gradientPct":0.0},"geometry":{"type":"LineString","coordinates":[[114.135,22.364],[114.135,22.368]]}},{"type":"Feature","properties":{"id":"kowloon-kwai-tsing:n0034->n0041:avenue","kind":"avenue","lengthM":444.8,"gradientPct":0.0},"geometry":{"type":"LineString","coordinates":[[114.135,22.368],[114.135,22.372]]}}]}