{"type":"FeatureCollection","features":[{"type":"Feature","properties":{"id":"central-western:n0000->n0001:avenue","kind":"avenue","lengthM":343.0,"gradientPct":0.0},"geometry":{"type":"LineString","coordinates":[[114.128,22.278],[114.13133333333333,22.278]]}},{"type":"Feature","properties":{"id":"central-western:n0001->n0002:avenue","kind":"avenue","lengthM":343.0,"gradientPct":0.0},"geometry":{"type":"LineString","coordinates":[[114.13133333333333,22.278],[114.13466666666666,22.278]]}},{"type":"Feature","properties":{"id":"central-western:n0002->n0003:avenue","kind":"avenue","lengthM":343.0,"gradientPct":0.0},"geometry":{"type":"LineString","coordinates":[[114.13466666666666,22.278],[114.138,22.278]]}},{"type":"Feature","properties":{"id":"central-western:n0003->n0004:avenue","kind":"avenue","lengthM":343.0,"gradientPct":0.0},"geometry":{"type":"LineString","coordinates":[[114.138,22.278],[114.14133333333334,22.278]]}},{"type":"Feature","properties":{"id":"central-western:n0004->n0005:avenue","kind":"avenue","lengthM":343.0,"gradientPct":0.0},"geometry":{"type":"LineString","coordinates":[[114.14133333333334,22.278],[114.14466666666667,22.278]]}},{"type":"Feature","properties":{"id":"central-western:n0005->n0006:avenue","kind":"avenue","lengthM":343.0,"gradientPct":0.0},"geometry":{"type":"LineString","coordinates":[[114.14466666666667,22.278],[114.148,22.278]]}},{"type":"Feature","properties":{"id":"central-western:n0007->n0008:street","kind":"street","lengthM":343.0,"gradientPct":0.0},"geometry":{"type":"LineString","coordinates":[[114.128,22.2808],[114.13133333333333,22.2808]]}},{"type":"Feature","properties":{"id":"central-western:n0008->n0009:street","kind":"street","lengthM":343.0,"gradientPct":0.0},"geometry":{"type":"LineString","coordinates":[[114.13133333333333,22.2808],[114.13466666666666,22.2808]]}},{"type":"Feature","properties":{"id":"central-western:n0009->n0010:street","kind":"street","lengthM":343.0,"gradientPct":0.0},"geometry":{"type":"LineString","coordinates":[[114.13466666666666,22.2808],[114.138,22.2808]]}},{"type":"Feature","properties":{"id":"central-western:n0010->n0011:street","kind":"street","lengthM":343.0,"gradientPct":0.0},"geometry":{"type":"LineString","coordinates":[[114.138,22.2808],[114.14133333333334,22.2808]]}},{"type":"Feature","properties":{"id":"central-western:n0011->n0012:street","kind":"street","lengthM":343.0,"gradientPct":0.0},"geometry":{"type":"LineString","coordinates":[[114.14133333333334,22.2808],[114.14466666666667,22.2808]]}},{"type":"Feature","properties":{"id":"central-western:n0012->n0013:street","kind":"street","lengthM":343.0,"gradientPct":0.0},"geometry":{"type":"LineString","coordinates":[[114.14466666666667,22.2808],[114.148,22.2808]]}},{"type":"Feature","properties":{"id":"central-western:n0014->n0015:street","kind":"street","lengthM":343.0,"gradientPct":0.0},"geometry":{"type":"LineString","coordinates":[[114.128,22.2836],[114.13133333333333,22.2836]]}},{"type":"Feature","properties":{"id":"central-western:n0015->n0016:street","kind":"street","lengthM":343.0,"gradientPct":0.0},"geometry":{"type":"LineString","coordinates":[[114.13133333333333,22.2836],[114.13466666666666,22.2836]]}},{"type":"Feature","properties":{"id":"central-western:n0016->n0017:street","kind":"street","lengthM":343.0,"gradientPct":0.0},"geometry":{"type":"LineString","coordinates":[[114.13466666666666,22.2836],[114.138,22.2836]]}},{"type":"Feature","properties":{"id":"central-western:n0017->n0018:street","kind":"street","lengthM":343.0,"gradientPct":0.0},"geometry":{"type":"LineString","coordinates":[[114.138,22.2836],[114.14133333333334,22.2836]]}},{"type":"Feature","properties":{"id":"central-western:n0018->n0019:street","kind":"street","lengthM":343.0,"gradientPct":0.0},"geometry":{"type":"LineString","coordinates":[[114.14133333333334,22.2836],[114.14466666666667,22.2836]]}},{"type":"Feature","properties":{"id":"central-western:n0019->n0020:street","kind":"street","lengthM":343.0,"gradientPct":0.0},"geometry":{"type":"LineString","coordinates":[[114.14466666666667,22.2836],[114.148,22.2836]]}},{"type":"Feature","properties":{"id":"central-western:n0021->n0022:street","kind":"street","lengthM":343.0,"gradientPct":0.0},"geometry":{"type":"LineString","coordinates":[[114.128,22.2864],[114.13133333333333,22.2864]]}},{"type":"Feature","properties":{"id":"central-western:n0022->n0023:street","kind":"street","lengthM":343.0,"gradientPct":0.0},"geometry":{"type":"LineString","coordinates":[[114.13133333333333,22.2864],[114.13466666666666,22.2864]]}},{"type":"Feature","properties":{"id":"central-western:n0023->n0024:street","kind":"street","lengthM":343.0,"gradientPct":0.0},"geometry":{"type":"LineString","coordinates":[[114.13466666666666,22.2864],[114.138,22.2864]]}},{"type":"Feature","properties":{"id":"central-western:n0024->n0025:street","kind":"street","lengthM":343.0,"gradientPct":0.0},"geometry":{"type":"LineString","coordinates":[[114.138,22.2864],[114.14133333333334,22.2864]]}},{"type":"Feature","properties":{"id":"central-western:n0025->n0026:street","kind":"street","lengthM":343.0,"gradientPct":0.0},"geometry":{"type":"LineString","coordinates":[[114.14133333333334,22.2864],[114.14466666666667,22.2864]]}},{"type":"Feature","properties":{"id":"central-western:n0026->n0027:street","kind":"street","lengthM":343.0,"gradientPct":0.0},"geometry":{"type":"LineString","coordinates":[[114.14466666666667,22.2864],[114.148,22.2864]]}},{"type":"Feature","properties":{"id":"central-western:n0028->n0029:lane","kind":"lane","lengthM":343.0,"gradientPct":0.0,"greenLane":true},"geometry":{"type":"LineString","coordinates":[[114.128,22.2892],[114.13133333333333,22.2892]]}},{"type":"Feature","properties":{"id":"central-western:n0029->n0030:lane","kind":"lane","lengthM":343.0,"gradientPct":0.0,"greenLane":true},"geometry":{"type":"LineString","coordinates":[[114.13133333333333,22.2892],[114.13466666666666,22.2892]]}},{"type":"Feature","properties":{"id":"central-western:n0030->n0031:lane","kind":"lane","lengthM":343.0,"gradientPct":0.0,"greenLane":true},"geometry":{"type":"LineString","coordinates":[[114.13466666666666,22.2892],[114.138,22.2892]]}},{"type":"Feature","properties":{"id":"central-western:n0031->n0032:lane","kind":"lane","lengthM":343.0,"gradientPct":0.0,"greenLane":true},"geometry":{"type":"LineString","coordinates":[[114.138,22.2892],[114.14133333333334,22.2892]]}},{"type":"Feature","properties":{"id":"central-western:n0032->n0033:lane","kind":"lane","lengthM":343.0,"gradientPct":0.0,"greenLane":true},"geometry":{"type":"LineString","coordinates":[[114.14133333333334,22.2892],[114.14466666666667,22.2892]]}},{"type":"Feature","properties":{"id":"central-western:n0033->n0034:lane","kind":"lane","lengthM":343.0,"gradientPct":0.0,"greenLane":true},"geometry":{"type":"LineString","coordinates":[[114.14466666666667,22.2892],[114.148,22.2892]]}},{"type":"Feature","properties":{"id":"central-western:n0035->n0036:avenue","kind":"avenue","lengthM":342.9,"gradientPct":0.0},"geometry":{"type":"LineString","coordinates":[[114.128,22.292],[114.13133333333333,22.292]]}},{"type":"Feature","properties":{"id":"central-western:n0036->n0037:avenue","kind":"avenue","lengthM":342.9,"gradientPct":0.0},"geometry":{"type":"LineString","coordinates":[[114.13133333333333,22.292],[114.13466666666666,22.292]]}},{"type":"Feature","properties":{"id":"central-western:n0037->n0038:avenue","kind":"avenue","lengthM":342.9,"gradientPct":0.0},"geometry":{"type":"LineString","coordinates":[[114.13466666666666,22.292],[114.138,22.292]]}},{"type":"Feature","properties":{"id":"central-western:n0038->n0039:avenue","kind":"avenue","lengthM":342.9,"gradientPct":0.0},"geometry":{"type":"LineString","coordinates":[[114.138,22.292],[114.14133333333334,22.292]]}},{"type":"Feature","properties":{"id":"central-western:n0039->n0040:avenue","kind":"avenue","lengthM":342.9,"gradientPct":0.0},"geometry":{"type":"LineString","coordinates":[[114.14133333333334,22.292],[114.14466666666667,22.292]]}},{"type":"Feature","properties":{"id":"central-western:n0040->n0041:avenue","kind":"avenue","lengthM":342.9,"gradientPct":0.0},"geometry":{"type":"LineString","coordinates":[[114.14466666666667,22.292],[114.148,22.292]]}},{"type":"Feature","properties":{"id":"central-western:n0000->n0007:avenue","kind":"avenue","lengthM":311.3,"gradientPct":0.0},"geometry":{"type":"LineString","coordinates":[[114.128,22.278],[114.128,22.2808]]}},{"type":"Feature","properties":{"id":"central-western:n0007->n0014:avenue","kind":"avenue","lengthM":311.3,"gradientPct":0.0},"geometry":{"type":"LineString","coordinates":[[114.128,22.2808],[114.128,22.2836]]}},{"type":"Feature","properties":{"id":"central-western:n0014->n0021:avenue","kind":"avenue","lengthM":311.3,"gradientPct":0.0},"geometry":{"type":"LineString","coordinates":[[114.128,22.2836],[114.128,22.2864]]}},{"type":"Feature","properties":{"id":"central-western:n0021->n0028:avenue","kind":"avenue","lengthM":311.3,"gradientPct":0.0},"geometry":{"type":"LineString","coordinates":[[114.128,22.2864],[114.128,22.2892]]}},{"type":"Feature","properties":{"id":"central-western:n0028->n0035:avenue","kind":"avenue","lengthM":311.3,"gradientPct":0.0},"geometry":{"type":"LineString","coordinates":[[114.128,22.2892],[114.128,22.292]]}},{"type":"Feature","properties":{"id":"central-western:n0001->n0008:street","kind":"street","lengthM":311.3,"gradientPct":0.0},"geometry":{"type":"LineString","coordinates":[[114.13133333333333,22.278],[114.13133333333333,22.2808]]}},{"type":"Feature","properties":{"id":"central-western:n0008->n0015:street","kind":"street","lengthM":311.3,"gradientPct":0.0},"geometry":{"type":"LineString","coordinates":[[114.13133333333333,22.2808],[114.13133333333333,22.2836]]}},{"type":"Feature","properties":{"id":"central-western:n0015->n0022:street","kind":"street","lengthM":311.3,"gradientPct":0.0},"geometry":{"type":"LineString","coordinates":[[114.13133333333333,22.2836],[114.13133333333333,22.2864]]}},{"type":"Feature","properties":{"id":"central-western:n0022->n0029:street","kind":"street","lengthM":311.3,"gradientPct":0.0},"geometry":{"type":"LineString","coordinates":[[114.13133333333333,22.2864],[114.13133333333333,22.2892]]}},{"type":"Feature","properties":{"id":"central-western:n0029->n0036:street","kind":"street","lengthM":311.3,"gradientPct":0.0},"geometry":{"type":"LineString","coordinates":[[114.13133333333333,22.2892],[114.13133333333333,22.292]]}},{"type":"Feature","properties":{"id":"central-western:n0002->n0009:street","kind":"street","lengthM":311.3,"gradientPct":0.0},"geometry":{"type":"LineString","coordinates":[[114.13466666666666,22.278],[114.13466666666666,22.2808]]}},{"type":"Feature","properties":{"id":"central-western:n0009->n0016:street","kind":"street","lengthM":311.3,"gradientPct":0.0},"geometry":{"type":"LineString","coordinates":[[114.13466666666666,22.2808],[114.13466666666666,22.2836]]}},{"type":"Feature","properties":{"id":"central-western:n0016->n0023:street","kind":"street","lengthM":311.3,"gradientPct":0.0},"geometry":{"type":"LineString","coordinates":[[114.13466666666666,22.2836],[114.13466666666666,22.2864]]}},{"type":"Feature","properties":{"id":"central-western:n0023->n0030:street","kind":"street","lengthM":311.3,"gradientPct":0.0},"geometry":{"type":"LineString","coordinates":[[114.13466666666666,22.2864],[114.13466666666666,22.2892]]}},{"type":"Feature","properties":{"id":"central-western:n0030->n0037:street","kind":"street","lengthM":311.3,"gradientPct":0.0},"geometry":{"type":"LineString","coordinates":[[114.13466666666666,22.2892],[114.13466666666666,22.292]]}},{"type":"Feature","properties":{"id":"central-western:n0003->n0010:street","kind":"street","lengthM":311.3,"gradientPct":0.0},"geometry":{"type":"LineString","coordinates":[[114.138,22.278],[114.138,22.2808]]}},{"type":"Feature","properties":{"id":"central-western:n0010->n0017:street","kind":"street","lengthM":311.3,"gradientPct":0.0},"geometry":{"type":"LineString","coordinates":[[114.138,22.2808],[114.138,22.2836]]}},{"type":"Feature","properties":{"id":"central-western:n0017->n0024:street","kind":"street","lengthM":311.3,"gradientPct":0.0},"geometry":{"type":"LineString","coordinates":[[114.138,22.2836],[114.138,22.2864]]}},{"type":"Feature","properties":{"id":"central-western:n0024->n0031:street","kind":"street","lengthM":311.3,"gradientPct":0.0},"geometry":{"type":"LineString","coordinates":[[114.138,22.2864],[114.138,22.2892]]}},{"type":"Feature","properties":{"id":"central-western:n0031->n0038:street","kind":"street","lengthM":311.3,"gradientPct":0.0},"geometry":{"type":"LineString","coordinates":[[114.138,22.2892],[114.138,22.292]]}},{"type":"Feature","properties":{"id":"central-western:n0004->n0011:street","kind":"street","lengthM":311.3,"gradientPct":0.0},"geometry":{"type":"LineString","coordinates":[[114.14133333333334,22.278],[114.14133333333334,22.2808]]}},{"type":"Feature","properties":{"id":"central-western:n0011->n0018:street","kind":"street","lengthM":311.3,"gradientPct":0.0},"geometry":{"type":"LineString","coordinates":[[114.14133333333334,22.2808],[114.14133333333334,22.2836]]}},{"type":"Feature","properties":{"id":"central-western:n0018->n0025:street","kind":"street","lengthM":311.3,"gradientPct":0.0},"geometry":{"type":"LineString","coordinates":[[114.14133333333334,22.2836],[114.14133333333334,22.2864]]}},{"type":"Feature","properties":{"id":"central-western:n0025->n0032:street","kind":"street","lengthM":311.3,"gradientPct":0.0},"geometry":{"type":"LineString","coordinates":[[114.14133333333334,22.2864],[114.14133333333334,22.2892]]}},{"type":"Feature","properties":{"id":"central-western:n0032->n0039:street","kind":"street","lengthM":311.3,"gradientPct":0.0},"geometry":{"type":"LineString","coordinates":[[114.14133333333334,22.2892],[114.14133333333334,22.292]]}},{"type":"Feature","properties":{"id":"central-western:n0005->n0012:street","kind":"street","lengthM":311.3,"gradientPct":0.0},"geometry":{"type":"LineString","coordinates":[[114.14466666666667,22.278],[114.14466666666667,22.2808]]}},{"type":"Feature","properties":{"id":"central-western:n0012->n0019:street","kind":"street","lengthM":311.3,"gradientPct":0.0},"geometry":{"type":"LineString","coordinates":[[114.14466666666667,22.2808],[114.14466666666667,22.2836]]}},{"type":"Feature","properties":{"id":"central-western:n0019->n0026:street","kind":"street","lengthM":311.3,"gradientPct":0.0},"geometry":{"type":"LineString","coordinates":[[114.14466666666667,22.2836],[114.14466666666667,22.2864]]}},{"type":"Feature","properties":{"id":"central-western:n0026->n0033:street","kind":"street","lengthM":311.3,"gradientPct":0.0},"geometry":{"type":"LineString","coordinates":[[114.14466666666667,22.2864],[114.14466666666667,22.2892]]}},{"type":"Feature","properties":{"id":"central-western:n0033->n0040:street","kind":"street","lengthM":311.3,"gradientPct":0.0},"geometry":{"type":"LineString","coordinates":[[114.14466666666667,22.2892],[114.14466666666667,22.292]]}},{"type":"Feature","properties":{"id":"central-western:n0006->n0013:avenue","kind":"avenue","lengthM":311.3,"gradientPct":0.0},"geometry":{"type":"LineString","coordinates":[[114.148,22.278],[114.148,22.2808]]}},{"type":"Feature","properties":{"id":"central-western:n0013->n0020:avenue","kind":"avenue","lengthM":311.3,"gradientPct":0.0},"geometry":{"type":"LineString","coordinates":[[114.148,22.2808],[114.148,22.2836]]}},{"type":"Feature","properties":{"id":"central-western:n0020->n0027:avenue","kind":"avenue","lengthM":311.3,"gradientPct":0.0},"geometry":{"type":"LineString","coordinates":[[114.148,22.2836],[114.148,22.2864]]}},{"type":"Feature","properties":{"id":"central-western:n0027->n0034:avenue","kind":"avenue","lengthM":311.3,"gradientPct":0.0},"geometry":{"type":"LineString","coordinates":[[114.148,22.2864],[114.148,22.2892]]}},{"type":"Feature","properties":{"id":"central-western:n0034->n0041:avenue","kind":"avenue","lengthM":311.3,"gradientPct":0.0},"geometry":{"type":"LineString","coordinates":[[114.148,22.2892],[114.148,22.292]]}},{"type":"Feature","properties":{"id":"central-western:n0008->n0033:lane","kind":"lane","lengthM":1659.6,"gradientPct":0.0,"greenLane":true},"geometry":{"type":"LineString","coordinates":[[114.13133333333333,22.2808],[114.14466666666667,22.2892]]}}]}