{"type":"FeatureCollection","features":[{"type":"Feature","properties":{"id":"kowloon-yau-tsim:n0000->n0001:avenue","kind":"avenue","lengthM":274.4,"gradientPct":0.0},"geometry":{"type":"LineString","coordinates":[[114.164,22.296],[114.16666666666667,22.296]]}},{"type":"Feature","properties":{"id":"kowloon-yau-tsim:n0001->n0002:avenue","kind":"avenue","lengthM":274.4,"gradientPct":0.0},"geometry":{"type":"LineString","coordinates":[[114.16666666666667,22.296],[114.16933333333334,22.296]]}},{"type":"Feature","properties":{"id":"kowloon-yau-tsim:n0002->n0003:avenue","kind":"avenue","lengthM":274.4,"gradientPct":0.0},"geometry":{"type":"LineString","coordinates":[[114.16933333333334,22.296],[114.172,22.296]]}},{"type":"Feature","properties":{"id":"kowloon-yau-tsim:n0003->n0004:avenue","kind":"avenue","lengthM":274.4,"gradientPct":0.0},"geometry":{"type":"LineString","coordinates":[[114.172,22.296],[114.17466666666667,22.296]]}},{"type":"Feature","properties":{"id":"kowloon-yau-tsim:n0004->n0005:avenue","kind":"avenue","lengthM":274.4,"gradientPct":0.0},"geometry":{"type":"LineString","coordinates":[[114.17466666666667,22.296],[114.17733333333334,22.296]]}},{"type":"Feature","properties":{"id":"kowloon-yau-tsim:n0005->n0006:avenue","kind":"avenue","lengthM":274.4,"gradientPct":0.0},"geometry":{"type":"LineString","coordinates":[[114.17733333333334,22.296],[114.18,22.296]]}},{"type":"Feature","properties":{"id":"kowloon-yau-tsim:n0007->n0008:street","kind":"street","lengthM":274.3,"gradientPct":0.0},"geometry":{"type":"LineString","coordinates":[[114.164,22.3018],[114.16666666666667,22.3018]]}},{"type":"Feature","properties":{"id":"kowloon-yau-tsim:n0008->n0009:street","kind":"street","lengthM":274.3,"gradientPct":0.0},"geometry":{"type":"LineString","coordinates":[[114.16666666666667,22.3018],[114.16933333333334,22.3018]]}},{"type":"Feature","properties":{"id":"kowloon-yau-tsim:n0009->n0010:street","kind":"street","lengthM":274.3,"gradientPct":0.0},"geometry":{"type":"LineString","coordinates":[[114.16933333333334,22.3018],[114.172,22.3018]]}},{"type":"Feature","properties":{"id":"kowloon-yau-tsim:n0010->n0011:street","kind":"street","lengthM":274.3,"gradientPct":0.0},"geometry":{"type":"LineString","coordinates":[[114.172,22.3018],[114.17466666666667,22.3018]]}},{"type":"Feature","properties":{"id":"kowloon-yau-tsim:n0011->n0012:street","kind":"street","lengthM":274.3,"gradientPct":0.0},"geometry":{"type":"LineString","coordinates":[[114.17466666666667,22.3018],[114.17733333333334,22.3018]]}},{"type":"Feature","properties":{"id":"kowloon-yau-tsim:n0012->n0013:street","kind":"street","lengthM":274.3,"gradientPct":0.0},"geometry":{"type":"LineString","coordinates":[[114.17733333333334,22.3018],[114.18,22.3018]]}},{"type":"Feature","properties":{"id":"kowloon-yau-tsim:n0014->n0015:street","kind":"street","lengthM":274.3,"gradientPct":0.0},"geometry":{"type":"LineString","coordinates":[[114.164,22.3076],[114.16666666666667,22.3076]]}},{"type":"Feature","properties":{"id":"kowloon-yau-tsim:n0015->n0016:street","kind":"street","lengthM":274.3,"gradientPct":0.0},"geometry":{"type":"LineString","coordinates":[[114.16666666666667,22.3076],[114.16933333333334,22.3076]]}},{"type":"Feature","properties":{"id":"kowloon-yau-tsim:n0016->n0017:street","kind":"street","lengthM":274.3,"gradientPct":0.0},"geometry":{"type":"LineString","coordinates":[[114.16933333333334,22.3076],[114.172,22.3076]]}},{"type":"Feature","properties":{"id":"kowloon-yau-tsim:n0017->n0018:street","kind":"street","lengthM":274.3,"gradientPct":0.0},"geometry":{"type":"LineString","coordinates":[[114.172,22.3076],[114.17466666666667,22.3076]]}},{"type":"Feature","properties":{"id":"kowloon-yau-tsim:n0018->n0019:street","kind":"street","lengthM":274.3,"gradientPct":0.0},"geometry":{"type":"LineString","coordinates":[[114.17466666666667,22.3076],[114.17733333333334,22.3076]]}},{"type":"Feature","properties":{"id":"kowloon-yau-tsim:n0019->n0020:street","kind":"street","lengthM":274.3,"gradientPct":0.0},"geometry":{"type":"LineString","coordinates":[[114.17733333333334,22.3076],[114.18,22.3076]]}},{"type":"Feature","properties":{"id":"kowloon-yau-tsim:n0021->n0022:street","kind":"street","lengthM":274.3,"gradientPct":0.0},"geometry":{"type":"LineString","coordinates":[[114.164,22.313399999999998],[114.16666666666667,22.313399999999998]]}},{"type":"Feature","properties":{"id":"kowloon-yau-tsim:n0022->n0023:street","kind":"street","lengthM":274.3,"gradientPct":0.0},"geometry":{"type":"LineString","coordinates":[[114.16666666666667,22.313399999999998],[114.16933333333334,22.313399999999998]]}},{"type":"Feature","properties":{"id":"kowloon-yau-tsim:n0023->n0024:street","kind":"street","lengthM":274.3,"gradientPct":0.0},"geometry":{"type":"LineString","coordinates":[[114.16933333333334,22.313399999999998],[114.172,22.313399999999998]]}},{"type":"Feature","properties":{"id":"kowloon-yau-tsim:n0024->n0025:street","kind":"street","lengthM":274.3,"gradientPct":0.0},"geometry":{"type":"LineString","coordinates":[[114.172,22.313399999999998],[114.17466666666667,22.313399999999998]]}},{"type":"Feature","properties":{"id":"kowloon-yau-tsim:n0025->n0026:street","kind":"street","lengthM":274.3,"gradientPct":0.0},"geometry":{"type":"LineString","coordinates":[[114.17466666666667,22.313399999999998],[114.17733333333334,22.313399999999998]]}},{"type":"Feature","properties":{"id":"kowloon-yau-tsim:n0026->n0027:street","kind":"street","lengthM":274.3,"gradientPct":0.0},"geometry":{"type":"LineString","coordinates":[[114.17733333333334,22.313399999999998],[114.18,22.313399999999998]]}},{"type":"Feature","properties":{"id":"kowloon-yau-tsim:n0028->n0029:lane","kind":"lane","lengthM":274.3,"gradientPct":0.0,"greenLane":true},"geometry":{"type":"LineString","coordinates":[[114.164,22.3192],[114.16666666666667,22.3192]]}},{"type":"Feature","properties":{"id":"kowloon-yau-tsim:n0029->n0030:lane","kind":"lane","lengthM":274.3,"gradientPct":0.0,"greenLane":true},"geometry":{"type":"LineString","coordinates":[[114.16666666666667,22.3192],[114.16933333333334,22.3192]]}},{"type":"Feature","properties":{"id":"kowloon-yau-tsim:n0030->n0031:lane","kind":"lane","lengthM":274.3,"gradientPct":0.0,"greenLane":true},"geometry":{"type":"LineString","coordinates":[[114.16933333333334,22.3192],[114.172,22.3192]]}},{"type":"Feature","properties":{"id":"kowloon-yau-tsim:n0031->n0032:lane","kind":"lane","lengthM":274.3,"gradientPct":0.0,"greenLane":true},"geometry":{"type":"LineString","coordinates":[[114.172,22.3192],[114.17466666666667,22.3192]]}},{"type":"Feature","properties":{"id":"kowloon-yau-tsim:n0032->n0033:lane","kind":"lane","lengthM":274.3,"gradientPct":0.0,"greenLane":true},"geometry":{"type":"LineString","coordinates":[[114.17466666666667,22.3192],[114.17733333333334,22.3192]]}},{"type":"Feature","properties":{"id":"kowloon-yau-tsim:n0033->n0034:lane","kind":"lane","lengthM":274.3,"gradientPct":0.0,"greenLane":true},"geometry":{"type":"LineString","coordinates":[[114.17733333333334,22.3192],[114.18,22.3192]]}},{"type":"Feature","properties":{"id":"kowloon-yau-tsim:n0035->n0036:avenue","kind":"avenue","lengthM":274.3,"gradientPct":0.0},"geometry":{"type":"LineString","coordinates":[[114.164,22.325],[114.16666666666667,22.325]]}},{"type":"Feature","properties":{"id":"kowloon-yau-tsim:n0036->n0037:avenue","kind":"avenue","lengthM":274.3,"gradientPct":0.0},"geometry":{"type":"LineString","coordinates":[[114.16666666666667,22.325],[114.16933333333334,22.325]]}},{"type":"Feature","properties":{"id":"kowloon-yau-tsim:n0037->n0038:avenue","kind":"avenue","lengthM":274.3,"gradientPct":0.0},"geometry":{"type":"LineString","coordinates":[[114.16933333333334,22.325],[114.172,22.325]]}},{"type":"Feature","properties":{"id":"kowloon-yau-tsim:n0038->n0039:avenue","kind":"avenue","lengthM":274.3,"gradientPct":0.0},"geometry":{"type":"LineString","coordinates":[[114.172,22.325],[114.17466666666667,22.325]]}},{"type":"Feature","properties":{"id":"kowloon-yau-tsim:n0039->n0040:avenue","kind":"avenue","lengthM":274.3,"gradientPct":0.0},"geometry":{"type":"LineString","coordinates":[[114.17466666666667,22.325],[114.17733333333334,22.325]]}},{"type":"Feature","properties":{"id":"kowloon-yau-tsim:n0040->n0041:avenue","kind":"avenue","lengthM":274.3,"gradientPct":0.0},"geometry":{"type":"LineString","coordinates":[[114.17733333333334,22.325],[114.18,22.325]]}},{"type":"Feature","properties":{"id":"kowloon-yau-tsim:n0000->n0007:avenue","kind":"avenue","lengthM":644.9,"gradientPct":0.0},"geometry":{"type":"LineString","coordinates":[[114.164,22.296],[114.164,22.3018]]}},{"type":"Feature","properties":{"id":"kowloon-yau-tsim:n0007->n0014:avenue","kind":"avenue","lengthM":644.9,"gradientPct":0.0},"geometry":{"type":"LineString","coordinates":[[114.164,22.3018],[114.164,22.3076]]}},{"type":"Feature","properties":{"id":"kowloon-yau-tsim:n0014->n0021:avenue","kind":"avenue","lengthM":644.9,"gradientPct":0.0},"geometry":{"type":"LineString","coordinates":[[114.164,22.3076],[114.164,22.313399999999998]]}},{"type":"Feature","properties":{"id":"kowloon-yau-tsim:n0021->n0028:avenue","kind":"avenue","lengthM":644.9,"gradientPct":0.0},"geometry":{"type":"LineString","coordinates":[[114.164,22.313399999999998],[114.164,22.3192]]}},{"type":"Feature","properties":{"id":"kowloon-yau-tsim:n0028->n0035:avenue","kind":"avenue","lengthM":644.9,"gradientPct":0.0},"geometry":{"type":"LineString","coordinates":[[114.164,22.3192],[114.164,22.325]]}},{"type":"Feature","properties":{"id":"kowloon-yau-tsim:n0001->n0008:street","kind":"street","lengthM":644.9,"gradientPct":0.0},"geometry":{"type":"LineString","coordinates":[[114.16666666666667,22.296],[114.16666666666667,22.3018]]}},{"type":"Feature","properties":{"id":"kowloon-yau-tsim:n0008->n0015:street","kind":"street","lengthM":644.9,"gradientPct":0.0},"geometry":{"type":"LineString","coordinates":[[114.16666666666667,22.3018],[114.16666666666667,22.3076]]}},{"type":"Feature","properties":{"id":"kowloon-yau-tsim:n0015->n0022:street","kind":"street","lengthM":644.9,"gradientPct":0.0},"geometry":{"type":"LineString","coordinates":[[114.16666666666667,22.3076],[114.16666666666667,22.313399999999998]]}},{"type":"Feature","properties":{"id":"kowloon-yau-tsim:n0022->n0029:street","kind":"street","lengthM":644.9,"gradientPct":0.0},"geometry":{"type":"LineString","coordinates":[[114.16666666666667,22.313399999999998],[114.16666666666667,22.3192]]}},{"type":"Feature","properties":{"id":"kowloon-yau-tsim:n0029->n0036:street","kind":"street","lengthM":644.9,"gradientPct":0.0},"geometry":{"type":"LineString","coordinates":[[114.16666666666667,22.3192],[114.16666666666667,22.325]]}},{"type":"Feature","properties":{"id":"kowloon-yau-tsim:n0002->n0009:street","kind":"street","lengthM":644.9,"gradientPct":0.0},"geometry":{"type":"LineString","coordinates":[[114.16933333333334,22.296],[114.16933333333334,22.3018]]}},{"type":"Feature","properties":{"id":"kowloon-yau-tsim:n0009->n0016:street","kind":"street","lengthM":644.9,"gradientPct":0.0},"geometry":{"type":"LineString","coordinates":[[114.16933333333334,22.3018],[114.16933333333334,22.3076]]}},{"type":"Feature","properties":{"id":"kowloon-yau-tsim:n0016->n0023:street","kind":"street","lengthM":644.9,"gradientPct":0.0},"geometry":{"type":"LineString","coordinates":[[114.16933333333334,22.3076],[114.16933333333334,22.313399999999998]]}},{"type":"Feature","properties":{"id":"kowloon-yau-tsim:n0023->n0030:street","kind":"street","lengthM":644.9,"gradientPct":0.0},"geometry":{"type":"LineString","coordinates":[[114.16933333333334,22.313399999999998],[114.16933333333334,22.3192]]}},{"type":"Feature","properties":{"id":"kowloon-yau-tsim:n0030->n0037:street","kind":"street","lengthM":644.9,"gradientPct":0.0},"geometry":{"type":"LineString","coordinates":[[114.16933333333334,22.3192],[114.16933333333334,22.325]]}},{"type":"Feature","properties":{"id":"kowloon-yau-tsim:n0003->n0010:street","kind":"street","lengthM":644.9,"gradientPct":0.0},"geometry":{"type":"LineString","coordinates":[[114.172,22.296],[114.172,22.3018]]}},{"type":"Feature","properties":{"id":"kowloon-yau-tsim:n0010->n0017:street","kind":"street","lengthM":644.9,"gradientPct":0.0},"geometry":{"type":"LineString","coordinates":[[114.172,22.3018],[114.172,22.3076]]}},{"type":"Feature","properties":{"id":"kowloon-yau-tsim:n0017->n0024:street","kind":"street","lengthM":644.9,"gradientPct":0.0},"geometry":{"type":"LineString","coordinates":[[114.172,22.3076],[114.172,22.313399999999998]]}},{"type":"Feature","properties":{"id":"kowloon-yau-tsim:n0024->n0031:street","kind":"street","lengthM":644.9,"gradientPct":0.0},"geometry":{"type":"LineString","coordinates":[[114.172,22.313399999999998],[114.172,22.3192]]}},{"type":"Feature","properties":{"id":"kowloon-yau-tsim:n0031->n0038:street","kind":"street","lengthM":644.9,"gradientPct":0.0},"geometry":{"type":"LineString","coordinates":[[114.172,22.3192],[114.172,22.325]]}},{"type":"Feature","properties":{"id":"kowloon-yau-tsim:n0004->n0011:street","kind":"street","lengthM":644.9,"gradientPct":0.0},"geometry":{"type":"LineString","coordinates":[[114.17466666666667,22.296],[114.17466666666667,22.3018]]}},{"type":"Feature","properties":{"id":"kowloon-yau-tsim:n0011->n0018:street","kind":"street","lengthM":644.9,"gradientPct":0.0},"geometry":{"type":"LineString","coordinates":[[114.17466666666667,22.3018],[114.17466666666667,22.3076]]}},{"type":"Feature","properties":{"id":"kowloon-yau-tsim:n0018->n0025:street","kind":"street","lengthM":644.9,"gradientPct":0.0},"geometry":{"type":"LineString","coordinates":[[114.17466666666667,22.3076],[114.17466666666667,22.313399999999998]]}},{"type":"Feature","properties":{"id":"kowloon-yau-tsim:n0025->n0032:street","kind":"street","lengthM":644.9,"gradientPct":0.0},"geometry":{"type":"LineString","coordinates":[[114.17466666666667,22.313399999999998],[114.17466666666667,22.3192]]}},{"type":"Feature","properties":{"id":"kowloon-yau-tsim:n0032->n0039:street","kind":"street","lengthM":644.9,"gradientPct":0.0},"geometry":{"type":"LineString","coordinates":[[114.17466666666667,22.3192],[114.17466666666667,22.325]]}},{"type":"Feature","properties":{"id":"kowloon-yau-tsim:n0005->n0012:street","kind":"street","lengthM":644.9,"gradientPct":0.0},"geometry":{"type":"LineString","coordinates":[[114.17733333333334,22.296],[114.17733333333334,22.3018]]}},{"type":"Feature","properties":{"id":"kowloon-yau-tsim:n0012->n0019:street","kind":"street","lengthM":644.9,"gradientPct":0.0},"geometry":{"type":"LineString","coordinates":[[114.17733333333334,22.3018],[114.17733333333334,22.3076]]}},{"type":"Feature","properties":{"id":"kowloon-yau-tsim:n0019->n0026:street","kind":"street","lengthM":644.9,"gradientPct":0.0},"geometry":{"type":"LineString","coordinates":[[114.17733333333334,22.3076],[114.17733333333334,22.313399999999998]]}},{"type":"Feature","properties":{"id":"kowloon-yau-tsim:n0026->n0033:street","kind":"street","lengthM":644.9,"gradientPct":0.0},"geometry":{"type":"LineString","coordinates":[[114.17733333333334,22.313399999999998],[114.17733333333334,22.3192]]}},{"type":"Feature","properties":{"id":"kowloon-yau-tsim:n0033->n0040:street","kind":"street","lengthM":644.9,"gradientPct":0.0},"geometry":{"type":"LineString","coordinates":[[114.17733333333334,22.3192],[114.17733333333334,22.325]]}},{"type":"Feature","properties":{"id":"kowloon-yau-tsim:n0006->n0013:avenue","kind":"avenue","lengthM":644.9,"gradientPct":0.0},"geometry":{"type":"LineString","coordinates":[[114.18,22.296],[114.18,22.3018]]}},{"type":"Feature","properties":{"id":"kowloon-yau-tsim:n0013->n0020:avenue","kind":"avenue","lengthM":644.9,"gradientPct":0.0},"geometry":{"type":"LineString","coordinates":[[114.18,22.3018],[114.18,22.3076]]}},{"type":"Feature","properties":{"id":"kowloon-yau-tsim:n0020->n0027:avenue","kind":"avenue","lengthM":644.9,"gradientPct":0.0},"geometry":{"type":"LineString","coordinates":[[114.18,22.3076],[114.18,22.313399999999998]]}},{"type":"Feature","properties":{"id":"kowloon-yau-tsim:n0027->n0034:avenue","kind":"avenue","lengthM":644.9,"gradientPct":0.0},"geometry":{"type":"LineString","coordinates":[[114.18,22.313399999999998],[114.18,22.3192]]}},{"type":"Feature","properties":{"id":"kowloon-yau-tsim:n0034->n0041:avenue","kind":"avenue","lengthM":644.9,"gradientPct":0.0},"geometry":{"type":"LineString","coordinates":[[114.18,22.3192],[114.18,22.325]]}}]}