{"type":"FeatureCollection","features":[{"type":"Feature","properties":{"id":"wan-chai:n0000->n0001:avenue","kind":"avenue","lengthM":291.5,"gradientPct":0.0},"geometry":{"type":"LineString","coordinates":[[114.165,22.271],[114.16783333333333,22.271]]}},{"type":"Feature","properties":{"id":"wan-chai:n0001->n0002:avenue","kind":"avenue","lengthM":291.5,"gradientPct":0.0},"geometry":{"type":"LineString","coordinates":[[114.16783333333333,22.271],[114.17066666666668,22.271]]}},{"type":"Feature","properties":{"id":"wan-chai:n0002->n0003:avenue","kind":"avenue","lengthM":291.5,"gradientPct":0.0},"geometry":{"type":"LineString","coordinates":[[114.17066666666668,22.271],[114.1735,22.271]]}},{"type":"Feature","properties":{"id":"wan-chai:n0003->n0004:avenue","kind":"avenue","lengthM":291.5,"gradientPct":0.0},"geometry":{"type":"LineString","coordinates":[[114.1735,22.271],[114.17633333333333,22.271]]}},{"type":"Feature","properties":{"id":"wan-chai:n0004->n0005:avenue","kind":"avenue","lengthM":291.5,"gradientPct":0.0},"geometry":{"type":"LineString","coordinates":[[114.17633333333333,22.271],[114.17916666666667,22.271]]}},{"type":"Feature","properties":{"id":"wan-chai:n0005->n0006:avenue","kind":"avenue","lengthM":291.5,"gradientPct":0.0},"geometry":{"type":"LineString","coordinates":[[114.17916666666667,22.271],[114.182,22.271]]}},{"type":"Feature","properties":{"id":"wan-chai:n0007->n0008:street","kind":"street","lengthM":291.5,"gradientPct":0.0},"geometry":{"type":"LineString","coordinates":[[114.165,22.273400000000002],[114.16783333333333,22.273400000000002]]}},{"type":"Feature","properties":{"id":"wan-chai:n0008->n0009:street","kind":"street","lengthM":291.5,"gradientPct":0.0},"geometry":{"type":"LineString","coordinates":[[114.16783333333333,22.273400000000002],[114.17066666666668,22.273400000000002]]}},{"type":"Feature","properties":{"id":"wan-chai:n0009->n0010:street","kind":"street","lengthM":291.5,"gradientPct":0.0},"geometry":{"type":"LineString","coordinates":[[114.17066666666668,22.273400000000002],[114.1735,22.273400000000002]]}},{"type":"Feature","properties":{"id":"wan-chai:n0010->n0011:street","kind":"street","lengthM":291.5,"gradientPct":0.0},"geometry":{"type":"LineString","coordinates":[[114.1735,22.273400000000002],[114.17633333333333,22.273400000000002]]}},{"type":"Feature","properties":{"id":"wan-chai:n0011->n0012:street","kind":"street","lengthM":291.5,"gradientPct":0.0},"geometry":{"type":"LineString","coordinates":[[114.17633333333333,22.273400000000002],[114.17916666666667,22.273400000000002]]}},{"type":"Feature","properties":{"id":"wan-chai:n0012->n0013:street","kind":"street","lengthM":291.5,"gradientPct":0.0},"geometry":{"type":"LineString","coordinates":[[114.17916666666667,22.273400000000002],[114.182,22.273400000000002]]}},{"type":"Feature","properties":{"id":"wan-chai:n0014->n0015:street","kind":"street","lengthM":291.5,"gradientPct":0.0},"geometry":{"type":"LineString","coordinates":[[114.165,22.2758],[114.16783333333333,22.2758]]}},{"type":"Feature","properties":{"id":"wan-chai:n0015->n0016:street","kind":"street","lengthM":291.5,"gradientPct":0.0},"geometry":{"type":"LineString","coordinates":[[114.16783333333333,22.2758],[114.17066666666668,22.2758]]}},{"type":"Feature","properties":{"id":"wan-chai:n0016->n0017:street","kind":"street","lengthM":291.5,"gradientPct":0.0},"geometry":{"type":"LineString","coordinates":[[114.17066666666668,22.2758],[114.1735,22.2758]]}},{"type":"Feature","properties":{"id":"wan-chai:n0017->n0018:street","kind":"street","lengthM":291.5,"gradientPct":0.0},"geometry":{"type":"LineString","coordinates":[[114.1735,22.2758],[114.17633333333333,22.2758]]}},{"type":"Feature","properties":{"id":"wan-chai:n0018->n0019:street","kind":"street","lengthM":291.5,"gradientPct":0.0},"geometry":{"type":"LineString","coordinates":[[114.17633333333333,22.2758],[114.17916666666667,22.2758]]}},{"type":"Feature","properties":{"id":"wan-chai:n0019->n0020:street","kind":"street","lengthM":291.5,"gradientPct":0.0},"geometry":{"type":"LineString","coordinates":[[114.17916666666667,22.2758],[114.182,22.2758]]}},{"type":"Feature","properties":{"id":"wan-chai:n0021->n0022:street","kind":"street","lengthM":291.5,"gradientPct":0.0},"geometry":{"type":"LineString","coordinates":[[114.165,22.278200000000002],[114.16783333333333,22.278200000000002]]}},{"type":"Feature","properties":{"id":"wan-chai:n0022->n0023:street","kind":"street","lengthM":291.5,"gradientPct":0.0},"geometry":{"type":"LineString","coordinates":[[114.16783333333333,22.278200000000002],[114.17066666666668,22.278200000000002]]}},{"type":"Feature","properties":{"id":"wan-chai:n0023->n0024:street","kind":"street","lengthM":291.5,"gradientPct":0.0},"geometry":{"type":"LineString","coordinates":[[114.17066666666668,22.278200000000002],[114.1735,22.278200000000002]]}},{"type":"Feature","properties":{"id":"wan-chai:n0024->n0025:street","kind":"street","lengthM":291.5,"gradientPct":0.0},"geometry":{"type":"LineString","coordinates":[[114.1735,22.278200000000002],[114.17633333333333,22.278200000000002]]}},{"type":"Feature","properties":{"id":"wan-chai:n0025->n0026:street","kind":"street","lengthM":291.5,"gradientPct":0.0},"geometry":{"type":"LineString","coordinates":[[114.17633333333333,22.278200000000002],[114.17916666666667,22.278200000000002]]}},{"type":"Feature","properties":{"id":"wan-chai:n0026->n0027:street","kind":"street","lengthM":291.5,"gradientPct":0.0},"geometry":{"type":"LineString","coordinates":[[114.17916666666667,22.278200000000002],[114.182,22.278200000000002]]}},{"type":"Feature","properties":{"id":"wan-chai:n0028->n0029:street","kind":"street","lengthM":291.5,"gradientPct":0.0},"geometry":{"type":"LineString","coordinates":[[114.165,22.2806],[114.16783333333333,22.2806]]}},{"type":"Feature","properties":{"id":"wan-chai:n0029->n0030:street","kind":"street","lengthM":291.5,"gradientPct":0.0},"geometry":{"type":"LineString","coordinates":[[114.16783333333333,22.2806],[114.17066666666668,22.2806]]}},{"type":"Feature","properties":{"id":"wan-chai:n0030->n0031:street","kind":"street","lengthM":291.5,"gradientPct":0.0},"geometry":{"type":"LineString","coordinates":[[114.17066666666668,22.2806],[114.1735,22.2806]]}},{"type":"Feature","properties":{"id":"wan-chai:n0031->n0032:street","kind":"street","lengthM":291.5,"gradientPct":0.0},"geometry":{"type":"LineString","coordinates":[[114.1735,22.2806],[114.17633333333333,22.2806]]}},{"type":"Feature","properties":{"id":"wan-chai:n0032->n0033:street","kind":"street","lengthM":291.5,"gradientPct":0.0},"geometry":{"type":"LineString","coordinates":[[114.17633333333333,22.2806],[114.17916666666667,22.2806]]}},{"type":"Feature","properties":{"id":"wan-chai:n0033->n0034:street","kind":"street","lengthM":291.5,"gradientPct":0.0},"geometry":{"type":"LineString","coordinates":[[114.17916666666667,22.2806],[114.182,22.2806]]}},{"type":"Feature","properties":{"id":"wan-chai:n0035->n0036:avenue","kind":"avenue","lengthM":291.5,"gradientPct":0.0},"geometry":{"type":"LineString","coordinates":[[114.165,22.283],[114.16783333333333,22.283]]}},{"type":"Feature","properties":{"id":"wan-chai:n0036->n0037:avenue","kind":"avenue","lengthM":291.5,"gradientPct":0.0},"geometry":{"type":"LineString","coordinates":[[114.16783333333333,22.283],[114.17066666666668,22.283]]}},{"type":"Feature","properties":{"id":"wan-chai:n0037->n0038:avenue","kind":"avenue","lengthM":291.5,"gradientPct":0.0},"geometry":{"type":"LineString","coordinates":[[114.17066666666668,22.283],[114.1735,22.283]]}},{"type":"Feature","properties":{"id":"wan-chai:n0038->n0039:avenue","kind":"avenue","lengthM":291.5,"gradientPct":0.0},"geometry":{"type":"LineString","coordinates":[[114.1735,22.283],[114.17633333333333,22.283]]}},{"type":"Feature","properties":{"id":"wan-chai:n0039->n0040:avenue","kind":"avenue","lengthM":291.5,"gradientPct":0.0},"geometry":{"type":"LineString","coordinates":[[114.17633333333333,22.283],[114.17916666666667,22.283]]}},{"type":"Feature","properties":{"id":"wan-chai:n0040->n0041:avenue","kind":"avenue","lengthM":291.5,"gradientPct":0.0},"geometry":{"type":"LineString","coordinates":[[114.17916666666667,22.283],[114.182,22.283]]}},{"type":"Feature","properties":{"id":"wan-chai:n0000->n0007:avenue","kind":"avenue","lengthM":266.9,"gradientPct":0.0},"geometry":{"type":"LineString","coordinates":[[114.165,22.271],[114.165,22.273400000000002]]}},{"type":"Feature","properties":{"id":"wan-chai:n0007->n0014:avenue","kind":"avenue","lengthM":266.9,"gradientPct":0.0},"geometry":{"type":"LineString","coordinates":[[114.165,22.273400000000002],[114.165,22.2758]]}},{"type":"Feature","properties":{"id":"wan-chai:n0014->n0021:avenue","kind":"avenue","lengthM":266.9,"gradientPct":0.0},"geometry":{"type":"LineString","coordinates":[[114.165,22.2758],[114.165,22.278200000000002]]}},{"type":"Feature","properties":{"id":"wan-chai:n0021->n0028:avenue","kind":"avenue","lengthM":266.9,"gradientPct":0.0},"geometry":{"type":"LineString","coordinates":[[114.165,22.278200000000002],[114.165,22.2806]]}},{"type":"Feature","properties":{"id":"wan-chai:n0028->n0035:avenue","kind":"avenue","lengthM":266.9,"gradientPct":0.0},"geometry":{"type":"LineString","coordinates":[[114.165,22.2806],[114.165,22.283]]}},{"type":"Feature","properties":{"id":"wan-chai:n0001->n0008:street","kind":"street","lengthM":266.9,"gradientPct":0.0},"geometry":{"type":"LineString","coordinates":[[114.16783333333333,22.271],[114.16783333333333,22.273400000000002]]}},{"type":"Feature","properties":{"id":"wan-chai:n0008->n0015:street","kind":"street","lengthM":266.9,"gradientPct":0.0},"geometry":{"type":"LineString","coordinates":[[114.16783333333333,22.273400000000002],[114.16783333333333,22.2758]]}},{"type":"Feature","properties":{"id":"wan-chai:n0015->n0022:street","kind":"street","lengthM":266.9,"gradientPct":0.0},"geometry":{"type":"LineString","coordinates":[[114.16783333333333,22.2758],[114.16783333333333,22.278200000000002]]}},{"type":"Feature","properties":{"id":"wan-chai:n0022->n0029:street","kind":"street","lengthM":266.9,"gradientPct":0.0},"geometry":{"type":"LineString","coordinates":[[114.16783333333333,22.278200000000002],[114.16783333333333,22.2806]]}},{"type":"Feature","properties":{"id":"wan-chai:n0029->n0036:street","kind":"street","lengthM":266.9,"gradientPct":0.0},"geometry":{"type":"LineString","coordinates":[[114.16783333333333,22.2806],[114.16783333333333,22.283]]}},{"type":"Feature","properties":{"id":"wan-chai:n0002->n0009:street","kind":"street","lengthM":266.9,"gradientPct":0.0},"geometry":{"type":"LineString","coordinates":[[114.17066666666668,22.271],[114.17066666666668,22.273400000000002]]}},{"type":"Feature","properties":{"id":"wan-chai:n0009->n0016:street","kind":"street","lengthM":266.9,"gradientPct":0.0},"geometry":{"type":"LineString","coordinates":[[114.17066666666668,22.273400000000002],[114.17066666666668,22.2758]]}},{"type":"Feature","properties":{"id":"wan-chai:n0016->n0023:street","kind":"street","lengthM":266.9,"gradientPct":0.0},"geometry":{"type":"LineString","coordinates":[[114.17066666666668,22.2758],[114.17066666666668,22.278200000000002]]}},{"type":"Feature","properties":{"id":"wan-chai:n0023->n0030:street","kind":"street","lengthM":266.9,"gradientPct":0.0},"geometry":{"type":"LineString","coordinates":[[114.17066666666668,22.278200000000002],[114.17066666666668,22.2806]]}},{"type":"Feature","properties":{"id":"wan-chai:n0030->n0037:street","kind":"street","lengthM":266.9,"gradientPct":0.0},"geometry":{"type":"LineString","coordinates":[[114.17066666666668,22.2806],[114.17066666666668,22.283]]}},{"type":"Feature","properties":{"id":"wan-chai:n0003->n0010:street","kind":"street","lengthM":266.9,"gradientPct":0.0},"geometry":{"type":"LineString","coordinates":[[114.1735,22.271],[114.1735,22.273400000000002]]}},{"type":"Feature","properties":{"id":"wan-chai:n0010->n0017:street","kind":"street","lengthM":266.9,"gradientPct":0.0},"geometry":{"type":"LineString","coordinates":[[114.1735,22.273400000000002],[114.1735,22.2758]]}},{"type":"Feature","properties":{"id":"wan-chai:n0017->n0024:street","kind":"street","lengthM":266.9,"gradientPct":0.0},"geometry":{"type":"LineString","coordinates":[[114.1735,22.2758],[114.1735,22.278200000000002]]}},{"type":"Feature","properties":{"id":"wan-chai:n0024->n0031:street","kind":"street","lengthM":266.9,"gradientPct":0.0},"geometry":{"type":"LineString","coordinates":[[114.1735,22.278200000000002],[114.1735,22.2806]]}},{"type":"Feature","properties":{"id":"wan-chai:n0031->n0038:street","kind":"street","lengthM":266.9,"gradientPct":0.0},"geometry":{"type":"LineString","coordinates":[[114.1735,22.2806],[114.1735,22.283]]}},{"type":"Feature","properties":{"id":"wan-chai:n0004->n0011:street","kind":"street","lengthM":266.9,"gradientPct":0.0},"geometry":{"type":"LineString","coordinates":[[114.17633333333333,22.271],[114.17633333333333,22.273400000000002]]}},{"type":"Feature","properties":{"id":"wan-chai:n0011->n0018:street","kind":"street","lengthM":266.9,"gradientPct":0.0},"geometry":{"type":"LineString","coordinates":[[114.17633333333333,22.273400000000002],[114.17633333333333,22.2758]]}},{"type":"Feature","properties":{"id":"wan-chai:n0018->n0025:street","kind":"street","lengthM":266.9,"gradientPct":0.0},"geometry":{"type":"LineString","coordinates":[[114.17633333333333,22.2758],[114.17633333333333,22.278200000000002]]}},{"type":"Feature","properties":{"id":"wan-chai:n0025->n0032:street","kind":"street","lengthM":266.9,"gradientPct":0.0},"geometry":{"type":"LineString","coordinates":[[114.17633333333333,22.278200000000002],[114.17633333333333,22.2806]]}},{"type":"Feature","properties":{"id":"wan-chai:n0032->n0039:street","kind":"street","lengthM":266.9,"gradientPct":0.0},"geometry":{"type":"LineString","coordinates":[[114.17633333333333,22.2806],[114.17633333333333,22.283]]}},{"type":"Feature","properties":{"id":"wan-chai:n0005->n0012:street","kind":"street","lengthM":266.9,"gradientPct":0.0},"geometry":{"type":"LineString","coordinates":[[114.17916666666667,22.271],[114.17916666666667,22.273400000000002]]}},{"type":"Feature","properties":{"id":"wan-chai:n0012->n0019:street","kind":"street","lengthM":266.9,"gradientPct":0.0},"geometry":{"type":"LineString","coordinates":[[114.17916666666667,22.273400000000002],[114.17916666666667,22.2758]]}},{"type":"Feature","properties":{"id":"wan-chai:n0019->n0026:street","kind":"street","lengthM":266.9,"gradientPct":0.0},"geometry":{"type":"LineString","coordinates":[[114.17916666666667,22.2758],[114.17916666666667,22.278200000000002]]}},{"type":"Feature","properties":{"id":"wan-chai:n0026->n0033:street","kind":"street","lengthM":266.9,"gradientPct":0.0},"geometry":{"type":"LineString","coordinates":[[114.17916666666667,22.278200000000002],[114.17916666666667,22.2806]]}},{"type":"Feature","properties":{"id":"wan-chai:n0033->n0040:street","kind":"street","lengthM":266.9,"gradientPct":0.0},"geometry":{"type":"LineString","coordinates":[[114.17916666666667,22.2806],[114.17916666666667,22.283]]}},{"type":"Feature","properties":{"id":"wan-chai:n0006->n0013:avenue","kind":"avenue","lengthM":266.9,"gradientPct":0.0},"geometry":{"type":"LineString","coordinates":[[114.182,22.271],[114.182,22.273400000000002]]}},{"type":"Feature","properties":{"id":"wan-chai:n0013->n0020:avenue","kind":"avenue","lengthM":266.9,"gradientPct":0.0},"geometry":{"type":"LineString","coordinates":[[114.182,22.273400000000002],[114.182,22.2758]]}},{"type":"Feature","properties":{"id":"wan-chai:n0020->n0027:avenue","kind":"avenue","lengthM":266.9,"gradientPct":0.0},"geometry":{"type":"LineString","coordinates":[[114.182,22.2758],[114.182,22.278200000000002]]}},{"type":"Feature","properties":{"id":"wan-chai:n0027->n0034:avenue","kind":"avenue","lengthM":266.9,"gradientPct":0.0},"geometry":{"type":"LineString","coordinates":[[114.182,22.278200000000002],[114.182,22.2806]]}},{"type":"Feature","properties":{"id":"wan-chai:n0034->n0041:avenue","kind":"avenue","lengthM":266.9,"gradientPct":0.0},"geometry":{"type":"LineString","coordinates":[[114.182,22.2806],[114.182,22.283]]}}]}