{"type":"FeatureCollection","features":[{"type":"Feature","properties":{"id":"nt-sha-tin:n0000->n0001:avenue","kind":"avenue","lengthM":582.7,"gradientPct":0.0},"geometry":{"type":"LineString","coordinates":[[114.178,22.368],[114.18366666666667,22.368]]}},{"type":"Feature","properties":{"id":"nt-sha-tin:n0001->n0002:avenue","kind":"avenue","lengthM":582.7,"gradientPct":0.0},"geometry":{"type":"LineString","coordinates":[[114.18366666666667,22.368],[114.18933333333334,22.368]]}},{"type":"Feature","properties":{"id":"nt-sha-tin:n0002->n0003:avenue","kind":"avenue","lengthM":582.7,"gradientPct":0.0},"geometry":{"type":"LineString","coordinates":[[114.18933333333334,22.368],[114.195,22.368]]}},{"type":"Feature","properties":{"id":"nt-sha-tin:n0003->n0004:avenue","kind":"avenue","lengthM":582.7,"gradientPct":0.0},"geometry":{"type":"LineString","coordinates":[[114.195,22.368],[114.20066666666666,22.368]]}},{"type":"Feature","properties":{"id":"nt-sha-tin:n0004->n0005:avenue","kind":"avenue","lengthM":582.7,"gradientPct":0.0},"geometry":{"type":"LineString","coordinates":[[114.20066666666666,22.368],[114.20633333333333,22.368]]}},{"type":"Feature","properties":{"id":"nt-sha-tin:n0005->n0006:avenue","kind":"avenue","lengthM":582.7,"gradientPct":0.0},"geometry":{"type":"LineString","coordinates":[[114.20633333333333,22.368],[114.212,22.368]]}},{"type":"Feature","properties":{"id":"nt-sha-tin:n0007->n0008:street","kind":"street","lengthM":582.7,"gradientPct":0.0},"geometry":{"type":"LineString","coordinates":[[114.178,22.374],[114.18366666666667,22.374]]}},{"type":"Feature","properties":{"id":"nt-sha-tin:n0008->n0009:street","kind":"street","lengthM":582.7,"gradientPct":0.0},"geometry":{"type":"LineString","coordinates":[[114.18366666666667,22.374],[114.18933333333334,22.374]]}},{"type":"Feature","properties":{"id":"nt-sha-tin:n0009->n0010:street","kind":"street","lengthM":582.7,"gradientPct":0.0},"geometry":{"type":"LineString","coordinates":[[114.18933333333334,22.374],[114.195,22.374]]}},{"type":"Feature","properties":{"id":"nt-sha-tin:n0010->n0011:street","kind":"street","lengthM":582.7,"gradientPct":0.0},"geometry":{"type":"LineString","coordinates":[[114.195,22.374],[114.20066666666666,22.374]]}},{"type":"Feature","properties":{"id":"nt-sha-tin:n0011->n0012:street","kind":"street","lengthM":582.7,"gradientPct":0.0},"geometry":{"type":"LineString","coordinates":[[114.20066666666666,22.374],[114.20633333333333,22.374]]}},{"type":"Feature","properties":{"id":"nt-sha-tin:n0012->n0013:street","kind":"street","lengthM":582.7,"gradientPct":0.0},"geometry":{"type":"LineString","coordinates":[[114.20633333333333,22.374],[114.212,22.374]]}},{"type":"Feature","properties":{"id":"nt-sha-tin:n0014->n0015:street","kind":"street","lengthM":582.6,"gradientPct":0.0},"geometry":{"type":"LineString","coordinates":[[114.178,22.38],[114.18366666666667,22.38]]}},{"type":"Feature","properties":{"id":"nt-sha-tin:n0015->n0016:street","kind":"street","lengthM":582.6,"gradientPct":0.0},"geometry":{"type":"LineString","coordinates":[[114.18366666666667,22.38],[114.18933333333334,22.38]]}},{"type":"Feature","properties":{"id":"nt-sha-tin:n0016->n0017:street","kind":"street","lengthM":582.6,"gradientPct":0.0},"geometry":{"type":"LineString","coordinates":[[114.18933333333334,22.38],[114.195,22.38]]}},{"type":"Feature","properties":{"id":"nt-sha-tin:n0017->n0018:street","kind":"street","lengthM":582.6,"gradientPct":0.0},"geometry":{"type":"LineString","coordinates":[[114.195,22.38],[114.20066666666666,22.38]]}},{"type":"Feature","properties":{"id":"nt-sha-tin:n0018->n0019:street","kind":"street","lengthM":582.6,"gradientPct":0.0},"geometry":{"type":"LineString","coordinates":[[114.20066666666666,22.38],[114.20633333333333,22.38]]}},{"type":"Feature","properties":{"id":"nt-sha-tin:n0019->n0020:street","kind":"street","lengthM":582.6,"gradientPct":0.0},"geometry":{"type":"LineString","coordinates":[[114.20633333333333,22.38],[114.212,22.38]]}},{"type":"Feature","properties":{"id":"nt-sha-tin:n0021->n0022:street","kind":"street","lengthM":582.6,"gradientPct":0.0},"geometry":{"type":"LineString","coordinates":[[114.178,22.386],[114.18366666666667,22.386]]}},{"type":"Feature","properties":{"id":"nt-sha-tin:n0022->n0023:street","kind":"street","lengthM":582.6,"gradientPct":0.0},"geometry":{"type":"LineString","coordinates":[[114.18366666666667,22.386],[114.18933333333334,22.386]]}},{"type":"Feature","properties":{"id":"nt-sha-tin:n0023->n0024:street","kind":"street","lengthM":582.6,"gradientPct":0.0},"geometry":{"type":"LineString","coordinates":[[114.18933333333334,22.386],[114.195,22.386]]}},{"type":"Feature","properties":{"id":"nt-sha-tin:n0024->n0025:street","kind":"street","lengthM":582.6,"gradientPct":0.0},"geometry":{"type":"LineString","coordinates":[[114.195,22.386],[114.20066666666666,22.386]]}},{"type":"Feature","properties":{"id":"nt-sha-tin:n0025->n0026:street","kind":"street","lengthM":582.6,"gradientPct":0.0},"geometry":{"type":"LineString","coordinates":[[114.20066666666666,22.386],[114.20633333333333,22.386]]}},{"type":"Feature","properties":{"id":"nt-sha-tin:n0026->n0027:street","kind":"street","lengthM":582.6,"gradientPct":0.0},"geometry":{"type":"LineString","coordinates":[[114.20633333333333,22.386],[114.212,22.386]]}},{"type":"Feature","properties":{"id":"nt-sha-tin:n0028->n0029:street","kind":"street","lengthM":582.6,"gradientPct":0.0},"geometry":{"type":"LineString","coordinates":[[114.178,22.392],[114.18366666666667,22.392]]}},{"type":"Feature","properties":{"id":"nt-sha-tin:n0029->n0030:street","kind":"street","lengthM":582.6,"gradientPct":0.0},"geometry":{"type":"LineString","coordinates":[[114.18366666666667,22.392],[114.18933333333334,22.392]]}},{"type":"Feature","properties":{"id":"nt-sha-tin:n0030->n0031:street","kind":"street","lengthM":582.6,"gradientPct":0.0},"geometry":{"type":"LineString","coordinates":[[114.18933333333334,22.392],[114.195,22.392]]}},{"type":"Feature","properties":{"id":"nt-sha-tin:n0031->n0032:street","kind":"street","lengthM":582.6,"gradientPct":0.0},"geometry":{"type":"LineString","coordinates":[[114.195,22.392],[114.20066666666666,22.392]]}},{"type":"Feature","properties":{"id":"nt-sha-tin:n0032->n0033:street","kind":"street","lengthM":582.6,"gradientPct":0.0},"geometry":{"type":"LineString","coordinates":[[114.20066666666666,22.392],[114.20633333333333,22.392]]}},{"type":"Feature","properties":{"id":"nt-sha-tin:n0033->n0034:street","kind":"street","lengthM":582.6,"gradientPct":0.0},"geometry":{"type":"LineString","coordinates":[[114.20633333333333,22.392],[114.212,22.392]]}},{"type":"Feature","properties":{"id":"nt-sha-tin:n0035->n0036:avenue","kind":"avenue","lengthM":582.6,"gradientPct":0.0},"geometry":{"type":"LineString","coordinates":[[114.178,22.398],[114.18366666666667,22.398]]}},{"type":"Feature","properties":{"id":"nt-sha-tin:n0036->n0037:avenue","kind":"avenue","lengthM":582.6,"gradientPct":0.0},"geometry":{"type":"LineString","coordinates":[[114.18366666666667,22.398],[114.18933333333334,22.398]]}},{"type":"Feature","properties":{"id":"nt-sha-tin:n0037->n0038:avenue","kind":"avenue","lengthM":582.6,"gradientPct":0.0},"geometry":{"type":"LineString","coordinates":[[114.18933333333334,22.398],[114.195,22.398]]}},{"type":"Feature","properties":{"id":"nt-sha-tin:n0038->n0039:avenue","kind":"avenue","lengthM":582.6,"gradientPct":0.0},"geometry":{"type":"LineString","coordinates":[[114.195,22.398],[114.20066666666666,22.398]]}},{"type":"Feature","properties":{"id":"nt-sha-tin:n0039->n0040:avenue","kind":"avenue","lengthM":582.6,"gradientPct":0.0},"geometry":{"type":"LineString","coordinates":[[114.20066666666666,22.398],[114.20633333333333,22.398]]}},{"type":"Feature","properties":{"id":"nt-sha-tin:n0040->n0041:avenue","kind":"avenue","lengthM":582.6,"gradientPct":0.0},"geometry":{"type":"LineString","coordinates":[[114.20633333333333,22.398],[114.212,22.398]]}},{"type":"Feature","properties":{"id":"nt-sha-tin:n0000->n0007:avenue","kind":"avenue","lengthM":667.2,"gradientPct":0.0},"geometry":{"type":"LineString","coordinates":[[114.178,22.368],[114.178,22.374]]}},{"type":"Feature","properties":{"id":"nt-sha-tin:n0007->n0014:avenue","kind":"avenue","lengthM":667.2,"gradientPct":0.0},"geometry":{"type":"LineString","coordinates":[[114.178,22.374],[114.178,22.38]]}},{"type":"Feature","properties":{"id":"nt-sha-tin:n0014->n0021:avenue","kind":"avenue","lengthM":667.2,"gradientPct":0.0},"geometry":{"type":"LineString","coordinates":[[114.178,22.38],[114.178,22.386]]}},{"type":"Feature","properties":{"id":"nt-sha-tin:n0021->n0028:avenue","kind":"avenue","lengthM":667.2,"gradientPct":0.0},"geometry":{"type":"LineString","coordinates":[[114.178,22.386],[114.178,22.392]]}},{"type":"Feature","properties":{"id":"nt-sha-tin:n0028->n0035:avenue","kind":"avenue","lengthM":667.2,"gradientPct":0.0},"geometry":{"type":"LineString","coordinates":[[114.178,22.392],[114.178,22.398]]}},{"type":"Feature","properties":{"id":"nt-sha-tin:n0001->n0008:street","kind":"street","lengthM":667.2,"gradientPct":0.0},"geometry":{"type":"LineString","coordinates":[[114.18366666666667,22.368],[114.18366666666667,22.374]]}},{"type":"Feature","properties":{"id":"nt-sha-tin:n0008->n0015:street","kind":"street","lengthM":667.2,"gradientPct":0.0},"geometry":{"type":"LineString","coordinates":[[114.18366666666667,22.374],[114.18366666666667,22.38]]}},{"type":"Feature","properties":{"id":"nt-sha-tin:n0015->n0022:street","kind":"street","lengthM":667.2,"gradientPct":0.0},"geometry":{"type":"LineString","coordinates":[[114.18366666666667,22.38],[114.18366666666667,22.386]]}},{"type":"Feature","properties":{"id":"nt-sha-tin:n0022->n0029:street","kind":"street","lengthM":667.2,"gradientPct":0.0},"geometry":{"type":"LineString","coordinates":[[114.18366666666667,22.386],[114.18366666666667,22.392]]}},{"type":"Feature","properties":{"id":"nt-sha-tin:n0029->n0036:street","kind":"street","lengthM":667.2,"gradientPct":0.0},"geometry":{"type":"LineString","coordinates":[[114.18366666666667,22.392],[114.18366666666667,22.398]]}},{"type":"Feature","properties":{"id":"nt-sha-tin:n0002->n0009:street","kind":"street","lengthM":667.2,"gradientPct":0.0},"geometry":{"type":"LineString","coordinates":[[114.18933333333334,22.368],[114.18933333333334,22.374]]}},{"type":"Feature","properties":{"id":"nt-sha-tin:n0009->n0016:street","kind":"street","lengthM":667.2,"gradientPct":0.0},"geometry":{"type":"LineString","coordinates":[[114.18933333333334,22.374],[114.18933333333334,22.38]]}},{"type":"Feature","properties":{"id":"nt-sha-tin:n0016->n0023:street","kind":"street","lengthM":667.2,"gradientPct":0.0},"geometry":{"type":"LineString","coordinates":[[114.18933333333334,22.38],[114.18933333333334,22.386]]}},{"type":"Feature","properties":{"id":"nt-sha-tin:n0023->n0030:street","kind":"street","lengthM":667.2,"gradientPct":0.0},"geometry":{"type":"LineString","coordinates":[[114.18933333333334,22.386],[114.18933333333334,22.392]]}},{"type":"Feature","properties":{"id":"nt-sha-tin:n0030->n0037:street","kind":"street","lengthM":667.2,"gradientPct":0.0},"geometry":{"type":"LineString","coordinates":[[114.18933333333334,22.392],[114.18933333333334,22.398]]}},{"type":"Feature","properties":{"id":"nt-sha-tin:n0003->n0010:street","kind":"street","lengthM":667.2,"gradientPct":0.0},"geometry":{"type":"LineString","coordinates":[[114.195,22.368],[114.195,22.374]]}},{"type":"Feature","properties":{"id":"nt-sha-tin:n0010->n0017:street","kind":"street","lengthM":667.2,"gradientPct":0.0},"geometry":{"type":"LineString","coordinates":[[114.195,22.374],[114.195,22.38]]}},{"type":"Feature","properties":{"id":"nt-sha-tin:n0017->n0024:street","kind":"street","lengthM":667.2,"gradientPct":0.0},"geometry":{"type":"LineString","coordinates":[[114.195,22.38],[114.195,22.386]]}},{"type":"Feature","properties":{"id":"nt-sha-tin:n0024->n0031:street","kind":"street","lengthM":667.2,"gradientPct":0.0},"geometry":{"type":"LineString","coordinates":[[114.195,22.386],[114.195,22.392]]}},{"type":"Feature","properties":{"id":"nt-sha-tin:n0031->n0038:street","kind":"street","lengthM":667.2,"gradientPct":0.0},"geometry":{"type":"LineString","coordinates":[[114.195,22.392],[114.195,22.398]]}},{"type":"Feature","properties":{"id":"nt-sha-tin:n0004->n0011:street","kind":"street","lengthM":667.2,"gradientPct":0.0},"geometry":{"type":"LineString","coordinates":[[114.20066666666666,22.368],[114.20066666666666,22.374]]}},{"type":"Feature","properties":{"id":"nt-sha-tin:n0011->n0018:street","kind":"street","lengthM":667.2,"gradientPct":0.0},"geometry":{"type":"LineString","coordinates":[[114.20066666666666,22.374],[114.20066666666666,22.38]]}},{"type":"Feature","properties":{"id":"nt-sha-tin:n0018->n0025:street","kind":"street","lengthM":667.2,"gradientPct":0.0},"geometry":{"type":"LineString","coordinates":[[114.20066666666666,22.38],[114.20066666666666,22.386]]}},{"type":"Feature","properties":{"id":"nt-sha-tin:n0025->n0032:street","kind":"street","lengthM":667.2,"gradientPct":0.0},"geometry":{"type":"LineString","coordinates":[[114.20066666666666,22.386],[114.20066666666666,22.392]]}},{"type":"Feature","properties":{"id":"nt-sha-tin:n0032->n0039:street","kind":"street","lengthM":667.2,"gradientPct":0.0},"geometry":{"type":"LineString","coordinates":[[114.20066666666666,22.392],[114.20066666666666,22.398]]}},{"type":"Feature","properties":{"id":"nt-sha-tin:n0005->n0012:street","kind":"street","lengthM":667.2,"gradientPct":0.0},"geometry":{"type":"LineString","coordinates":[[114.20633333333333,22.368],[114.20633333333333,22.374]]}},{"type":"Feature","properties":{"id":"nt-sha-tin:n0012->n0019:street","kind":"street","lengthM":667.2,"gradientPct":0.0},"geometry":{"type":"LineString","coordinates":[[114.20633333333333,22.374],[114.20633333333333,22.38]]}},{"type":"Feature","properties":{"id":"nt-sha-tin:n0019->n0026:street","kind":"street","lengthM":667.2,"gradientPct":0.0},"geometry":{"type":"LineString","coordinates":[[114.20633333333333,22.38],[114.20633333333333,22.386]]}},{"type":"Feature","properties":{"id":"nt-sha-tin:n0026->n0033:street","kind":"street","lengthM":667.2,"gradientPct":0.0},"geometry":{"type":"LineString","coordinates":[[114.20633333333333,22.386],[114.20633333333333,22.392]]}},{"type":"Feature","properties":{"id":"nt-sha-tin:n0033->n0040:street","kind":"street","lengthM":667.2,"gradientPct":0.0},"geometry":{"type":"LineString","coordinates":[[114.20633333333333,22.392],[114.20633333333333,22.398]]}},{"type":"Feature","properties":{"id":"nt-sha-tin:n0006->n0013:avenue","kind":"avenue","lengthM":667.2,"gradientPct":0.0},"geometry":{"type":"LineString","coordinates":[[114.212,22.368],[114.212,22.374]]}},{"type":"Feature","properties":{"id":"nt-sha-tin:n0013->n0020:avenue","kind":"avenue","lengthM":667.2,"gradientPct":0.0},"geometry":{"type":"LineString","coordinates":[[114.212,22.374],[114.212,22.38]]}},{"type":"Feature","properties":{"id":"nt-sha-tin:n0020->n0027:avenue","kind":"avenue","lengthM":667.2,"gradientPct":0.0},"geometry":{"type":"LineString","coordinates":[[114.212,22.38],[114.212,22.386]]}},{"type":"Feature","properties":{"id":"nt-sha-tin:n0027->n0034:avenue","kind":"avenue","lengthM":667.2,"gradientPct":0.0},"geometry":{"type":"LineString","coordinates":[[114.212,22.386],[114.212,22.392]]}},{"type":"Feature","properties":{"id":"nt-sha-tin:n0034->n0041:avenue","kind":"avenue","lengthM":667.2,"gradientPct":0.0},"geometry":{"type":"LineString","coordinates":[[114.212,22.392],[114.212,22.398]]}}]}