{"type":"FeatureCollection","features":[{"type":"Feature","properties":{"id":"kowloon-kowloon-city:n0000->n0001:avenue","kind":"avenue","lengthM":377.2,"gradientPct":0.0},"geometry":{"type":"LineString","coordinates":[[114.18,22.318],[114.18366666666667,22.318]]}},{"type":"Feature","properties":{"id":"kowloon-kowloon-city:n0001->n0002:avenue","kind":"avenue","lengthM":377.2,"gradientPct":0.0},"geometry":{"type":"LineString","coordinates":[[114.18366666666667,22.318],[114.18733333333334,22.318]]}},{"type":"Feature","properties":{"id":"kowloon-kowloon-city:n0002->n0003:avenue","kind":"avenue","lengthM":377.2,"gradientPct":0.0},"geometry":{"type":"LineString","coordinates":[[114.18733333333334,22.318],[114.191,22.318]]}},{"type":"Feature","properties":{"id":"kowloon-kowloon-city:n0003->n0004:avenue","kind":"avenue","lengthM":377.2,"gradientPct":0.0},"geometry":{"type":"LineString","coordinates":[[114.191,22.318],[114.19466666666666,22.318]]}},{"type":"Feature","properties":{"id":"kowloon-kowloon-city:n0004->n0005:avenue","kind":"avenue","lengthM":377.2,"gradientPct":0.0},"geometry":{"type":"LineString","coordinates":[[114.19466666666666,22.318],[114.19833333333334,22.318]]}},{"type":"Feature","properties":{"id":"kowloon-kowloon-city:n0005->n0006:avenue","kind":"avenue","lengthM":377.2,"gradientPct":0.0},"geometry":{"type":"LineString","coordinates":[[114.19833333333334,22.318],[114.202,22.318]]}},{"type":"Feature","properties":{"id":"kowloon-kowloon-city:n0007->n0008:street","kind":"street","lengthM":377.2,"gradientPct":0.0},"geometry":{"type":"LineString","coordinates":[[114.18,22.3216],[114.18366666666667,22.3216]]}},{"type":"Feature","properties":{"id":"kowloon-kowloon-city:n0008->n0009:street","kind":"street","lengthM":377.2,"gradientPct":0.0},"geometry":{"type":"LineString","coordinates":[[114.18366666666667,22.3216],[114.18733333333334,22.3216]]}},{"type":"Feature","properties":{"id":"kowloon-kowloon-city:n0009->n0010:street","kind":"street","lengthM":377.2,"gradientPct":0.0},"geometry":{"type":"LineString","coordinates":[[114.18733333333334,22.3216],[114.191,22.3216]]}},{"type":"Feature","properties":{"id":"kowloon-kowloon-city:n0010->n0011:street","kind":"street","lengthM":377.2,"gradientPct":0.0},"geometry":{"type":"LineString","coordinates":[[114.191,22.3216],[114.19466666666666,22.3216]]}},{"type":"Feature","properties":{"id":"kowloon-kowloon-city:n0011->n0012:street","kind":"street","lengthM":377.2,"gradientPct":0.0},"geometry":{"type":"LineString","coordinates":[[114.19466666666666,22.3216],[114.19833333333334,22.3216]]}},{"type":"Feature","properties":{"id":"kowloon-kowloon-city:n0012->n0013:street","kind":"street","lengthM":377.2,"gradientPct":0.0},"geometry":{"type":"LineString","coordinates":[[114.19833333333334,22.3216],[114.202,22.3216]]}},{"type":"Feature","properties":{"id":"kowloon-kowloon-city:n0014->n0015:street","kind":"street","lengthM":377.2,"gradientPct":0.0},"geometry":{"type":"LineString","coordinates":[[114.18,22.3252],[114.18366666666667,22.3252]]}},{"type":"Feature","properties":{"id":"kowloon-kowloon-city:n0015->n0016:street","kind":"street","lengthM":377.2,"gradientPct":0.0},"geometry":{"type":"LineString","coordinates":[[114.18366666666667,22.3252],[114.18733333333334,22.3252]]}},{"type":"Feature","properties":{"id":"kowloon-kowloon-city:n0016->n0017:street","kind":"street","lengthM":377.2,"gradientPct":0.0},"geometry":{"type":"LineString","coordinates":[[114.18733333333334,22.3252],[114.191,22.3252]]}},{"type":"Feature","properties":{"id":"kowloon-kowloon-city:n0017->n0018:street","kind":"street","lengthM":377.2,"gradientPct":0.0},"geometry":{"type":"LineString","coordinates":[[114.191,22.3252],[114.19466666666666,22.3252]]}},{"type":"Feature","properties":{"id":"kowloon-kowloon-city:n0018->n0019:street","kind":"street","lengthM":377.2,"gradientPct":0.0},"geometry":{"type":"LineString","coordinates":[[114.19466666666666,22.3252],[114.19833333333334,22.3252]]}},{"type":"Feature","properties":{"id":"kowloon-kowloon-city:n0019->n0020:street","kind":"street","lengthM":377.2,"gradientPct":0.0},"geometry":{"type":"LineString","coordinates":[[114.19833333333334,22.3252],[114.202,22.3252]]}},{"type":"Feature","properties":{"id":"kowloon-kowloon-city:n0021->n0022:street","kind":"street","lengthM":377.1,"gradientPct":0.0},"geometry":{"type":"LineString","coordinates":[[114.18,22.3288],[114.18366666666667,22.3288]]}},{"type":"Feature","properties":{"id":"kowloon-kowloon-city:n0022->n0023:street","kind":"street","lengthM":377.1,"gradientPct":0.0},"geometry":{"type":"LineString","coordinates":[[114.18366666666667,22.3288],[114.18733333333334,22.3288]]}},{"type":"Feature","properties":{"id":"kowloon-kowloon-city:n0023->n0024:street","kind":"street","lengthM":377.1,"gradientPct":0.0},"geometry":{"type":"LineString","coordinates":[[114.18733333333334,22.3288],[114.191,22.3288]]}},{"type":"Feature","properties":{"id":"kowloon-kowloon-city:n0024->n0025:street","kind":"street","lengthM":377.1,"gradientPct":0.0},"geometry":{"type":"LineString","coordinates":[[114.191,22.3288],[114.19466666666666,22.3288]]}},{"type":"Feature","properties":{"id":"kowloon-kowloon-city:n0025->n0026:street","kind":"street","lengthM":377.1,"gradientPct":0.0},"geometry":{"type":"LineString","coordinates":[[114.19466666666666,22.3288],[114.19833333333334,22.3288]]}},{"type":"Feature","properties":{"id":"kowloon-kowloon-city:n0026->n0027:street","kind":"street","lengthM":377.1,"gradientPct":0.0},"geometry":{"type":"LineString","coordinates":[[114.19833333333334,22.3288],[114.202,22.3288]]}},{"type":"Feature","properties":{"id":"kowloon-kowloon-city:n0028->n0029:street","kind":"street","lengthM":377.1,"gradientPct":0.0},"geometry":{"type":"LineString","coordinates":[[114.18,22.3324],[114.18366666666667,22.3324]]}},{"type":"Feature","properties":{"id":"kowloon-kowloon-city:n0029->n0030:street","kind":"street","lengthM":377.1,"gradientPct":0.0},"geometry":{"type":"LineString","coordinates":[[114.18366666666667,22.3324],[114.18733333333334,22.3324]]}},{"type":"Feature","properties":{"id":"kowloon-kowloon-city:n0030->n0031:street","kind":"street","lengthM":377.1,"gradientPct":0.0},"geometry":{"type":"LineString","coordinates":[[114.18733333333334,22.3324],[114.191,22.3324]]}},{"type":"Feature","properties":{"id":"kowloon-kowloon-city:n0031->n0032:street","kind":"street","lengthM":377.1,"gradientPct":0.0},"geometry":{"type":"LineString","coordinates":[[114.191,22.3324],[114.19466666666666,22.3324]]}},{"type":"Feature","properties":{"id":"kowloon-kowloon-city:n0032->n0033:street","kind":"street","lengthM":377.1,"gradientPct":0.0},"geometry":{"type":"LineString","coordinates":[[114.19466666666666,22.3324],[114.19833333333334,22.3324]]}},{"type":"Feature","properties":{"id":"kowloon-kowloon-city:n0033->n0034:street","kind":"street","lengthM":377.1,"gradientPct":0.0},"geometry":{"type":"LineString","coordinates":[[114.19833333333334,22.3324],[114.202,22.3324]]}},{"type":"Feature","properties":{"id":"kowloon-kowloon-city:n0035->n0036:avenue","kind":"avenue","lengthM":377.1,"gradientPct":0.0},"geometry":{"type":"LineString","coordinates":[[114.18,22.336],[114.18366666666667,22.336]]}},{"type":"Feature","properties":{"id":"kowloon-kowloon-city:n0036->n0037:avenue","kind":"avenue","lengthM":377.1,"gradientPct":0.0},"geometry":{"type":"LineString","coordinates":[[114.18366666666667,22.336],[114.18733333333334,22.336]]}},{"type":"Feature","properties":{"id":"kowloon-kowloon-city:n0037->n0038:avenue","kind":"avenue","lengthM":377.1,"gradientPct":0.0},"geometry":{"type":"LineString","coordinates":[[114.18733333333334,22.336],[114.191,22.336]]}},{"type":"Feature","properties":{"id":"kowloon-kowloon-city:n0038->n0039:avenue","kind":"avenue","lengthM":377.1,"gradientPct":0.0},"geometry":{"type":"LineString","coordinates":[[114.191,22.336],[114.19466666666666,22.336]]}},{"type":"Feature","properties":{"id":"kowloon-kowloon-city:n0039->n0040:avenue","kind":"avenue","lengthM":377.1,"gradientPct":0.0},"geometry":{"type":"LineString","coordinates":[[114.19466666666666,22.336],[114.19833333333334,22.336]]}},{"type":"Feature","properties":{"id":"kowloon-kowloon-city:n0040->n0041:avenue","kind":"avenue","lengthM":377.1,"gradientPct":0.0},"geometry":{"type":"LineString","coordinates":[[114.19833333333334,22.336],[114.202,22.336]]}},{"type":"Feature","properties":{"id":"kowloon-kowloon-city:n0000->n0007:avenue","kind":"avenue","lengthM":400.3,"gradientPct":0.0},"geometry":{"type":"LineString","coordinates":[[114.18,22.318],[114.18,22.3216]]}},{"type":"Feature","properties":{"id":"kowloon-kowloon-city:n0007->n0014:avenue","kind":"avenue","lengthM":400.3,"gradientPct":0.0},"geometry":{"type":"LineString","coordinates":[[114.18,22.3216],[114.18,22.3252]]}},{"type":"Feature","properties":{"id":"kowloon-kowloon-city:n0014->n0021:avenue","kind":"avenue","lengthM":400.3,"gradientPct":0.0},"geometry":{"type":"LineString","coordinates":[[114.18,22.3252],[114.18,22.3288]]}},{"type":"Feature","properties":{"id":"kowloon-kowloon-city:n0021->n0028:avenue","kind":"avenue","lengthM":400.3,"gradientPct":0.0},"geometry":{"type":"LineString","coordinates":[[114.18,22.3288],[114.18,22.3324]]}},{"type":"Feature","properties":{"id":"kowloon-kowloon-city:n0028->n0035:avenue","kind":"avenue","lengthM":400.3,"gradientPct":0.0},"geometry":{"type":"LineString","coordinates":[[114.18,22.3324],[114.18,22.336]]}},{"type":"Feature","properties":{"id":"kowloon-kowloon-city:n0001->n0008:street","kind":"street","lengthM":400.3,"gradientPct":0.0},"geometry":{"type":"LineString","coordinates":[[114.18366666666667,22.318],[114.18366666666667,22.3216]]}},{"type":"Feature","properties":{"id":"kowloon-kowloon-city:n0008->n0015:street","kind":"street","lengthM":400.3,"gradientPct":0.0},"geometry":{"type":"LineString","coordinates":[[114.18366666666667,22.3216],[114.18366666666667,22.3252]]}},{"type":"Feature","properties":{"id":"kowloon-kowloon-city:n0015->n0022:street","kind":"street","lengthM":400.3,"gradientPct":0.0},"geometry":{"type":"LineString","coordinates":[[114.18366666666667,22.3252],[114.18366666666667,22.3288]]}},{"type":"Feature","properties":{"id":"kowloon-kowloon-city:n0022->n0029:street","kind":"street","lengthM":400.3,"gradientPct":0.0},"geometry":{"type":"LineString","coordinates":[[114.18366666666667,22.3288],[114.18366666666667,22.3324]]}},{"type":"Feature","properties":{"id":"kowloon-kowloon-city:n0029->n0036:street","kind":"street","lengthM":400.3,"gradientPct":0.0},"geometry":{"type":"LineString","coordinates":[[114.18366666666667,22.3324],[114.18366666666667,22.336]]}},{"type":"Feature","properties":{"id":"kowloon-kowloon-city:n0002->n0009:street","kind":"street","lengthM":400.3,"gradientPct":0.0},"geometry":{"type":"LineString","coordinates":[[114.18733333333334,22.318],[114.18733333333334,22.3216]]}},{"type":"Feature","properties":{"id":"kowloon-kowloon-city:n0009->n0016:street","kind":"street","lengthM":400.3,"gradientPct":0.0},"geometry":{"type":"LineString","coordinates":[[114.18733333333334,22.3216],[114.18733333333334,22.3252]]}},{"type":"Feature","properties":{"id":"kowloon-kowloon-city:n0016->n0023:street","kind":"street","lengthM":400.3,"gradientPct":0.0},"geometry":{"type":"LineString","coordinates":[[114.18733333333334,22.3252],[114.18733333333334,22.3288]]}},{"type":"Feature","properties":{"id":"kowloon-kowloon-city:n0023->n0030:street","kind":"street","lengthM":400.3,"gradientPct":0.0},"geometry":{"type":"LineString","coordinates":[[114.18733333333334,22.3288],[114.18733333333334,22.3324]]}},{"type":"Feature","properties":{"id":"kowloon-kowloon-city:n0030->n0037:street","kind":"street","lengthM":400.3,"gradientPct":0.0},"geometry":{"type":"LineString","coordinates":[[114.18733333333334,22.3324],[114.18733333333334,22.336]]}},{"type":"Feature","properties":{"id":"kowloon-kowloon-city:n0003->n0010:street","kind":"street","lengthM":400.3,"gradientPct":0.0},"geometry":{"type":"LineString","coordinates":[[114.191,22.318],[114.191,22.3216]]}},{"type":"Feature","properties":{"id":"kowloon-kowloon-city:n0010->n0017:street","kind":"street","lengthM":400.3,"gradientPct":0.0},"geometry":{"type":"LineString","coordinates":[[114.191,22.3216],[114.191,22.3252]]}},{"type":"Feature","properties":{"id":"kowloon-kowloon-city:n0017->n0024:street","kind":"street","lengthM":400.3,"gradientPct":0.0},"geometry":{"type":"LineString","coordinates":[[114.191,22.3252],[114.191,22.3288]]}},{"type":"Feature","properties":{"id":"kowloon-kowloon-city:n0024->n0031:street","kind":"street","lengthM":400.3,"gradientPct":0.0},"geometry":{"type":"LineString","coordinates":[[114.191,22.3288],[114.191,22.3324]]}},{"type":"Feature","properties":{"id":"kowloon-kowloon-city:n0031->n0038:street","kind":"street","lengthM":400.3,"gradientPct":0.0},"geometry":{"type":"LineString","coordinates":[[114.191,22.3324],[114.191,22.336]]}},{"type":"Feature","properties":{"id":"kowloon-kowloon-city:n0004->n0011:street","kind":"street","lengthM":400.3,"gradientPct":0.0},"geometry":{"type":"LineString","coordinates":[[114.19466666666666,22.318],[114.19466666666666,22.3216]]}},{"type":"Feature","properties":{"id":"kowloon-kowloon-city:n0011->n0018:street","kind":"street","lengthM":400.3,"gradientPct":0.0},"geometry":{"type":"LineString","coordinates":[[114.19466666666666,22.3216],[114.19466666666666,22.3252]]}},{"type":"Feature","properties":{"id":"kowloon-kowloon-city:n0018->n0025:street","kind":"street","lengthM":400.3,"gradientPct":0.0},"geometry":{"type":"LineString","coordinates":[[114.19466666666666,22.3252],[114.19466666666666,22.3288]]}},{"type":"Feature","properties":{"id":"kowloon-kowloon-city:n0025->n0032:street","kind":"street","lengthM":400.3,"gradientPct":0.0},"geometry":{"type":"LineString","coordinates":[[114.19466666666666,22.3288],[114.19466666666666,22.3324]]}},{"type":"Feature","properties":{"id":"kowloon-kowloon-city:n0032->n0039:street","kind":"street","lengthM":400.3,"gradientPct":0.0},"geometry":{"type":"LineString","coordinates":[[114.19466666666666,22.3324],[114.19466666666666,22.336]]}},{"type":"Feature","properties":{"id":"kowloon-kowloon-city:n0005->n0012:street","kind":"street","lengthM":400.3,"gradientPct":0.0},"geometry":{"type":"LineString","coordinates":[[114.19833333333334,22.318],[114.19833333333334,22.3216]]}},{"type":"Feature","properties":{"id":"kowloon-kowloon-city:n0012->n0019:street","kind":"street","lengthM":400.3,"gradientPct":0.0},"geometry":{"type":"LineString","coordinates":[[114.19833333333334,22.3216],[114.19833333333334,22.3252]]}},{"type":"Feature","properties":{"id":"kowloon-kowloon-city:n0019->n0026:street","kind":"street","lengthM":400.3,"gradientPct":0.0},"geometry":{"type":"LineString","coordinates":[[114.19833333333334,22.3252],[114.19833333333334,22.3288]]}},{"type":"Feature","properties":{"id":"kowloon-kowloon-city:n0026->n0033:street","kind":"street","lengthM":400.3,"gradientPct":0.0},"geometry":{"type":"LineString","coordinates":[[114.19833333333334,22.3288],[114.19833333333334,22.3324]]}},{"type":"Feature","properties":{"id":"kowloon-kowloon-city:n0033->n0040:street","kind":"street","lengthM":400.3,"gradientPct":0.0},"geometry":{"type":"LineString","coordinates":[[114.19833333333334,22.3324],[114.19833333333334,22.336]]}},{"type":"Feature","properties":{"id":"kowloon-kowloon-city:n0006->n0013:avenue","kind":"avenue","lengthM":400.3,"gradientPct":0.0},"geometry":{"type":"LineString","coordinates":[[114.202,22.318],[114.202,22.3216]]}},{"type":"Feature","properties":{"id":"kowloon-kowloon-city:n0013->n0020:avenue","kind":"avenue","lengthM":400.3,"gradientPct":0.0},"geometry":{"type":"LineString","coordinates":[[114.202,22.3216],[114.202,22.3252]]}},{"type":"Feature","properties":{"id":"kowloon-kowloon-city:n0020->n0027:avenue","kind":"avenue","lengthM":400.3,"gradientPct":0.0},"geometry":{"type":"LineString","coordinates":[[114.202,22.3252],[114.202,22.3288]]}},{"type":"Feature","properties":{"id":"kowloon-kowloon-city:n0027->n0034:avenue","kind":"avenue","lengthM":400.3,"gradientPct":0.0},"geometry":{"type":"LineString","coordinates":[[114.202,22.3288],[114.202,22.3324]]}},{"type":"Feature","properties":{"id":"kowloon-kowloon-city:n0034->n0041:avenue","kind":"avenue","lengthM":400.3,"gradientPct":0.0},"geometry":{"type":"LineString","coordinates":[[114.202,22.3324],[114.202,22.336]]}}]}