{"type":"FeatureCollection","features":[{"type":"Feature","properties":{"id":"nt-tuen-mun:n0000->n0001:avenue","kind":"avenue","lengthM":651.2,"gradientPct":0.0},"geometry":{"type":"LineString","coordinates":[[113.952,22.38],[113.95833333333333,22.38]]}},{"type":"Feature","properties":{"id":"nt-tuen-mun:n0001->n0002:avenue","kind":"avenue","lengthM":651.2,"gradientPct":0.0},"geometry":{"type":"LineString","coordinates":[[113.95833333333333,22.38],[113.96466666666666,22.38]]}},{"type":"Feature","properties":{"id":"nt-tuen-mun:n0002->n0003:avenue","kind":"avenue","lengthM":651.2,"gradientPct":0.0},"geometry":{"type":"LineString","coordinates":[[113.96466666666666,22.38],[113.971,22.38]]}},{"type":"Feature","properties":{"id":"nt-tuen-mun:n0003->n0004:avenue","kind":"avenue","lengthM":651.2,"gradientPct":0.0},"geometry":{"type":"LineString","coordinates":[[113.971,22.38],[113.97733333333333,22.38]]}},{"type":"Feature","properties":{"id":"nt-tuen-mun:n0004->n0005:avenue","kind":"avenue","lengthM":651.2,"gradientPct":0.0},"geometry":{"type":"LineString","coordinates":[[113.97733333333333,22.38],[113.98366666666666,22.38]]}},{"type":"Feature","properties":{"id":"nt-tuen-mun:n0005->n0006:avenue","kind":"avenue","lengthM":651.2,"gradientPct":0.0},"geometry":{"type":"LineString","coordinates":[[113.98366666666666,22.38],[113.99,22.38]]}},{"type":"Feature","properties":{"id":"nt-tuen-mun:n0007->n0008:street","kind":"street","lengthM":651.2,"gradientPct":0.0},"geometry":{"type":"LineString","coordinates":[[113.952,22.387],[113.95833333333333,22.387]]}},{"type":"Feature","properties":{"id":"nt-tuen-mun:n0008->n0009:street","kind":"street","lengthM":651.2,"gradientPct":0.0},"geometry":{"type":"LineString","coordinates":[[113.95833333333333,22.387],[113.96466666666666,22.387]]}},{"type":"Feature","properties":{"id":"nt-tuen-mun:n0009->n0010:street","kind":"street","lengthM":651.2,"gradientPct":0.0},"geometry":{"type":"LineString","coordinates":[[113.96466666666666,22.387],[113.971,22.387]]}},{"type":"Feature","properties":{"id":"nt-tuen-mun:n0010->n0011:street","kind":"street","lengthM":651.2,"gradientPct":0.0},"geometry":{"type":"LineString","coordinates":[[113.971,22.387],[113.97733333333333,22.387]]}},{"type":"Feature","properties":{"id":"nt-tuen-mun:n0011->n0012:street","kind":"street","lengthM":651.2,"gradientPct":0.0},"geometry":{"type":"LineString","coordinates":[[113.97733333333333,22.387],[113.98366666666666,22.387]]}},{"type":"Feature","properties":{"id":"nt-tuen-mun:n0012->n0013:street","kind":"street","lengthM":651.2,"gradientPct":0.0},"geometry":{"type":"LineString","coordinates":[[113.98366666666666,22.387],[113.99,22.387]]}},{"type":"Feature","properties":{"id":"nt-tuen-mun:n0014->n0015:street","kind":"street","lengthM":651.1,"gradientPct":0.0},"geometry":{"type":"LineString","coordinates":[[113.952,22.394],[113.95833333333333,22.394]]}},{"type":"Feature","properties":{"id":"nt-tuen-mun:n0015->n0016:street","kind":"street","lengthM":651.1,"gradientPct":0.0},"geometry":{"type":"LineString","coordinates":[[113.95833333333333,22.394],[113.96466666666666,22.394]]}},{"type":"Feature","properties":{"id":"nt-tuen-mun:n0016->n0017:street","kind":"street","lengthM":651.1,"gradientPct":0.0},"geometry":{"type":"LineString","coordinates":[[113.96466666666666,22.394],[113.971,22.394]]}},{"type":"Feature","properties":{"id":"nt-tuen-mun:n0017->n0018:street","kind":"street","lengthM":651.1,"gradientPct":0.0},"geometry":{"type":"LineString","coordinates":[[113.971,22.394],[113.97733333333333,22.394]]}},{"type":"Feature","properties":{"id":"nt-tuen-mun:n0018->n0019:street","kind":"street","lengthM":651.1,"gradientPct":0.0},"geometry":{"type":"LineString","coordinates":[[113.97733333333333,22.394],[113.98366666666666,22.394]]}},{"type":"Feature","properties":{"id":"nt-tuen-mun:n0019->n0020:street","kind":"street","lengthM":651.1,"gradientPct":0.0},"geometry":{"type":"LineString","coordinates":[[113.98366666666666,22.394],[113.99,22.394]]}},{"type":"Feature","properties":{"id":"nt-tuen-mun:n0021->n0022:street","kind":"street","lengthM":651.1,"gradientPct":0.0},"geometry":{"type":"LineString","coordinates":[[113.952,22.401],[113.95833333333333,22.401]]}},{"type":"Feature","properties":{"id":"nt-tuen-mun:n0022->n0023:street","kind":"street","lengthM":651.1,"gradientPct":0.0},"geometry":{"type":"LineString","coordinates":[[113.95833333333333,22.401],[113.96466666666666,22.401]]}},{"type":"Feature","properties":{"id":"nt-tuen-mun:n0023->n0024:street","kind":"street","lengthM":651.1,"gradientPct":0.0},"geometry":{"type":"LineString","coordinates":[[113.96466666666666,22.401],[113.971,22.401]]}},{"type":"Feature","properties":{"id":"nt-tuen-mun:n0024->n0025:street","kind":"street","lengthM":651.1,"gradientPct":0.0},"geometry":{"type":"LineString","coordinates":[[113.971,22.401],[113.97733333333333,22.401]]}},{"type":"Feature","properties":{"id":"nt-tuen-mun:n0025->n0026:street","kind":"street","lengthM":651.1,"gradientPct":0.0},"geometry":{"type":"LineString","coordinates":[[113.97733333333333,22.401],[113.98366666666666,22.401]]}},{"type":"Feature","properties":{"id":"nt-tuen-mun:n0026->n0027:street","kind":"street","lengthM":651.1,"gradientPct":0.0},"geometry":{"type":"LineString","coordinates":[[113.98366666666666,22.401],[113.99,22.401]]}},{"type":"Feature","properties":{"id":"nt-tuen-mun:n0028->n0029:street","kind":"street","lengthM":651.1,"gradientPct":0.0},"geometry":{"type":"LineString","coordinates":[[113.952,22.407999999999998],[113.95833333333333,22.407999999999998]]}},{"type":"Feature","properties":{"id":"nt-tuen-mun:n0029->n0030:street","kind":"street","lengthM":651.1,"gradientPct":0.0},"geometry":{"type":"LineString","coordinates":[[113.95833333333333,22.407999999999998],[113.96466666666666,22.407999999999998]]}},{"type":"Feature","properties":{"id":"nt-tuen-mun:n0030->n0031:street","kind":"street","lengthM":651.1,"gradientPct":0.0},"geometry":{"type":"LineString","coordinates":[[113.96466666666666,22.407999999999998],[113.971,22.407999999999998]]}},{"type":"Feature","properties":{"id":"nt-tuen-mun:n0031->n0032:street","kind":"street","lengthM":651.1,"gradientPct":0.0},"geometry":{"type":"LineString","coordinates":[[113.971,22.407999999999998],[113.97733333333333,22.407999999999998]]}},{"type":"Feature","properties":{"id":"nt-tuen-mun:n0032->n0033:street","kind":"street","lengthM":651.1,"gradientPct":0.0},"geometry":{"type":"LineString","coordinates":[[113.97733333333333,22.407999999999998],[113.98366666666666,22.407999999999998]]}},{"type":"Feature","properties":{"id":"nt-tuen-mun:n0033->n0034:street","kind":"street","lengthM":651.1,"gradientPct":0.0},"geometry":{"type":"LineString","coordinates":[[113.98366666666666,22.407999999999998],[113.99,22.407999999999998]]}},{"type":"Feature","properties":{"id":"nt-tuen-mun:n0035->n0036:avenue","kind":"avenue","lengthM":651.0,"gradientPct":0.0},"geometry":{"type":"LineString","coordinates":[[113.952,22.415],[113.95833333333333,22.415]]}},{"type":"Feature","properties":{"id":"nt-tuen-mun:n0036->n0037:avenue","kind":"avenue","lengthM":651.0,"gradientPct":0.0},"geometry":{"type":"LineString","coordinates":[[113.95833333333333,22.415],[113.96466666666666,22.415]]}},{"type":"Feature","properties":{"id":"nt-tuen-mun:n0037->n0038:avenue","kind":"avenue","lengthM":651.0,"gradientPct":0.0},"geometry":{"type":"LineString","coordinates":[[113.96466666666666,22.415],[113.971,22.415]]}},{"type":"Feature","properties":{"id":"nt-tuen-mun:n0038->n0039:avenue","kind":"avenue","lengthM":651.0,"gradientPct":0.0},"geometry":{"type":"LineString","coordinates":[[113.971,22.415],[113.97733333333333,22.415]]}},{"type":"Feature","properties":{"id":"nt-tuen-mun:n0039->n0040:avenue","kind":"avenue","lengthM":651.0,"gradientPct":0.0},"geometry":{"type":"LineString","coordinates":[[113.97733333333333,22.415],[113.98366666666666,22.415]]}},{"type":"Feature","properties":{"id":"nt-tuen-mun:n0040->n0041:avenue","kind":"avenue","lengthM":651.0,"gradientPct":0.0},"geometry":{"type":"LineString","coordinates":[[113.98366666666666,22.415],[113.99,22.415]]}},{"type":"Feature","properties":{"id":"nt-tuen-mun:n0000->n0007:avenue","kind":"avenue","lengthM":778.4,"gradientPct":0.0},"geometry":{"type":"LineString","coordinates":[[113.952,22.38],[113.952,22.387]]}},{"type":"Feature","properties":{"id":"nt-tuen-mun:n0007->n0014:avenue","kind":"avenue","lengthM":778.4,"gradientPct":0.0},"geometry":{"type":"LineString","coordinates":[[113.952,22.387],[113.952,22.394]]}},{"type":"Feature","properties":{"id":"nt-tuen-mun:n0014->n0021:avenue","kind":"avenue","lengthM":778.4,"gradientPct":0.0},"geometry":{"type":"LineString","coordinates":[[113.952,22.394],[113.952,22.401]]}},{"type":"Feature","properties":{"id":"nt-tuen-mun:n0021->n0028:avenue","kind":"avenue","lengthM":778.4,"gradientPct":0.0},"geometry":{"type":"LineString","coordinates":[[113.952,22.401],[113.952,22.407999999999998]]}},{"type":"Feature","properties":{"id":"nt-tuen-mun:n0028->n0035:avenue","kind":"avenue","lengthM":778.4,"gradientPct":0.0},"geometry":{"type":"LineString","coordinates":[[113.952,22.407999999999998],[113.952,22.415]]}},{"type":"Feature","properties":{"id":"nt-tuen-mun:n0001->n0008:street","kind":"street","lengthM":778.4,"gradientPct":0.0},"geometry":{"type":"LineString","coordinates":[[113.95833333333333,22.38],[113.95833333333333,22.387]]}},{"type":"Feature","properties":{"id":"nt-tuen-mun:n0008->n0015:street","kind":"street","lengthM":778.4,"gradientPct":0.0},"geometry":{"type":"LineString","coordinates":[[113.95833333333333,22.387],[113.95833333333333,22.394]]}},{"type":"Feature","properties":{"id":"nt-tuen-mun:n0015->n0022:street","kind":"street","lengthM":778.4,"gradientPct":0.0},"geometry":{"type":"LineString","coordinates":[[113.95833333333333,22.394],[113.95833333333333,22.401]]}},{"type":"Feature","properties":{"id":"nt-tuen-mun:n0022->n0029:street","kind":"street","lengthM":778.4,"gradientPct":0.0},"geometry":{"type":"LineString","coordinates":[[113.95833333333333,22.401],[113.95833333333333,22.407999999999998]]}},{"type":"Feature","properties":{"id":"nt-tuen-mun:n0029->n0036:street","kind":"street","lengthM":778.4,"gradientPct":0.0},"geometry":{"type":"LineString","coordinates":[[113.95833333333333,22.407999999999998],[113.95833333333333,22.415]]}},{"type":"Feature","properties":{"id":"nt-tuen-mun:n0002->n0009:street","kind":"street","lengthM":778.4,"gradientPct":0.0},"geometry":{"type":"LineString","coordinates":[[113.96466666666666,22.38],[113.96466666666666,22.387]]}},{"type":"Feature","properties":{"id":"nt-tuen-mun:n0009->n0016:street","kind":"street","lengthM":778.4,"gradientPct":0.0},"geometry":{"type":"LineString","coordinates":[[113.96466666666666,22.387],[113.96466666666666,22.394]]}},{"type":"Feature","properties":{"id":"nt-tuen-mun:n0016->n0023:street","kind":"street","lengthM":778.4,"gradientPct":0.0},"geometry":{"type":"LineString","coordinates":[[113.96466666666666,22.394],[113.96466666666666,22.401]]}},{"type":"Feature","properties":{"id":"nt-tuen-mun:n0023->n0030:street","kind":"street","lengthM":778.4,"gradientPct":0.0},"geometry":{"type":"LineString","coordinates":[[113.96466666666666,22.401],[113.96466666666666,22.407999999999998]]}},{"type":"Feature","properties":{"id":"nt-tuen-mun:n0030->n0037:street","kind":"street","lengthM":778.4,"gradientPct":0.0},"geometry":{"type":"LineString","coordinates":[[113.96466666666666,22.407999999999998],[113.96466666666666,22.415]]}},{"type":"Feature","properties":{"id":"nt-tuen-mun:n0003->n0010:street","kind":"street","lengthM":778.4,"gradientPct":0.0},"geometry":{"type":"LineString","coordinates":[[113.971,22.38],[113.971,22.387]]}},{"type":"Feature","properties":{"id":"nt-tuen-mun:n0010->n0017:street","kind":"street","lengthM":778.4,"gradientPct":0.0},"geometry":{"type":"LineString","coordinates":[[113.971,22.387],[113.971,22.394]]}},{"type":"Feature","properties":{"id":"nt-tuen-mun:n0017->n0024:street","kind":"street","lengthM":778.4,"gradientPct":0.0},"geometry":{"type":"LineString","coordinates":[[113.971,22.394],[113.971,22.401]]}},{"type":"Feature","properties":{"id":"nt-tuen-mun:n0024->n0031:street","kind":"street","lengthM":778.4,"gradientPct":0.0},"geometry":{"type":"LineString","coordinates":[[113.971,22.401],[113.971,22.407999999999998]]}},{"type":"Feature","properties":{"id":"nt-tuen-mun:n0031->n0038:street","kind":"street","lengthM":778.4,"gradientPct":0.0},"geometry":{"type":"LineString","coordinates":[[113.971,22.407999999999998],[113.971,22.415]]}},{"type":"Feature","properties":{"id":"nt-tuen-mun:n0004->n0011:street","kind":"street","lengthM":778.4,"gradientPct":0.0},"geometry":{"type":"LineString","coordinates":[[113.97733333333333,22.38],[113.97733333333333,22.387]]}},{"type":"Feature","properties":{"id":"nt-tuen-mun:n0011->n0018:street","kind":"street","lengthM":778.4,"gradientPct":0.0},"geometry":{"type":"LineString","coordinates":[[113.97733333333333,22.387],[113.97733333333333,22.394]]}},{"type":"Feature","properties":{"id":"nt-tuen-mun:n0018->n0025:street","kind":"street","lengthM":778.4,"gradientPct":0.0},"geometry":{"type":"LineString","coordinates":[[113.97733333333333,22.394],[113.97733333333333,22.401]]}},{"type":"Feature","properties":{"id":"nt-tuen-mun:n0025->n0032:street","kind":"street","lengthM":778.4,"gradientPct":0.0},"geometry":{"type":"LineString","coordinates":[[113.97733333333333,22.401],[113.97733333333333,22.407999999999998]]}},{"type":"Feature","properties":{"id":"nt-tuen-mun:n0032->n0039:street","kind":"street","lengthM":778.4,"gradientPct":0.0},"geometry":{"type":"LineString","coordinates":[[113.97733333333333,22.407999999999998],[113.97733333333333,22.415]]}},{"type":"Feature","properties":{"id":"nt-tuen-mun:n0005->n0012:street","kind":"street","lengthM":778.4,"gradientPct":0.0},"geometry":{"type":"LineString","coordinates":[[113.98366666666666,22.38],[113.98366666666666,22.387]]}},{"type":"Feature","properties":{"id":"nt-tuen-mun:n0012->n0019:street","kind":"street","lengthM":778.4,"gradientPct":0.0},"geometry":{"type":"LineString","coordinates":[[113.98366666666666,22.387],[113.98366666666666,22.394]]}},{"type":"Feature","properties":{"id":"nt-tuen-mun:n0019->n0026:street","kind":"street","lengthM":778.4,"gradientPct":0.0},"geometry":{"type":"LineString","coordinates":[[113.98366666666666,22.394],[113.98366666666666,22.401]]}},{"type":"Feature","properties":{"id":"nt-tuen-mun:n0026->n0033:street","kind":"street","lengthM":778.4,"gradientPct":0.0},"geometry":{"type":"LineString","coordinates":[[113.98366666666666,22.401],[113.98366666666666,22.407999999999998]]}},{"type":"Feature","properties":{"id":"nt-tuen-mun:n0033->n0040:street","kind":"street","lengthM":778.4,"gradientPct":0.0},"geometry":{"type":"LineString","coordinates":[[113.98366666666666,22.407999999999998],[113.98366666666666,22.415]]}},{"type":"Feature","properties":{"id":"nt-tuen-mun:n0006->n0013:avenue","kind":"avenue","lengthM":778.4,"gradientPct":0.0},"geometry":{"type":"LineString","coordinates":[[113.99,22.38],[113.99,22.387]]}},{"type":"Feature","properties":{"id":"nt-tuen-mun:n0013->n0020:avenue","kind":"avenue","lengthM":778.4,"gradientPct":0.0},"geometry":{"type":"LineString","coordinates":[[113.99,22.387],[113.99,22.394]]}},{"type":"Feature","properties":{"id":"nt-tuen-mun:n0020->n0027:avenue","kind":"avenue","lengthM":778.4,"gradientPct":0.0},"geometry":{"type":"LineString","coordinates":[[113.99,22.394],[113.99,22.401]]}},{"type":"Feature","properties":{"id":"nt-tuen-mun:n0027->n0034:avenue","kind":"avenue","lengthM":778.4,"gradientPct":0.0},"geometry":{"type":"LineString","coordinates":[[113.99,22.401],[113.99,22.407999999999998]]}},{"type":"Feature","properties":{"id":"nt-tuen-mun:n0034->n0041:avenue","kind":"avenue","lengthM":778.4,"gradientPct":0.0},"geometry":{"type":"LineString","coordinates":[[113.99,22.407999999999998],[113.99,22.415]]}}]}