{"type":"FeatureCollection","features":[{"type":"Feature","properties":{"id":"eastern:n0000->n0001:avenue","kind":"avenue","lengthM":548.8,"gradientPct":0.0},"geometry":{"type":"LineString","coordinates":[[114.2,22.28],[114.20533333333333,22.28]]}},{"type":"Feature","properties":{"id":"eastern:n0001->n0002:avenue","kind":"avenue","lengthM":548.8,"gradientPct":0.0},"geometry":{"type":"LineString","coordinates":[[114.20533333333333,22.28],[114.21066666666667,22.28]]}},{"type":"Feature","properties":{"id":"eastern:n0002->n0003:avenue","kind":"avenue","lengthM":548.8,"gradientPct":0.0},"geometry":{"type":"LineString","coordinates":[[114.21066666666667,22.28],[114.21600000000001,22.28]]}},{"type":"Feature","properties":{"id":"eastern:n0003->n0004:avenue","kind":"avenue","lengthM":548.8,"gradientPct":0.0},"geometry":{"type":"LineString","coordinates":[[114.21600000000001,22.28],[114.22133333333333,22.28]]}},{"type":"Feature","properties":{"id":"eastern:n0004->n0005:avenue","kind":"avenue","lengthM":548.8,"gradientPct":0.0},"geometry":{"type":"LineString","coordinates":[[114.22133333333333,22.28],[114.22666666666666,22.28]]}},{"type":"Feature","properties":{"id":"eastern:n0005->n0006:avenue","kind":"avenue","lengthM":548.8,"gradientPct":0.0},"geometry":{"type":"LineString","coordinates":[[114.22666666666666,22.28],[114.232,22.28]]}},{"type":"Feature","properties":{"id":"eastern:n0007->n0008:street","kind":"street","lengthM":548.8,"gradientPct":0.0},"geometry":{"type":"LineString","coordinates":[[114.2,22.283],[114.20533333333333,22.283]]}},{"type":"Feature","properties":{"id":"eastern:n0008->n0009:street","kind":"street","lengthM":548.8,"gradientPct":0.0},"geometry":{"type":"LineString","coordinates":[[114.20533333333333,22.283],[114.21066666666667,22.283]]}},{"type":"Feature","properties":{"id":"eastern:n0009->n0010:street","kind":"street","lengthM":548.8,"gradientPct":0.0},"geometry":{"type":"LineString","coordinates":[[114.21066666666667,22.283],[114.21600000000001,22.283]]}},{"type":"Feature","properties":{"id":"eastern:n0010->n0011:street","kind":"street","lengthM":548.8,"gradientPct":0.0},"geometry":{"type":"LineString","coordinates":[[114.21600000000001,22.283],[114.22133333333333,22.283]]}},{"type":"Feature","properties":{"id":"eastern:n0011->n0012:street","kind":"street","lengthM":548.8,"gradientPct":0.0},"geometry":{"type":"LineString","coordinates":[[114.22133333333333,22.283],[114.22666666666666,22.283]]}},{"type":"Feature","properties":{"id":"eastern:n0012->n0013:street","kind":"street","lengthM":548.8,"gradientPct":0.0},"geometry":{"type":"LineString","coordinates":[[114.22666666666666,22.283],[114.232,22.283]]}},{"type":"Feature","properties":{"id":"eastern:n0014->n0015:street","kind":"street","lengthM":548.7,"gradientPct":0.0},"geometry":{"type":"LineString","coordinates":[[114.2,22.286],[114.20533333333333,22.286]]}},{"type":"Feature","properties":{"id":"eastern:n0015->n0016:street","kind":"street","lengthM":548.7,"gradientPct":0.0},"geometry":{"type":"LineString","coordinates":[[114.20533333333333,22.286],[114.21066666666667,22.286]]}},{"type":"Feature","properties":{"id":"eastern:n0016->n0017:street","kind":"street","lengthM":548.7,"gradientPct":0.0},"geometry":{"type":"LineString","coordinates":[[114.21066666666667,22.286],[114.21600000000001,22.286]]}},{"type":"Feature","properties":{"id":"eastern:n0017->n0018:street","kind":"street","lengthM":548.7,"gradientPct":0.0},"geometry":{"type":"LineString","coordinates":[[114.21600000000001,22.286],[114.22133333333333,22.286]]}},{"type":"Feature","properties":{"id":"eastern:n0018->n0019:street","kind":"street","lengthM":548.7,"gradientPct":0.0},"geometry":{"type":"LineString","coordinates":[[114.22133333333333,22.286],[114.22666666666666,22.286]]}},{"type":"Feature","properties":{"id":"eastern:n0019->n0020:street","kind":"street","lengthM":548.7,"gradientPct":0.0},"geometry":{"type":"LineString","coordinates":[[114.22666666666666,22.286],[114.232,22.286]]}},{"type":"Feature","properties":{"id":"eastern:n0021->n0022:street","kind":"street","lengthM":548.7,"gradientPct":0.0},"geometry":{"type":"LineString","coordinates":[[114.2,22.289],[114.20533333333333,22.289]]}},{"type":"Feature","properties":{"id":"eastern:n0022->n0023:street","kind":"street","lengthM":548.7,"gradientPct":0.0},"geometry":{"type":"LineString","coordinates":[[114.20533333333333,22.289],[114.21066666666667,22.289]]}},{"type":"Feature","properties":{"id":"eastern:n0023->n0024:street","kind":"street","lengthM":548.7,"gradientPct":0.0},"geometry":{"type":"LineString","coordinates":[[114.21066666666667,22.289],[114.21600000000001,22.289]]}},{"type":"Feature","properties":{"id":"eastern:n0024->n0025:street","kind":"street","lengthM":548.7,"gradientPct":0.0},"geometry":{"type":"LineString","coordinates":[[114.21600000000001,22.289],[114.22133333333333,22.289]]}},{"type":"Feature","properties":{"id":"eastern:n0025->n0026:street","kind":"street","lengthM":548.7,"gradientPct":0.0},"geometry":{"type":"LineString","coordinates":[[114.22133333333333,22.289],[114.22666666666666,22.289]]}},{"type":"Feature","properties":{"id":"eastern:n0026->n0027:street","kind":"street","lengthM":548.7,"gradientPct":0.0},"geometry":{"type":"LineString","coordinates":[[114.22666666666666,22.289],[114.232,22.289]]}},{"type":"Feature","properties":{"id":"eastern:n0028->n0029:street","kind":"street","lengthM":548.7,"gradientPct":0.0},"geometry":{"type":"LineString","coordinates":[[114.2,22.292],[114.20533333333333,22.292]]}},{"type":"Feature","properties":{"id":"eastern:n0029->n0030:street","kind":"street","lengthM":548.7,"gradientPct":0.0},"geometry":{"type":"LineString","coordinates":[[114.20533333333333,22.292],[114.21066666666667,22.292]]}},{"type":"Feature","properties":{"id":"eastern:n0030->n0031:street","kind":"street","lengthM":548.7,"gradientPct":0.0},"geometry":{"type":"LineString","coordinates":[[114.21066666666667,22.292],[114.21600000000001,22.292]]}},{"type":"Feature","properties":{"id":"eastern:n0031->n0032:street","kind":"street","lengthM":548.7,"gradientPct":0.0},"geometry":{"type":"LineString","coordinates":[[114.21600000000001,22.292],[114.22133333333333,22.292]]}},{"type":"Feature","properties":{"id":"eastern:n0032->n0033:street","kind":"street","lengthM":548.7,"gradientPct":0.0},"geometry":{"type":"LineString","coordinates":[[114.22133333333333,22.292],[114.22666666666666,22.292]]}},{"type":"Feature","properties":{"id":"eastern:n0033->n0034:street","kind":"street","lengthM":548.7,"gradientPct":0.0},"geometry":{"type":"LineString","coordinates":[[114.22666666666666,22.292],[114.232,22.292]]}},{"type":"Feature","properties":{"id":"eastern:n0035->n0036:avenue","kind":"avenue","lengthM":548.7,"gradientPct":0.0},"geometry":{"type":"LineString","coordinates":[[114.2,22.295],[114.20533333333333,22.295]]}},{"type":"Feature","properties":{"id":"eastern:n0036->n0037:avenue","kind":"avenue","lengthM":548.7,"gradientPct":0.0},"geometry":{"type":"LineString","coordinates":[[114.20533333333333,22.295],[114.21066666666667,22.295]]}},{"type":"Feature","properties":{"id":"eastern:n0037->n0038:avenue","kind":"avenue","lengthM":548.7,"gradientPct":0.0},"geometry":{"type":"LineString","coordinates":[[114.21066666666667,22.295],[114.21600000000001,22.295]]}},{"type":"Feature","properties":{"id":"eastern:n0038->n0039:avenue","kind":"avenue","lengthM":548.7,"gradientPct":0.0},"geometry":{"type":"LineString","coordinates":[[114.21600000000001,22.295],[114.22133333333333,22.295]]}},{"type":"Feature","properties":{"id":"eastern:n0039->n0040:avenue","kind":"avenue","lengthM":548.7,"gradientPct":0.0},"geometry":{"type":"LineString","coordinates":[[114.22133333333333,22.295],[114.22666666666666,22.295]]}},{"type":"Feature","properties":{"id":"eastern:n0040->n0041:avenue","kind":"avenue","lengthM":548.7,"gradientPct":0.0},"geometry":{"type":"LineString","coordinates":[[114.22666666666666,22.295],[114.232,22.295]]}},{"type":"Feature","properties":{"id":"eastern:n0000->n0007:avenue","kind":"avenue","lengthM":333.6,"gradientPct":0.0},"geometry":{"type":"LineString","coordinates":[[114.2,22.28],[114.2,22.283]]}},{"type":"Feature","properties":{"id":"eastern:n0007->n0014:avenue","kind":"avenue","lengthM":333.6,"gradientPct":0.0},"geometry":{"type":"LineString","coordinates":[[114.2,22.283],[114.2,22.286]]}},{"type":"Feature","properties":{"id":"eastern:n0014->n0021:avenue","kind":"avenue","lengthM":333.6,"gradientPct":0.0},"geometry":{"type":"LineString","coordinates":[[114.2,22.286],[114.2,22.289]]}},{"type":"Feature","properties":{"id":"eastern:n0021->n0028:avenue","kind":"avenue","lengthM":333.6,"gradientPct":0.0},"geometry":{"type":"LineString","coordinates":[[114.2,22.289],[114.2,22.292]]}},{"type":"Feature","properties":{"id":"eastern:n0028->n0035:avenue","kind":"avenue","lengthM":333.6,"gradientPct":0.0},"geometry":{"type":"LineString","coordinates":[[114.2,22.292],[114.2,22.295]]}},{"type":"Feature","properties":{"id":"eastern:n0001->n0008:street","kind":"street","lengthM":333.6,"gradientPct":0.0},"geometry":{"type":"LineString","coordinates":[[114.20533333333333,22.28],[114.20533333333333,22.283]]}},{"type":"Feature","properties":{"id":"eastern:n0008->n0015:street","kind":"street","lengthM":333.6,"gradientPct":0.0},"geometry":{"type":"LineString","coordinates":[[114.20533333333333,22.283],[114.20533333333333,22.286]]}},{"type":"Feature","properties":{"id":"eastern:n0015->n0022:street","kind":"street","lengthM":333.6,"gradientPct":0.0},"geometry":{"type":"LineString","coordinates":[[114.20533333333333,22.286],[114.20533333333333,22.289]]}},{"type":"Feature","properties":{"id":"eastern:n0022->n0029:street","kind":"street","lengthM":333.6,"gradientPct":0.0},"geometry":{"type":"LineString","coordinates":[[114.20533333333333,22.289],[114.20533333333333,22.292]]}},{"type":"Feature","properties":{"id":"eastern:n0029->n0036:street","kind":"street","lengthM":333.6,"gradientPct":0.0},"geometry":{"type":"LineString","coordinates":[[114.20533333333333,22.292],[114.20533333333333,22.295]]}},{"type":"Feature","properties":{"id":"eastern:n0002->n0009:street","kind":"street","lengthM":333.6,"gradientPct":0.0},"geometry":{"type":"LineString","coordinates":[[114.21066666666667,22.28],[114.21066666666667,22.283]]}},{"type":"Feature","properties":{"id":"eastern:n0009->n0016:street","kind":"street","lengthM":333.6,"gradientPct":0.0},"geometry":{"type":"LineString","coordinates":[[114.21066666666667,22.283],[114.21066666666667,22.286]]}},{"type":"Feature","properties":{"id":"eastern:n0016->n0023:street","kind":"street","lengthM":333.6,"gradientPct":0.0},"geometry":{"type":"LineString","coordinates":[[114.21066666666667,22.286],[114.21066666666667,22.289]]}},{"type":"Feature","properties":{"id":"eastern:n0023->n0030:street","kind":"street","lengthM":333.6,"gradientPct":0.0},"geometry":{"type":"LineString","coordinates":[[114.21066666666667,22.289],[114.21066666666667,22.292]]}},{"type":"Feature","properties":{"id":"eastern:n0030->n0037:street","kind":"street","lengthM":333.6,"gradientPct":0.0},"geometry":{"type":"LineString","coordinates":[[114.21066666666667,22.292],[114.21066666666667,22.295]]}},{"type":"Feature","properties":{"id":"eastern:n0003->n0010:street","kind":"street","lengthM":333.6,"gradientPct":0.0},"geometry":{"type":"LineString","coordinates":[[114.21600000000001,22.28],[114.21600000000001,22.283]]}},{"type":"Feature","properties":{"id":"eastern:n0010->n0017:street","kind":"street","lengthM":333.6,"gradientPct":0.0},"geometry":{"type":"LineString","coordinates":[[114.21600000000001,22.283],[114.21600000000001,22.286]]}},{"type":"Feature","properties":{"id":"eastern:n0017->n0024:street","kind":"street","lengthM":333.6,"gradientPct":0.0},"geometry":{"type":"LineString","coordinates":[[114.21600000000001,22.286],[114.21600000000001,22.289]]}},{"type":"Feature","properties":{"id":"eastern:n0024->n0031:street","kind":"street","lengthM":333.6,"gradientPct":0.0},"geometry":{"type":"LineString","coordinates":[[114.21600000000001,22.289],[114.21600000000001,22.292]]}},{"type":"Feature","properties":{"id":"eastern:n0031->n0038:street","kind":"street","lengthM":333.6,"gradientPct":0.0},"geometry":{"type":"LineString","coordinates":[[114.21600000000001,22.292],[114.21600000000001,22.295]]}},{"type":"Feature","properties":{"id":"eastern:n0004->n0011:street","kind":"street","lengthM":333.6,"gradientPct":0.0},"geometry":{"type":"LineString","coordinates":[[114.22133333333333,22.28],[114.22133333333333,22.283]]}},{"type":"Feature","properties":{"id":"eastern:n0011->n0018:street","kind":"street","lengthM":333.6,"gradientPct":0.0},"geometry":{"type":"LineString","coordinates":[[114.22133333333333,22.283],[114.22133333333333,22.286]]}},{"type":"Feature","properties":{"id":"eastern:n0018->n0025:street","kind":"street","lengthM":333.6,"gradientPct":0.0},"geometry":{"type":"LineString","coordinates":[[114.22133333333333,22.286],[114.22133333333333,22.289]]}},{"type":"Feature","properties":{"id":"eastern:n0025->n0032:street","kind":"street","lengthM":333.6,"gradientPct":0.0},"geometry":{"type":"LineString","coordinates":[[114.22133333333333,22.289],[114.22133333333333,22.292]]}},{"type":"Feature","properties":{"id":"eastern:n0032->n0039:street","kind":"street","lengthM":333.6,"gradientPct":0.0},"geometry":{"type":"LineString","coordinates":[[114.22133333333333,22.292],[114.22133333333333,22.295]]}},{"type":"Feature","properties":{"id":"eastern:n0005->n0012:street","kind":"street","lengthM":333.6,"gradientPct":0.0},"geometry":{"type":"LineString","coordinates":[[114.22666666666666,22.28],[114.22666666666666,22.283]]}},{"type":"Feature","properties":{"id":"eastern:n0012->n0019:street","kind":"street","lengthM":333.6,"gradientPct":0.0},"geometry":{"type":"LineString","coordinates":[[114.22666666666666,22.283],[114.22666666666666,22.286]]}},{"type":"Feature","properties":{"id":"eastern:n0019->n0026:street","kind":"street","lengthM":333.6,"gradientPct":0.0},"geometry":{"type":"LineString","coordinates":[[114.22666666666666,22.286],[114.22666666666666,22.289]]}},{"type":"Feature","properties":{"id":"eastern:n0026->n0033:street","kind":"street","lengthM":333.6,"gradientPct":0.0},"geometry":{"type":"LineString","coordinates":[[114.22666666666666,22.289],[114.22666666666666,22.292]]}},{"type":"Feature","properties":{"id":"eastern:n0033->n0040:street","kind":"street","lengthM":333.6,"gradientPct":0.0},"geometry":{"type":"LineString","coordinates":[[114.22666666666666,22.292],[114.22666666666666,22.295]]}},{"type":"Feature","properties":{"id":"eastern:n0006->n0013:avenue","kind":"avenue","lengthM":333.6,"gradientPct":0.0},"geometry":{"type":"LineString","coordinates":[[114.232,22.28],[114.232,22.283]]}},{"type":"Feature","properties":{"id":"eastern:n0013->n0020:avenue","kind":"avenue","lengthM":333.6,"gradientPct":0.0},"geometry":{"type":"LineString","coordinates":[[114.232,22.283],[114.232,22.286]]}},{"type":"Feature","properties":{"id":"eastern:n0020->n0027:avenue","kind":"avenue","lengthM":333.6,"gradientPct":0.0},"geometry":{"type":"LineString","coordinates":[[114.232,22.286],[114.232,22.289]]}},{"type":"Feature","properties":{"id":"eastern:n0027->n0034:avenue","kind":"avenue","lengthM":333.6,"gradientPct":0.0},"geometry":{"type":"LineString","coordinates":[[114.232,22.289],[114.232,22.292]]}},{"type":"Feature","properties":{"id":"eastern:n0034->n0041:avenue","kind":"avenue","lengthM":333.6,"gradientPct":0.0},"geometry":{"type":"LineString","coordinates":[[114.232,22.292],[114.232,22.295]]}}]}