{"type":"FeatureCollection","features":[{"type":"Feature","properties":{"id":"kowloon-kwun-tong:n0000->n0001:avenue","kind":"avenue","lengthM":428.7,"gradientPct":0.0},"geometry":{"type":"LineString","coordinates":[[114.215,22.302],[114.21916666666667,22.302]]}},{"type":"Feature","properties":{"id":"kowloon-kwun-tong:n0001->n0002:avenue","kind":"avenue","lengthM":428.7,"gradientPct":0.0},"geometry":{"type":"LineString","coordinates":[[114.21916666666667,22.302],[114.22333333333333,22.302]]}},{"type":"Feature","properties":{"id":"kowloon-kwun-tong:n0002->n0003:avenue","kind":"avenue","lengthM":428.7,"gradientPct":0.0},"geometry":{"type":"LineString","coordinates":[[114.22333333333333,22.302],[114.22749999999999,22.302]]}},{"type":"Feature","properties":{"id":"kowloon-kwun-tong:n0003->n0004:avenue","kind":"avenue","lengthM":428.7,"gradientPct":0.0},"geometry":{"type":"LineString","coordinates":[[114.22749999999999,22.302],[114.23166666666667,22.302]]}},{"type":"Feature","properties":{"id":"kowloon-kwun-tong:n0004->n0005:avenue","kind":"avenue","lengthM":428.7,"gradientPct":0.0},"geometry":{"type":"LineString","coordinates":[[114.23166666666667,22.302],[114.23583333333333,22.302]]}},{"type":"Feature","properties":{"id":"kowloon-kwun-tong:n0005->n0006:avenue","kind":"avenue","lengthM":428.7,"gradientPct":0.0},"geometry":{"type":"LineString","coordinates":[[114.23583333333333,22.302],[114.24,22.302]]}},{"type":"Feature","properties":{"id":"kowloon-kwun-tong:n0007->n0008:street","kind":"street","lengthM":428.6,"gradientPct":0.0},"geometry":{"type":"LineString","coordinates":[[114.215,22.3068],[114.21916666666667,22.3068]]}},{"type":"Feature","properties":{"id":"kowloon-kwun-tong:n0008->n0009:street","kind":"street","lengthM":428.6,"gradientPct":0.0},"geometry":{"type":"LineString","coordinates":[[114.21916666666667,22.3068],[114.22333333333333,22.3068]]}},{"type":"Feature","properties":{"id":"kowloon-kwun-tong:n0009->n0010:street","kind":"street","lengthM":428.6,"gradientPct":0.0},"geometry":{"type":"LineString","coordinates":[[114.22333333333333,22.3068],[114.22749999999999,22.3068]]}},{"type":"Feature","properties":{"id":"kowloon-kwun-tong:n0010->n0011:street","kind":"street","lengthM":428.6,"gradientPct":0.0},"geometry":{"type":"LineString","coordinates":[[114.22749999999999,22.3068],[114.23166666666667,22.3068]]}},{"type":"Feature","properties":{"id":"kowloon-kwun-tong:n0011->n0012:street","kind":"street","lengthM":428.6,"gradientPct":0.0},"geometry":{"type":"LineString","coordinates":[[114.23166666666667,22.3068],[114.23583333333333,22.3068]]}},{"type":"Feature","properties":{"id":"kowloon-kwun-tong:n0012->n0013:street","kind":"street","lengthM":428.6,"gradientPct":0.0},"geometry":{"type":"LineString","coordinates":[[114.23583333333333,22.3068],[114.24,22.3068]]}},{"type":"Feature","properties":{"id":"kowloon-kwun-tong:n0014->n0015:street","kind":"street","lengthM":428.6,"gradientPct":0.0},"geometry":{"type":"LineString","coordinates":[[114.215,22.3116],[114.21916666666667,22.3116]]}},{"type":"Feature","properties":{"id":"kowloon-kwun-tong:n0015->n0016:street","kind":"street","lengthM":428.6,"gradientPct":0.0},"geometry":{"type":"LineString","coordinates":[[114.21916666666667,22.3116],[114.22333333333333,22.3116]]}},{"type":"Feature","properties":{"id":"kowloon-kwun-tong:n0016->n0017:street","kind":"street","lengthM":428.6,"gradientPct":0.0},"geometry":{"type":"LineString","coordinates":[[114.22333333333333,22.3116],[114.22749999999999,22.3116]]}},{"type":"Feature","properties":{"id":"kowloon-kwun-tong:n0017->n0018:street","kind":"street","lengthM":428.6,"gradientPct":0.0},"geometry":{"type":"LineString","coordinates":[[114.22749999999999,22.3116],[114.23166666666667,22.3116]]}},{"type":"Feature","properties":{"id":"kowloon-kwun-tong:n0018->n0019:street","kind":"street","lengthM":428.6,"gradientPct":0.0},"geometry":{"type":"LineString","coordinates":[[114.23166666666667,22.3116],[114.23583333333333,22.3116]]}},{"type":"Feature","properties":{"id":"kowloon-kwun-tong:n0019->n0020:street","kind":"street","lengthM":428.6,"gradientPct":0.0},"geometry":{"type":"LineString","coordinates":[[114.23583333333333,22.3116],[114.24,22.3116]]}},{"type":"Feature","properties":{"id":"kowloon-kwun-tong:n0021->n0022:street","kind":"street","lengthM":428.6,"gradientPct":0.0},"geometry":{"type":"LineString","coordinates":[[114.215,22.3164],[114.21916666666667,22.3164]]}},{"type":"Feature","properties":{"id":"kowloon-kwun-tong:n0022->n0023:street","kind":"street","lengthM":428.6,"gradientPct":0.0},"geometry":{"type":"LineString","coordinates":[[114.21916666666667,22.3164],[114.22333333333333,22.3164]]}},{"type":"Feature","properties":{"id":"kowloon-kwun-tong:n0023->n0024:street","kind":"street","lengthM":428.6,"gradientPct":0.0},"geometry":{"type":"LineString","coordinates":[[114.22333333333333,22.3164],[114.22749999999999,22.3164]]}},{"type":"Feature","properties":{"id":"kowloon-kwun-tong:n0024->n0025:street","kind":"street","lengthM":428.6,"gradientPct":0.0},"geometry":{"type":"LineString","coordinates":[[114.22749999999999,22.3164],[114.23166666666667,22.3164]]}},{"type":"Feature","properties":{"id":"kowloon-kwun-tong:n0025->n0026:street","kind":"street","lengthM":428.6,"gradientPct":0.0},"geometry":{"type":"LineString","coordinates":[[114.23166666666667,22.3164],[114.23583333333333,22.3164]]}},{"type":"Feature","properties":{"id":"kowloon-kwun-tong:n0026->n0027:street","kind":"street","lengthM":428.6,"gradientPct":0.0},"geometry":{"type":"LineString","coordinates":[[114.23583333333333,22.3164],[114.24,22.3164]]}},{"type":"Feature","properties":{"id":"kowloon-kwun-tong:n0028->n0029:street","kind":"street","lengthM":428.6,"gradientPct":0.0},"geometry":{"type":"LineString","coordinates":[[114.215,22.3212],[114.21916666666667,22.3212]]}},{"type":"Feature","properties":{"id":"kowloon-kwun-tong:n0029->n0030:street","kind":"street","lengthM":428.6,"gradientPct":0.0},"geometry":{"type":"LineString","coordinates":[[114.21916666666667,22.3212],[114.22333333333333,22.3212]]}},{"type":"Feature","properties":{"id":"kowloon-kwun-tong:n0030->n0031:street","kind":"street","lengthM":428.6,"gradientPct":0.0},"geometry":{"type":"LineString","coordinates":[[114.22333333333333,22.3212],[114.22749999999999,22.3212]]}},{"type":"Feature","properties":{"id":"kowloon-kwun-tong:n0031->n0032:street","kind":"street","lengthM":428.6,"gradientPct":0.0},"geometry":{"type":"LineString","coordinates":[[114.22749999999999,22.3212],[114.23166666666667,22.3212]]}},{"type":"Feature","properties":{"id":"kowloon-kwun-tong:n0032->n0033:street","kind":"street","lengthM":428.6,"gradientPct":0.0},"geometry":{"type":"LineString","coordinates":[[114.23166666666667,22.3212],[114.23583333333333,22.3212]]}},{"type":"Feature","properties":{"id":"kowloon-kwun-tong:n0033->n0034:street","kind":"street","lengthM":428.6,"gradientPct":0.0},"geometry":{"type":"LineString","coordinates":[[114.23583333333333,22.3212],[114.24,22.3212]]}},{"type":"Feature","properties":{"id":"kowloon-kwun-tong:n0035->n0036:avenue","kind":"avenue","lengthM":428.6,"gradientPct":0.0},"geometry":{"type":"LineString","coordinates":[[114.215,22.326],[114.21916666666667,22.326]]}},{"type":"Feature","properties":{"id":"kowloon-kwun-tong:n0036->n0037:avenue","kind":"avenue","lengthM":428.6,"gradientPct":0.0},"geometry":{"type":"LineString","coordinates":[[114.21916666666667,22.326],[114.22333333333333,22.326]]}},{"type":"Feature","properties":{"id":"kowloon-kwun-tong:n0037->n0038:avenue","kind":"avenue","lengthM":428.6,"gradientPct":0.0},"geometry":{"type":"LineString","coordinates":[[114.22333333333333,22.326],[114.22749999999999,22.326]]}},{"type":"Feature","properties":{"id":"kowloon-kwun-tong:n0038->n0039:avenue","kind":"avenue","lengthM":428.6,"gradientPct":0.0},"geometry":{"type":"LineString","coordinates":[[114.22749999999999,22.326],[114.23166666666667,22.326]]}},{"type":"Feature","properties":{"id":"kowloon-kwun-tong:n0039->n0040:avenue","kind":"avenue","lengthM":428.6,"gradientPct":0.0},"geometry":{"type":"LineString","coordinates":[[114.23166666666667,22.326],[114.23583333333333,22.326]]}},{"type":"Feature","properties":{"id":"kowloon-kwun-tong:n0040->n0041:avenue","kind":"avenue","lengthM":428.6,"gradientPct":0.0},"geometry":{"type":"LineString","coordinates":[[114.23583333333333,22.326],[114.24,22.326]]}},{"type":"Feature","properties":{"id":"kowloon-kwun-tong:n0000->n0007:avenue","kind":"avenue","lengthM":533.7,"gradientPct":0.0},"geometry":{"type":"LineString","coordinates":[[114.215,22.302],[114.215,22.3068]]}},{"type":"Feature","properties":{"id":"kowloon-kwun-tong:n0007->n0014:avenue","kind":"avenue","lengthM":533.7,"gradientPct":0.0},"geometry":{"type":"LineString","coordinates":[[114.215,22.3068],[114.215,22.3116]]}},{"type":"Feature","properties":{"id":"kowloon-kwun-tong:n0014->n0021:avenue","kind":"avenue","lengthM":533.7,"gradientPct":0.0},"geometry":{"type":"LineString","coordinates":[[114.215,22.3116],[114.215,22.3164]]}},{"type":"Feature","properties":{"id":"kowloon-kwun-tong:n0021->n0028:avenue","kind":"avenue","lengthM":533.7,"gradientPct":0.0},"geometry":{"type":"LineString","coordinates":[[114.215,22.3164],[114.215,22.3212]]}},{"type":"Feature","properties":{"id":"kowloon-kwun-tong:n0028->n0035:avenue","kind":"avenue","lengthM":533.7,"gradientPct":0.0},"geometry":{"type":"LineString","coordinates":[[114.215,22.3212],[114.215,22.326]]}},{"type":"Feature","properties":{"id":"kowloon-kwun-tong:n0001->n0008:street","kind":"street","lengthM":533.7,"gradientPct":0.0},"geometry":{"type":"LineString","coordinates":[[114.21916666666667,22.302],[114.21916666666667,22.3068]]}},{"type":"Feature","properties":{"id":"kowloon-kwun-tong:n0008->n0015:street","kind":"street","lengthM":533.7,"gradientPct":0.0},"geometry":{"type":"LineString","coordinates":[[114.21916666666667,22.3068],[114.21916666666667,22.3116]]}},{"type":"Feature","properties":{"id":"kowloon-kwun-tong:n0015->n0022:street","kind":"street","lengthM":533.7,"gradientPct":0.0},"geometry":{"type":"LineString","coordinates":[[114.21916666666667,22.3116],[114.21916666666667,22.3164]]}},{"type":"Feature","properties":{"id":"kowloon-kwun-tong:n0022->n0029:street","kind":"street","lengthM":533.7,"gradientPct":0.0},"geometry":{"type":"LineString","coordinates":[[114.21916666666667,22.3164],[114.21916666666667,22.3212]]}},{"type":"Feature","properties":{"id":"kowloon-kwun-tong:n0029->n0036:street","kind":"street","lengthM":533.7,"gradientPct":0.0},"geometry":{"type":"LineString","coordinates":[[114.21916666666667,22.3212],[114.21916666666667,22.326]]}},{"type":"Feature","properties":{"id":"kowloon-kwun-tong:n0002->n0009:street","kind":"street","lengthM":533.7,"gradientPct":0.0},"geometry":{"type":"LineString","coordinates":[[114.22333333333333,22.302],[114.22333333333333,22.3068]]}},{"type":"Feature","properties":{"id":"kowloon-kwun-tong:n0009->n0016:street","kind":"street","lengthM":533.7,"gradientPct":0.0},"geometry":{"type":"LineString","coordinates":[[114.22333333333333,22.3068],[114.22333333333333,22.3116]]}},{"type":"Feature","properties":{"id":"kowloon-kwun-tong:n0016->n0023:street","kind":"street","lengthM":533.7,"gradientPct":0.0},"geometry":{"type":"LineString","coordinates":[[114.22333333333333,22.3116],[114.22333333333333,22.3164]]}},{"type":"Feature","properties":{"id":"kowloon-kwun-tong:n0023->n0030:street","kind":"street","lengthM":533.7,"gradientPct":0.0},"geometry":{"type":"LineString","coordinates":[[114.22333333333333,22.3164],[114.22333333333333,22.3212]]}},{"type":"Feature","properties":{"id":"kowloon-kwun-tong:n0030->n0037:street","kind":"street","lengthM":533.7,"gradientPct":0.0},"geometry":{"type":"LineString","coordinates":[[114.22333333333333,22.3212],[114.22333333333333,22.326]]}},{"type":"Feature","properties":{"id":"kowloon-kwun-tong:n0003->n0010:street","kind":"street","lengthM":533.7,"gradientPct":0.0},"geometry":{"type":"LineString","coordinates":[[114.22749999999999,22.302],[114.22749999999999,22.3068]]}},{"type":"Feature","properties":{"id":"kowloon-kwun-tong:n0010->n0017:street","kind":"street","lengthM":533.7,"gradientPct":0.0},"geometry":{"type":"LineString","coordinates":[[114.22749999999999,22.3068],[114.22749999999999,22.3116]]}},{"type":"Feature","properties":{"id":"kowloon-kwun-tong:n0017->n0024:street","kind":"street","lengthM":533.7,"gradientPct":0.0},"geometry":{"type":"LineString","coordinates":[[114.22749999999999,22.3116],[114.22749999999999,22.3164]]}},{"type":"Feature","properties":{"id":"kowloon-kwun-tong:n0024->n0031:street","kind":"street","lengthM":533.7,"gradientPct":0.0},"geometry":{"type":"LineString","coordinates":[[114.22749999999999,22.3164],[114.22749999999999,22.3212]]}},{"type":"Feature","properties":{"id":"kowloon-kwun-tong:n0031->n0038:street","kind":"street","lengthM":533.7,"gradientPct":0.0},"geometry":{"type":"LineString","coordinates":[[114.22749999999999,22.3212],[114.22749999999999,22.326]]}},{"type":"Feature","properties":{"id":"kowloon-kwun-tong:n0004->n0011:street","kind":"street","lengthM":533.7,"gradientPct":0.0},"geometry":{"type":"LineString","coordinates":[[114.23166666666667,22.302],[114.23166666666667,22.3068]]}},{"type":"Feature","properties":{"id":"kowloon-kwun-tong:n0011->n0018:street","kind":"street","lengthM":533.7,"gradientPct":0.0},"geometry":{"type":"LineString","coordinates":[[114.23166666666667,22.3068],[114.23166666666667,22.3116]]}},{"type":"Feature","properties":{"id":"kowloon-kwun-tong:n0018->n0025:street","kind":"street","lengthM":533.7,"gradientPct":0.0},"geometry":{"type":"LineString","coordinates":[[114.23166666666667,22.3116],[114.23166666666667,22.3164]]}},{"type":"Feature","properties":{"id":"kowloon-kwun-tong:n0025->n0032:street","kind":"street","lengthM":533.7,"gradientPct":0.0},"geometry":{"type":"LineString","coordinates":[[114.23166666666667,22.3164],[114.23166666666667,22.3212]]}},{"type":"Feature","properties":{"id":"kowloon-kwun-tong:n0032->n0039:street","kind":"street","lengthM":533.7,"gradientPct":0.0},"geometry":{"type":"LineString","coordinates":[[114.23166666666667,22.3212],[114.23166666666667,22.326]]}},{"type":"Feature","properties":{"id":"kowloon-kwun-tong:n0005->n0012:street","kind":"street","lengthM":533.7,"gradientPct":0.0},"geometry":{"type":"LineString","coordinates":[[114.23583333333333,22.302],[114.23583333333333,22.3068]]}},{"type":"Feature","properties":{"id":"kowloon-kwun-tong:n0012->n0019:street","kind":"street","lengthM":533.7,"gradientPct":0.0},"geometry":{"type":"LineString","coordinates":[[114.23583333333333,22.3068],[114.23583333333333,22.3116]]}},{"type":"Feature","properties":{"id":"kowloon-kwun-tong:n0019->n0026:street","kind":"street","lengthM":533.7,"gradientPct":0.0},"geometry":{"type":"LineString","coordinates":[[114.23583333333333,22.3116],[114.23583333333333,22.3164]]}},{"type":"Feature","properties":{"id":"kowloon-kwun-tong:n0026->n0033:street","kind":"street","lengthM":533.7,"gradientPct":0.0},"geometry":{"type":"LineString","coordinates":[[114.23583333333333,22.3164],[114.23583333333333,22.3212]]}},{"type":"Feature","properties":{"id":"kowloon-kwun-tong:n0033->n0040:street","kind":"street","lengthM":533.7,"gradientPct":0.0},"geometry":{"type":"LineString","coordinates":[[114.23583333333333,22.3212],[114.23583333333333,22.326]]}},{"type":"Feature","properties":{"id":"kowloon-kwun-tong:n0006->n0013:avenue","kind":"avenue","lengthM":533.7,"gradientPct":0.0},"geometry":{"type":"LineString","coordinates":[[114.24,22.302],[114.24,22.3068]]}},{"type":"Feature","properties":{"id":"kowloon-kwun-tong:n0013->n0020:avenue","kind":"avenue","lengthM":533.7,"gradientPct":0.0},"geometry":{"type":"LineString","coordinates":[[114.24,22.3068],[114.24,22.3116]]}},{"type":"Feature","properties":{"id":"kowloon-kwun-tong:n0020->n0027:avenue","kind":"avenue","lengthM":533.7,"gradientPct":0.0},"geometry":{"type":"LineString","coordinates":[[114.24,22.3116],[114.24,22.3164]]}},{"type":"Feature","properties":{"id":"kowloon-kwun-tong:n0027->n0034:avenue","kind":"avenue","lengthM":533.7,"gradientPct":0.0},"geometry":{"type":"LineString","coordinates":[[114.24,22.3164],[114.24,22.3212]]}},{"type":"Feature","properties":{"id":"kowloon-kwun-tong:n0034->n0041:avenue","kind":"avenue","lengthM":533.7,"gradientPct":0.0},"geometry":{"type":"LineString","coordinates":[[114.24,22.3212],[114.24,22.326]]}}]}