{"type":"FeatureCollection","features":[{"type":"Feature","properties":{"id":"kowloon-sham-shui-po:n0000->n0001:avenue","kind":"avenue","lengthM":342.9,"gradientPct":0.0},"geometry":{"type":"LineString","coordinates":[[114.148,22.328],[114.15133333333333,22.328]]}},{"type":"Feature","properties":{"id":"kowloon-sham-shui-po:n0001->n0002:avenue","kind":"avenue","lengthM":342.9,"gradientPct":0.0},"geometry":{"type":"LineString","coordinates":[[114.15133333333333,22.328],[114.15466666666667,22.328]]}},{"type":"Feature","properties":{"id":"kowloon-sham-shui-po:n0002->n0003:avenue","kind":"avenue","lengthM":342.9,"gradientPct":0.0},"geometry":{"type":"LineString","coordinates":[[114.15466666666667,22.328],[114.158,22.328]]}},{"type":"Feature","properties":{"id":"kowloon-sham-shui-po:n0003->n0004:avenue","kind":"avenue","lengthM":342.9,"gradientPct":0.0},"geometry":{"type":"LineString","coordinates":[[114.158,22.328],[114.16133333333333,22.328]]}},{"type":"Feature","properties":{"id":"kowloon-sham-shui-po:n0004->n0005:avenue","kind":"avenue","lengthM":342.9,"gradientPct":0.0},"geometry":{"type":"LineString","coordinates":[[114.16133333333333,22.328],[114.16466666666668,22.328]]}},{"type":"Feature","properties":{"id":"kowloon-sham-shui-po:n0005->n0006:avenue","kind":"avenue","lengthM":342.9,"gradientPct":0.0},"geometry":{"type":"LineString","coordinates":[[114.16466666666668,22.328],[114.168,22.328]]}},{"type":"Feature","properties":{"id":"kowloon-sham-shui-po:n0007->n0008:street","kind":"street","lengthM":342.9,"gradientPct":0.0},"geometry":{"type":"LineString","coordinates":[[114.148,22.3308],[114.15133333333333,22.3308]]}},{"type":"Feature","properties":{"id":"kowloon-sham-shui-po:n0008->n0009:street","kind":"street","lengthM":342.9,"gradientPct":0.0},"geometry":{"type":"LineString","coordinates":[[114.15133333333333,22.3308],[114.15466666666667,22.3308]]}},{"type":"Feature","properties":{"id":"kowloon-sham-shui-po:n0009->n0010:street","kind":"street","lengthM":342.9,"gradientPct":0.0},"geometry":{"type":"LineString","coordinates":[[114.15466666666667,22.3308],[114.158,22.3308]]}},{"type":"Feature","properties":{"id":"kowloon-sham-shui-po:n0010->n0011:street","kind":"street","lengthM":342.9,"gradientPct":0.0},"geometry":{"type":"LineString","coordinates":[[114.158,22.3308],[114.16133333333333,22.3308]]}},{"type":"Feature","properties":{"id":"kowloon-sham-shui-po:n0011->n0012:street","kind":"street","lengthM":342.9,"gradientPct":0.0},"geometry":{"type":"LineString","coordinates":[[114.16133333333333,22.3308],[114.16466666666668,22.3308]]}},{"type":"Feature","properties":{"id":"kowloon-sham-shui-po:n0012->n0013:street","kind":"street","lengthM":342.9,"gradientPct":0.0},"geometry":{"type":"LineString","coordinates":[[114.16466666666668,22.3308],[114.168,22.3308]]}},{"type":"Feature","properties":{"id":"kowloon-sham-shui-po:n0014->n0015:street","kind":"street","lengthM":342.8,"gradientPct":0.0},"geometry":{"type":"LineString","coordinates":[[114.148,22.3336],[114.15133333333333,22.3336]]}},{"type":"Feature","properties":{"id":"kowloon-sham-shui-po:n0015->n0016:street","kind":"street","lengthM":342.8,"gradientPct":0.0},"geometry":{"type":"LineString","coordinates":[[114.15133333333333,22.3336],[114.15466666666667,22.3336]]}},{"type":"Feature","properties":{"id":"kowloon-sham-shui-po:n0016->n0017:street","kind":"street","lengthM":342.8,"gradientPct":0.0},"geometry":{"type":"LineString","coordinates":[[114.15466666666667,22.3336],[114.158,22.3336]]}},{"type":"Feature","properties":{"id":"kowloon-sham-shui-po:n0017->n0018:street","kind":"street","lengthM":342.8,"gradientPct":0.0},"geometry":{"type":"LineString","coordinates":[[114.158,22.3336],[114.16133333333333,22.3336]]}},{"type":"Feature","properties":{"id":"kowloon-sham-shui-po:n0018->n0019:street","kind":"street","lengthM":342.8,"gradientPct":0.0},"geometry":{"type":"LineString","coordinates":[[114.16133333333333,22.3336],[114.16466666666668,22.3336]]}},{"type":"Feature","properties":{"id":"kowloon-sham-shui-po:n0019->n0020:street","kind":"street","lengthM":342.8,"gradientPct":0.0},"geometry":{"type":"LineString","coordinates":[[114.16466666666668,22.3336],[114.168,22.3336]]}},{"type":"Feature","properties":{"id":"kowloon-sham-shui-po:n0021->n0022:street","kind":"street","lengthM":342.8,"gradientPct":0.0},"geometry":{"type":"LineString","coordinates":[[114.148,22.336399999999998],[114.15133333333333,22.336399999999998]]}},{"type":"Feature","properties":{"id":"kowloon-sham-shui-po:n0022->n0023:street","kind":"street","lengthM":342.8,"gradientPct":0.0},"geometry":{"type":"LineString","coordinates":[[114.15133333333333,22.336399999999998],[114.15466666666667,22.336399999999998]]}},{"type":"Feature","properties":{"id":"kowloon-sham-shui-po:n0023->n0024:street","kind":"street","lengthM":342.8,"gradientPct":0.0},"geometry":{"type":"LineString","coordinates":[[114.15466666666667,22.336399999999998],[114.158,22.336399999999998]]}},{"type":"Feature","properties":{"id":"kowloon-sham-shui-po:n0024->n0025:street","kind":"street","lengthM":342.8,"gradientPct":0.0},"geometry":{"type":"LineString","coordinates":[[114.158,22.336399999999998],[114.16133333333333,22.336399999999998]]}},{"type":"Feature","properties":{"id":"kowloon-sham-shui-po:n0025->n0026:street","kind":"street","lengthM":342.8,"gradientPct":0.0},"geometry":{"type":"LineString","coordinates":[[114.16133333333333,22.336399999999998],[114.16466666666668,22.336399999999998]]}},{"type":"Feature","properties":{"id":"kowloon-sham-shui-po:n0026->n0027:street","kind":"street","lengthM":342.8,"gradientPct":0.0},"geometry":{"type":"LineString","coordinates":[[114.16466666666668,22.336399999999998],[114.168,22.336399999999998]]}},{"type":"Feature","properties":{"id":"kowloon-sham-shui-po:n0028->n0029:street","kind":"street","lengthM":342.8,"gradientPct":0.0},"geometry":{"type":"LineString","coordinates":[[114.148,22.339199999999998],[114.15133333333333,22.339199999999998]]}},{"type":"Feature","properties":{"id":"kowloon-sham-shui-po:n0029->n0030:street","kind":"street","lengthM":342.8,"gradientPct":0.0},"geometry":{"type":"LineString","coordinates":[[114.15133333333333,22.339199999999998],[114.15466666666667,22.339199999999998]]}},{"type":"Feature","properties":{"id":"kowloon-sham-shui-po:n0030->n0031:street","kind":"street","lengthM":342.8,"gradientPct":0.0},"geometry":{"type":"LineString","coordinates":[[114.15466666666667,22.339199999999998],[114.158,22.339199999999998]]}},{"type":"Feature","properties":{"id":"kowloon-sham-shui-po:n0031->n0032:street","kind":"street","lengthM":342.8,"gradientPct":0.0},"geometry":{"type":"LineString","coordinates":[[114.158,22.339199999999998],[114.16133333333333,22.339199999999998]]}},{"type":"Feature","properties":{"id":"kowloon-sham-shui-po:n0032->n0033:street","kind":"street","lengthM":342.8,"gradientPct":0.0},"geometry":{"type":"LineString","coordinates":[[114.16133333333333,22.339199999999998],[114.16466666666668,22.339199999999998]]}},{"type":"Feature","properties":{"id":"kowloon-sham-shui-po:n0033->n0034:street","kind":"street","lengthM":342.8,"gradientPct":0.0},"geometry":{"type":"LineString","coordinates":[[114.16466666666668,22.339199999999998],[114.168,22.339199999999998]]}},{"type":"Feature","properties":{"id":"kowloon-sham-shui-po:n0035->n0036:avenue","kind":"avenue","lengthM":342.8,"gradientPct":0.0},"geometry":{"type":"LineString","coordinates":[[114.148,22.342],[114.15133333333333,22.342]]}},{"type":"Feature","properties":{"id":"kowloon-sham-shui-po:n0036->n0037:avenue","kind":"avenue","lengthM":342.8,"gradientPct":0.0},"geometry":{"type":"LineString","coordinates":[[114.15133333333333,22.342],[114.15466666666667,22.342]]}},{"type":"Feature","properties":{"id":"kowloon-sham-shui-po:n0037->n0038:avenue","kind":"avenue","lengthM":342.8,"gradientPct":0.0},"geometry":{"type":"LineString","coordinates":[[114.15466666666667,22.342],[114.158,22.342]]}},{"type":"Feature","properties":{"id":"kowloon-sham-shui-po:n0038->n0039:avenue","kind":"avenue","lengthM":342.8,"gradientPct":0.0},"geometry":{"type":"LineString","coordinates":[[114.158,22.342],[114.16133333333333,22.342]]}},{"type":"Feature","properties":{"id":"kowloon-sham-shui-po:n0039->n0040:avenue","kind":"avenue","lengthM":342.8,"gradientPct":0.0},"geometry":{"type":"LineString","coordinates":[[114.16133333333333,22.342],[114.16466666666668,22.342]]}},{"type":"Feature","properties":{"id":"kowloon-sham-shui-po:n0040->n0041:avenue","kind":"avenue","lengthM":342.8,"gradientPct":0.0},"geometry":{"type":"LineString","coordinates":[[114.16466666666668,22.342],[114.168,22.342]]}},{"type":"Feature","properties":{"id":"kowloon-sham-shui-po:n0000->n0007:avenue","kind":"avenue","lengthM":311.3,"gradientPct":0.0},"geometry":{"type":"LineString","coordinates":[[114.148,22.328],[114.148,22.3308]]}},{"type":"Feature","properties":{"id":"kowloon-sham-shui-po:n0007->n0014:avenue","kind":"avenue","lengthM":311.3,"gradientPct":0.0},"geometry":{"type":"LineString","coordinates":[[114.148,22.3308],[114.148,22.3336]]}},{"type":"Feature","properties":{"id":"kowloon-sham-shui-po:n0014->n0021:avenue","kind":"avenue","lengthM":311.3,"gradientPct":0.0},"geometry":{"type":"LineString","coordinates":[[114.148,22.3336],[114.148,22.336399999999998]]}},{"type":"Feature","properties":{"id":"kowloon-sham-shui-po:n0021->n0028:avenue","kind":"avenue","lengthM":311.3,"gradientPct":0.0},"geometry":{"type":"LineString","coordinates":[[114.148,22.336399999999998],[114.148,22.339199999999998]]}},{"type":"Feature","properties":{"id":"kowloon-sham-shui-po:n0028->n0035:avenue","kind":"avenue","lengthM":311.3,"gradientPct":0.0},"geometry":{"type":"LineString","coordinates":[[114.148,22.339199999999998],[114.148,22.342]]}},{"type":"Feature","properties":{"id":"kowloon-sham-shui-po:n0001->n0008:street","kind":"street","lengthM":311.3,"gradientPct":0.0},"geometry":{"type":"LineString","coordinates":[[114.15133333333333,22.328],[114.15133333333333,22.3308]]}},{"type":"Feature","properties":{"id":"kowloon-sham-shui-po:n0008->n0015:street","kind":"street","lengthM":311.3,"gradientPct":0.0},"geometry":{"type":"LineString","coordinates":[[114.15133333333333,22.3308],[114.15133333333333,22.3336]]}},{"type":"Feature","properties":{"id":"kowloon-sham-shui-po:n0015->n0022:street","kind":"street","lengthM":311.3,"gradientPct":0.0},"geometry":{"type":"LineString","coordinates":[[114.15133333333333,22.3336],[114.15133333333333,22.336399999999998]]}},{"type":"Feature","properties":{"id":"kowloon-sham-shui-po:n0022->n0029:street","kind":"street","lengthM":311.3,"gradientPct":0.0},"geometry":{"type":"LineString","coordinates":[[114.15133333333333,22.336399999999998],[114.15133333333333,22.339199999999998]]}},{"type":"Feature","properties":{"id":"kowloon-sham-shui-po:n0029->n0036:street","kind":"street","lengthM":311.3,"gradientPct":0.0},"geometry":{"type":"LineString","coordinates":[[114.15133333333333,22.339199999999998],[114.15133333333333,22.342]]}},{"type":"Feature","properties":{"id":"kowloon-sham-shui-po:n0002->n0009:street","kind":"street","lengthM":311.3,"gradientPct":0.0},"geometry":{"type":"LineString","coordinates":[[114.15466666666667,22.328],[114.15466666666667,22.3308]]}},{"type":"Feature","properties":{"id":"kowloon-sham-shui-po:n0009->n0016:street","kind":"street","lengthM":311.3,"gradientPct":0.0},"geometry":{"type":"LineString","coordinates":[[114.15466666666667,22.3308],[114.15466666666667,22.3336]]}},{"type":"Feature","properties":{"id":"kowloon-sham-shui-po:n0016->n0023:street","kind":"street","lengthM":311.3,"gradientPct":0.0},"geometry":{"type":"LineString","coordinates":[[114.15466666666667,22.3336],[114.15466666666667,22.336399999999998]]}},{"type":"Feature","properties":{"id":"kowloon-sham-shui-po:n0023->n0030:street","kind":"street","lengthM":311.3,"gradientPct":0.0},"geometry":{"type":"LineString","coordinates":[[114.15466666666667,22.336399999999998],[114.15466666666667,22.339199999999998]]}},{"type":"Feature","properties":{"id":"kowloon-sham-shui-po:n0030->n0037:street","kind":"street","lengthM":311.3,"gradientPct":0.0},"geometry":{"type":"LineString","coordinates":[[114.15466666666667,22.339199999999998],[114.15466666666667,22.342]]}},{"type":"Feature","properties":{"id":"kowloon-sham-shui-po:n0003->n0010:street","kind":"street","lengthM":311.3,"gradientPct":0.0},"geometry":{"type":"LineString","coordinates":[[114.158,22.328],[114.158,22.3308]]}},{"type":"Feature","properties":{"id":"kowloon-sham-shui-po:n0010->n0017:street","kind":"street","lengthM":311.3,"gradientPct":0.0},"geometry":{"type":"LineString","coordinates":[[114.158,22.3308],[114.158,22.3336]]}},{"type":"Feature","properties":{"id":"kowloon-sham-shui-po:n0017->n0024:street","kind":"street","lengthM":311.3,"gradientPct":0.0},"geometry":{"type":"LineString","coordinates":[[114.158,22.3336],[114.158,22.336399999999998]]}},{"type":"Feature","properties":{"id":"kowloon-sham-shui-po:n0024->n0031:street","kind":"street","lengthM":311.3,"gradientPct":0.0},"geometry":{"type":"LineString","coordinates":[[114.158,22.336399999999998],[114.158,22.339199999999998]]}},{"type":"Feature","properties":{"id":"kowloon-sham-shui-po:n0031->n0038:street","kind":"street","lengthM":311.3,"gradientPct":0.0},"geometry":{"type":"LineString","coordinates":[[114.158,22.339199999999998],[114.158,22.342]]}},{"type":"Feature","properties":{"id":"kowloon-sham-shui-po:n0004->n0011:street","kind":"street","lengthM":311.3,"gradientPct":0.0},"geometry":{"type":"LineString","coordinates":[[114.16133333333333,22.328],[114.16133333333333,22.3308]]}},{"type":"Feature","properties":{"id":"kowloon-sham-shui-po:n0011->n0018:street","kind":"street","lengthM":311.3,"gradientPct":0.0},"geometry":{"type":"LineString","coordinates":[[114.16133333333333,22.3308],[114.16133333333333,22.3336]]}},{"type":"Feature","properties":{"id":"kowloon-sham-shui-po:n0018->n0025:street","kind":"street","lengthM":311.3,"gradientPct":0.0},"geometry":{"type":"LineString","coordinates":[[114.16133333333333,22.3336],[114.16133333333333,22.336399999999998]]}},{"type":"Feature","properties":{"id":"kowloon-sham-shui-po:n0025->n0032:street","kind":"street","lengthM":311.3,"gradientPct":0.0},"geometry":{"type":"LineString","coordinates":[[114.16133333333333,22.336399999999998],[114.16133333333333,22.339199999999998]]}},{"type":"Feature","properties":{"id":"kowloon-sham-shui-po:n0032->n0039:street","kind":"street","lengthM":311.3,"gradientPct":0.0},"geometry":{"type":"LineString","coordinates":[[114.16133333333333,22.339199999999998],[114.16133333333333,22.342]]}},{"type":"Feature","properties":{"id":"kowloon-sham-shui-po:n0005->n0012:street","kind":"street","lengthM":311.3,"gradientPct":0.0},"geometry":{"type":"LineString","coordinates":[[114.16466666666668,22.328],[114.16466666666668,22.3308]]}},{"type":"Feature","properties":{"id":"kowloon-sham-shui-po:n0012->n0019:street","kind":"street","lengthM":311.3,"gradientPct":0.0},"geometry":{"type":"LineString","coordinates":[[114.16466666666668,22.3308],[114.16466666666668,22.3336]]}},{"type":"Feature","properties":{"id":"kowloon-sham-shui-po:n0019->n0026:street","kind":"street","lengthM":311.3,"gradientPct":0.0},"geometry":{"type":"LineString","coordinates":[[114.16466666666668,22.3336],[114.16466666666668,22.336399999999998]]}},{"type":"Feature","properties":{"id":"kowloon-sham-shui-po:n0026->n0033:street","kind":"street","lengthM":311.3,"gradientPct":0.0},"geometry":{"type":"LineString","coordinates":[[114.16466666666668,22.336399999999998],[114.16466666666668,22.339199999999998]]}},{"type":"Feature","properties":{"id":"kowloon-sham-shui-po:n0033->n0040:street","kind":"street","lengthM":311.3,"gradientPct":0.0},"geometry":{"type":"LineString","coordinates":[[114.16466666666668,22.339199999999998],[114.16466666666668,22.342]]}},{"type":"Feature","properties":{"id":"kowloon-sham-shui-po:n0006->n0013:avenue","kind":"avenue","lengthM":311.3,"gradientPct":0.0},"geometry":{"type":"LineString","coordinates":[[114.168,22.328],[114.168,22.3308]]}},{"type":"Feature","properties":{"id":"kowloon-sham-shui-po:n0013->n0020:avenue","kind":"avenue","lengthM":311.3,"gradientPct":0.0},"geometry":{"type":"LineString","coordinates":[[114.168,22.3308],[114.168,22.3336]]}},{"type":"Feature","properties":{"id":"kowloon-sham-shui-po:n0020->n0027:avenue","kind":"avenue","lengthM":311.3,"gradientPct":0.0},"geometry":{"type":"LineString","coordinates":[[114.168,22.3336],[114.168,22.336399999999998]]}},{"type":"Feature","properties":{"id":"kowloon-sham-shui-po:n0027->n0034:avenue","kind":"avenue","lengthM":311.3,"gradientPct":0.0},"geometry":{"type":"LineString","coordinates":[[114.168,22.336399999999998],[114.168,22.339199999999998]]}},{"type":"Feature","properties":{"id":"kowloon-sham-shui-po:n0034->n0041:avenue","kind":"avenue","lengthM":311.3,"gradientPct":0.0},"geometry":{"type":"LineString","coordinates":[[114.168,22.339199999999998],[114.168,22.342]]}}]}