{"type":"FeatureCollection","features":[{"type":"Feature","properties":{"id":"nt-sai-kung:n0000->n0001:avenue","kind":"avenue","lengthM":823.0,"gradientPct":0.0},"geometry":{"type":"LineString","coordinates":[[114.25,22.305],[114.258,22.305]]}},{"type":"Feature","properties":{"id":"nt-sai-kung:n0001->n0002:avenue","kind":"avenue","lengthM":823.0,"gradientPct":0.0},"geometry":{"type":"LineString","coordinates":[[114.258,22.305],[114.266,22.305]]}},{"type":"Feature","properties":{"id":"nt-sai-kung:n0002->n0003:avenue","kind":"avenue","lengthM":823.0,"gradientPct":0.0},"geometry":{"type":"LineString","coordinates":[[114.266,22.305],[114.274,22.305]]}},{"type":"Feature","properties":{"id":"nt-sai-kung:n0003->n0004:avenue","kind":"avenue","lengthM":823.0,"gradientPct":0.0},"geometry":{"type":"LineString","coordinates":[[114.274,22.305],[114.282,22.305]]}},{"type":"Feature","properties":{"id":"nt-sai-kung:n0004->n0005:avenue","kind":"avenue","lengthM":823.0,"gradientPct":0.0},"geometry":{"type":"LineString","coordinates":[[114.282,22.305],[114.29,22.305]]}},{"type":"Feature","properties":{"id":"nt-sai-kung:n0005->n0006:avenue","kind":"avenue","lengthM":823.0,"gradientPct":0.0},"geometry":{"type":"LineString","coordinates":[[114.29,22.305],[114.298,22.305]]}},{"type":"Feature","properties":{"id":"nt-sai-kung:n0007->n0008:street","kind":"street","lengthM":822.9,"gradientPct":0.0},"geometry":{"type":"LineString","coordinates":[[114.25,22.3232],[114.258,22.3232]]}},{"type":"Feature","properties":{"id":"nt-sai-kung:n0008->n0009:street","kind":"street","lengthM":822.9,"gradientPct":0.0},"geometry":{"type":"LineString","coordinates":[[114.258,22.3232],[114.266,22.3232]]}},{"type":"Feature","properties":{"id":"nt-sai-kung:n0009->n0010:street","kind":"street","lengthM":822.9,"gradientPct":0.0},"geometry":{"type":"LineString","coordinates":[[114.266,22.3232],[114.274,22.3232]]}},{"type":"Feature","properties":{"id":"nt-sai-kung:n0010->n0011:street","kind":"street","lengthM":822.9,"gradientPct":0.0},"geometry":{"type":"LineString","coordinates":[[114.274,22.3232],[114.282,22.3232]]}},{"type":"Feature","properties":{"id":"nt-sai-kung:n0011->n0012:street","kind":"street","lengthM":822.9,"gradientPct":0.0},"geometry":{"type":"LineString","coordinates":[[114.282,22.3232],[114.29,22.3232]]}},{"type":"Feature","properties":{"id":"nt-sai-kung:n0012->n0013:street","kind":"street","lengthM":822.9,"gradientPct":0.0},"geometry":{"type":"LineString","coordinates":[[114.29,22.3232],[114.298,22.3232]]}},{"type":"Feature","properties":{"id":"nt-sai-kung:n0014->n0015:street","kind":"street","lengthM":822.8,"gradientPct":0.0},"geometry":{"type":"LineString","coordinates":[[114.25,22.3414],[114.258,22.3414]]}},{"type":"Feature","properties":{"id":"nt-sai-kung:n0015->n0016:street","kind":"street","lengthM":822.8,"gradientPct":0.0},"geometry":{"type":"LineString","coordinates":[[114.258,22.3414],[114.266,22.3414]]}},{"type":"Feature","properties":{"id":"nt-sai-kung:n0016->n0017:street","kind":"street","lengthM":822.8,"gradientPct":0.0},"geometry":{"type":"LineString","coordinates":[[114.266,22.3414],[114.274,22.3414]]}},{"type":"Feature","properties":{"id":"nt-sai-kung:n0017->n0018:street","kind":"street","lengthM":822.8,"gradientPct":0.0},"geometry":{"type":"LineString","coordinates":[[114.274,22.3414],[114.282,22.3414]]}},{"type":"Feature","properties":{"id":"nt-sai-kung:n0018->n0019:street","kind":"street","lengthM":822.8,"gradientPct":0.0},"geometry":{"type":"LineString","coordinates":[[114.282,22.3414],[114.29,22.3414]]}},{"type":"Feature","properties":{"id":"nt-sai-kung:n0019->n0020:street","kind":"street","lengthM":822.8,"gradientPct":0.0},"geometry":{"type":"LineString","coordinates":[[114.29,22.3414],[114.298,22.3414]]}},{"type":"Feature","properties":{"id":"nt-sai-kung:n0021->n0022:street","kind":"street","lengthM":822.7,"gradientPct":0.0},"geometry":{"type":"LineString","coordinates":[[114.25,22.3596],[114.258,22.3596]]}},{"type":"Feature","properties":{"id":"nt-sai-kung:n0022->n0023:street","kind":"street","lengthM":822.7,"gradientPct":0.0},"geometry":{"type":"LineString","coordinates":[[114.258,22.3596],[114.266,22.3596]]}},{"type":"Feature","properties":{"id":"nt-sai-kung:n0023->n0024:street","kind":"street","lengthM":822.7,"gradientPct":0.0},"geometry":{"type":"LineString","coordinates":[[114.266,22.3596],[114.274,22.3596]]}},{"type":"Feature","properties":{"id":"nt-sai-kung:n0024->n0025:street","kind":"street","lengthM":822.7,"gradientPct":0.0},"geometry":{"type":"LineString","coordinates":[[114.274,22.3596],[114.282,22.3596]]}},{"type":"Feature","properties":{"id":"nt-sai-kung:n0025->n0026:street","kind":"street","lengthM":822.7,"gradientPct":0.0},"geometry":{"type":"LineString","coordinates":[[114.282,22.3596],[114.29,22.3596]]}},{"type":"Feature","properties":{"id":"nt-sai-kung:n0026->n0027:street","kind":"street","lengthM":822.7,"gradientPct":0.0},"geometry":{"type":"LineString","coordinates":[[114.29,22.3596],[114.298,22.3596]]}},{"type":"Feature","properties":{"id":"nt-sai-kung:n0028->n0029:street","kind":"street","lengthM":822.6,"gradientPct":0.0},"geometry":{"type":"LineString","coordinates":[[114.25,22.3778],[114.258,22.3778]]}},{"type":"Feature","properties":{"id":"nt-sai-kung:n0029->n0030:street","kind":"street","lengthM":822.6,"gradientPct":0.0},"geometry":{"type":"LineString","coordinates":[[114.258,22.3778],[114.266,22.3778]]}},{"type":"Feature","properties":{"id":"nt-sai-kung:n0030->n0031:street","kind":"street","lengthM":822.6,"gradientPct":0.0},"geometry":{"type":"LineString","coordinates":[[114.266,22.3778],[114.274,22.3778]]}},{"type":"Feature","properties":{"id":"nt-sai-kung:n0031->n0032:street","kind":"street","lengthM":822.6,"gradientPct":0.0},"geometry":{"type":"LineString","coordinates":[[114.274,22.3778],[114.282,22.3778]]}},{"type":"Feature","properties":{"id":"nt-sai-kung:n0032->n0033:street","kind":"street","lengthM":822.6,"gradientPct":0.0},"geometry":{"type":"LineString","coordinates":[[114.282,22.3778],[114.29,22.3778]]}},{"type":"Feature","properties":{"id":"nt-sai-kung:n0033->n0034:street","kind":"street","lengthM":822.6,"gradientPct":0.0},"geometry":{"type":"LineString","coordinates":[[114.29,22.3778],[114.298,22.3778]]}},{"type":"Feature","properties":{"id":"nt-sai-kung:n0035->n0036:avenue","kind":"avenue","lengthM":822.5,"gradientPct":0.0},"geometry":{"type":"LineString","coordinates":[[114.25,22.396],[114.258,22.396]]}},{"type":"Feature","properties":{"id":"nt-sai-kung:n0036->n0037:avenue","kind":"avenue","lengthM":822.5,"gradientPct":0.0},"geometry":{"type":"LineString","coordinates":[[114.258,22.396],[114.266,22.396]]}},{"type":"Feature","properties":{"id":"nt-sai-kung:n0037->n0038:avenue","kind":"avenue","lengthM":822.5,"gradientPct":0.0},"geometry":{"type":"LineString","coordinates":[[114.266,22.396],[114.274,22.396]]}},{"type":"Feature","properties":{"id":"nt-sai-kung:n0038->n0039:avenue","kind":"avenue","lengthM":822.5,"gradientPct":0.0},"geometry":{"type":"LineString","coordinates":[[114.274,22.396],[114.282,22.396]]}},{"type":"Feature","properties":{"id":"nt-sai-kung:n0039->n0040:avenue","kind":"avenue","lengthM":822.5,"gradientPct":0.0},"geometry":{"type":"LineString","coordinates":[[114.282,22.396],[114.29,22.396]]}},{"type":"Feature","properties":{"id":"nt-sai-kung:n0040->n0041:avenue","kind":"avenue","lengthM":822.5,"gradientPct":0.0},"geometry":{"type":"LineString","coordinates":[[114.29,22.396],[114.298,22.396]]}},{"type":"Feature","properties":{"id":"nt-sai-kung:n0000->n0007:avenue","kind":"avenue","lengthM":2023.7,"gradientPct":0.0},"geometry":{"type":"LineString","coordinates":[[114.25,22.305],[114.25,22.3232]]}},{"type":"Feature","properties":{"id":"nt-sai-kung:n0007->n0014:avenue","kind":"avenue","lengthM":2023.7,"gradientPct":0.0},"geometry":{"type":"LineString","coordinates":[[114.25,22.3232],[114.25,22.3414]]}},{"type":"Feature","properties":{"id":"nt-sai-kung:n0014->n0021:avenue","kind":"avenue","lengthM":2023.7,"gradientPct":0.0},"geometry":{"type":"LineString","coordinates":[[114.25,22.3414],[114.25,22.3596]]}},{"type":"Feature","properties":{"id":"nt-sai-kung:n0021->n0028:avenue","kind":"avenue","lengthM":2023.7,"gradientPct":0.0},"geometry":{"type":"LineString","coordinates":[[114.25,22.3596],[114.25,22.3778]]}},{"type":"Feature","properties":{"id":"nt-sai-kung:n0028->n0035:avenue","kind":"avenue","lengthM":2023.7,"gradientPct":0.0},"geometry":{"type":"LineString","coordinates":[[114.25,22.3778],[114.25,22.396]]}},{"type":"Feature","properties":{"id":"nt-sai-kung:n0001->n0008:street","kind":"street","lengthM":2023.7,"gradientPct":0.0},"geometry":{"type":"LineString","coordinates":[[114.258,22.305],[114.258,22.3232]]}},{"type":"Feature","properties":{"id":"nt-sai-kung:n0008->n0015:street","kind":"street","lengthM":2023.7,"gradientPct":0.0},"geometry":{"type":"LineString","coordinates":[[114.258,22.3232],[114.258,22.3414]]}},{"type":"Feature","properties":{"id":"nt-sai-kung:n0015->n0022:street","kind":"street","lengthM":2023.7,"gradientPct":0.0},"geometry":{"type":"LineString","coordinates":[[114.258,22.3414],[114.258,22.3596]]}},{"type":"Feature","properties":{"id":"nt-sai-kung:n0022->n0029:street","kind":"street","lengthM":2023.7,"gradientPct":0.0},"geometry":{"type":"LineString","coordinates":[[114.258,22.3596],[114.258,22.3778]]}},{"type":"Feature","properties":{"id":"nt-sai-kung:n0029->n0036:street","kind":"street","lengthM":2023.7,"gradientPct":0.0},"geometry":{"type":"LineString","coordinates":[[114.258,22.3778],[114.258,22.396]]}},{"type":"Feature","properties":{"id":"nt-sai-kung:n0002->n0009:street","kind":"street","lengthM":2023.7,"gradientPct":0.0},"geometry":{"type":"LineString","coordinates":[[114.266,22.305],[114.266,22.3232]]}},{"type":"Feature","properties":{"id":"nt-sai-kung:n0009->n0016:street","kind":"street","lengthM":2023.7,"gradientPct":0.0},"geometry":{"type":"LineString","coordinates":[[114.266,22.3232],[114.266,22.3414]]}},{"type":"Feature","properties":{"id":"nt-sai-kung:n0016->n0023:street","kind":"street","lengthM":2023.7,"gradientPct":0.0},"geometry":{"type":"LineString","coordinates":[[114.266,22.3414],[114.266,22.3596]]}},{"type":"Feature","properties":{"id":"nt-sai-kung:n0023->n0030:street","kind":"street","lengthM":2023.7,"gradientPct":0.0},"geometry":{"type":"LineString","coordinates":[[114.266,22.3596],[114.266,22.3778]]}},{"type":"Feature","properties":{"id":"nt-sai-kung:n0030->n0037:street","kind":"street","lengthM":2023.7,"gradientPct":0.0},"geometry":{"type":"LineString","coordinates":[[114.266,22.3778],[114.266,22.396]]}},{"type":"Feature","properties":{"id":"nt-sai-kung:n0003->n0010:street","kind":"street","lengthM":2023.7,"gradientPct":0.0},"geometry":{"type":"LineString","coordinates":[[114.274,22.305],[114.274,22.3232]]}},{"type":"Feature","properties":{"id":"nt-sai-kung:n0010->n0017:street","kind":"street","lengthM":2023.7,"gradientPct":0.0},"geometry":{"type":"LineString","coordinates":[[114.274,22.3232],[114.274,22.3414]]}},{"type":"Feature","properties":{"id":"nt-sai-kung:n0017->n0024:street","kind":"street","lengthM":2023.7,"gradientPct":0.0},"geometry":{"type":"LineString","coordinates":[[114.274,22.3414],[114.274,22.3596]]}},{"type":"Feature","properties":{"id":"nt-sai-kung:n0024->n0031:street","kind":"street","lengthM":2023.7,"gradientPct":0.0},"geometry":{"type":"LineString","coordinates":[[114.274,22.3596],[114.274,22.3778]]}},{"type":"Feature","properties":{"id":"nt-sai-kung:n0031->n0038:street","kind":"street","lengthM":2023.7,"gradientPct":0.0},"geometry":{"type":"LineString","coordinates":[[114.274,22.3778],[114.274,22.396]]}},{"type":"Feature","properties":{"id":"nt-sai-kung:n0004->n0011:street","kind":"street","lengthM":2023.7,"gradientPct":0.0},"geometry":{"type":"LineString","coordinates":[[114.282,22.305],[114.282,22.3232]]}},{"type":"Feature","properties":{"id":"nt-sai-kung:n0011->n0018:street","kind":"street","lengthM":2023.7,"gradientPct":0.0},"geometry":{"type":"LineString","coordinates":[[114.282,22.3232],[114.282,22.3414]]}},{"type":"Feature","properties":{"id":"nt-sai-kung:n0018->n0025:street","kind":"street","lengthM":2023.7,"gradientPct":0.0},"geometry":{"type":"LineString","coordinates":[[114.282,22.3414],[114.282,22.3596]]}},{"type":"Feature","properties":{"id":"nt-sai-kung:n0025->n0032:street","kind":"street","lengthM":2023.7,"gradientPct":0.0},"geometry":{"type":"LineString","coordinates":[[114.282,22.3596],[114.282,22.3778]]}},{"type":"Feature","properties":{"id":"nt-sai-kung:n0032->n0039:street","kind":"street","lengthM":2023.7,"gradientPct":0.0},"geometry":{"type":"LineString","coordinates":[[114.282,22.3778],[114.282,22.396]]}},{"type":"Feature","properties":{"id":"nt-sai-kung:n0005->n0012:street","kind":"street","lengthM":2023.7,"gradientPct":0.0},"geometry":{"type":"LineString","coordinates":[[114.29,22.305],[114.29,22.3232]]}},{"type":"Feature","properties":{"id":"nt-sai-kung:n0012->n0019:street","kind":"street","lengthM":2023.7,"gradientPct":0.0},"geometry":{"type":"LineString","coordinates":[[114.29,22.3232],[114.29,22.3414]]}},{"type":"Feature","properties":{"id":"nt-sai-kung:n0019->n0026:street","kind":"street","lengthM":2023.7,"gradientPct":0.0},"geometry":{"type":"LineString","coordinates":[[114.29,22.3414],[114.29,22.3596]]}},{"type":"Feature","properties":{"id":"nt-sai-kung:n0026->n0033:street","kind":"street","lengthM":2023.7,"gradientPct":0.0},"geometry":{"type":"LineString","coordinates":[[114.29,22.3596],[114.29,22.3778]]}},{"type":"Feature","properties":{"id":"nt-sai-kung:n0033->n0040:street","kind":"street","lengthM":2023.7,"gradientPct":0.0},"geometry":{"type":"LineString","coordinates":[[114.29,22.3778],[114.29,22.396]]}},{"type":"Feature","properties":{"id":"nt-sai-kung:n0006->n0013:avenue","kind":"avenue","lengthM":2023.7,"gradientPct":0.0},"geometry":{"type":"LineString","coordinates":[[114.298,22.305],[114.298,22.3232]]}},{"type":"Feature","properties":{"id":"nt-sai-kung:n0013->n0020:avenue","kind":"avenue","lengthM":2023.7,"gradientPct":0.0},"geometry":{"type":"LineString","coordinates":[[114.298,22.3232],[114.298,22.3414]]}},{"type":"Feature","properties":{"id":"nt-sai-kung:n0020->n0027:avenue","kind":"avenue","lengthM":2023.7,"gradientPct":0.0},"geometry":{"type":"LineString","coordinates":[[114.298,22.3414],[114.298,22.3596]]}},{"type":"Feature","properties":{"id":"nt-sai-kung:n0027->n0034:avenue","kind":"avenue","lengthM":2023.7,"gradientPct":0.0},"geometry":{"type":"LineString","coordinates":[[114.298,22.3596],[114.298,22.3778]]}},{"type":"Feature","properties":{"id":"nt-sai-kung:n0034->n0041:avenue","kind":"avenue","lengthM":2023.7,"gradientPct":0.0},"geometry":{"type":"LineString","coordinates":[[114.298,22.3778],[114.298,22.396]]}}]}