{"type":"FeatureCollection","features":[{"type":"Feature","properties":{"id":"northern-metropolis:n0000->n0001:avenue","kind":"avenue","lengthM":513.6,"gradientPct":0.0},"geometry":{"type":"LineString","coordinates":[[114.12,22.505],[114.125,22.505]]}},{"type":"Feature","properties":{"id":"northern-metropolis:n0001->n0002:avenue","kind":"avenue","lengthM":513.6,"gradientPct":0.0},"geometry":{"type":"LineString","coordinates":[[114.125,22.505],[114.13000000000001,22.505]]}},{"type":"Feature","properties":{"id":"northern-metropolis:n0002->n0003:avenue","kind":"avenue","lengthM":513.6,"gradientPct":0.0},"geometry":{"type":"LineString","coordinates":[[114.13000000000001,22.505],[114.135,22.505]]}},{"type":"Feature","properties":{"id":"northern-metropolis:n0003->n0004:avenue","kind":"avenue","lengthM":513.6,"gradientPct":0.0},"geometry":{"type":"LineString","coordinates":[[114.135,22.505],[114.14,22.505]]}},{"type":"Feature","properties":{"id":"northern-metropolis:n0004->n0005:avenue","kind":"avenue","lengthM":513.6,"gradientPct":0.0},"geometry":{"type":"LineString","coordinates":[[114.14,22.505],[114.14500000000001,22.505]]}},{"type":"Feature","properties":{"id":"northern-metropolis:n0005->n0006:avenue","kind":"avenue","lengthM":513.6,"gradientPct":0.0},"geometry":{"type":"LineString","coordinates":[[114.14500000000001,22.505],[114.15,22.505]]}},{"type":"Feature","properties":{"id":"northern-metropolis:n0007->n0008:street","kind":"street","lengthM":513.6,"gradientPct":0.0},"geometry":{"type":"LineString","coordinates":[[114.12,22.509],[114.125,22.509]]}},{"type":"Feature","properties":{"id":"northern-metropolis:n0008->n0009:street","kind":"street","lengthM":513.6,"gradientPct":0.0},"geometry":{"type":"LineString","coordinates":[[114.125,22.509],[114.13000000000001,22.509]]}},{"type":"Feature","properties":{"id":"northern-metropolis:n0009->n0010:street","kind":"street","lengthM":513.6,"gradientPct":0.0},"geometry":{"type":"LineString","coordinates":[[114.13000000000001,22.509],[114.135,22.509]]}},{"type":"Feature","properties":{"id":"northern-metropolis:n0010->n0011:street","kind":"street","lengthM":513.6,"gradientPct":0.0},"geometry":{"type":"LineString","coordinates":[[114.135,22.509],[114.14,22.509]]}},{"type":"Feature","properties":{"id":"northern-metropolis:n0011->n0012:street","kind":"street","lengthM":513.6,"gradientPct":0.0},"geometry":{"type":"LineString","coordinates":[[114.14,22.509],[114.14500000000001,22.509]]}},{"type":"Feature","properties":{"id":"northern-metropolis:n0012->n0013:street","kind":"street","lengthM":513.6,"gradientPct":0.0},"geometry":{"type":"LineString","coordinates":[[114.14500000000001,22.509],[114.15,22.509]]}},{"type":"Feature","properties":{"id":"northern-metropolis:n0014->n0015:lane","kind":"lane","lengthM":513.6,"gradientPct":0.0,"greenLane":true},"geometry":{"type":"LineString","coordinates":[[114.12,22.512999999999998],[114.125,22.512999999999998]]}},{"type":"Feature","properties":{"id":"northern-metropolis:n0015->n0016:lane","kind":"lane","lengthM":513.6,"gradientPct":0.0,"greenLane":true},"geometry":{"type":"LineString","coordinates":[[114.125,22.512999999999998],[114.13000000000001,22.512999999999998]]}},{"type":"Feature","properties":{"id":"northern-metropolis:n0016->n0017:lane","kind":"lane","lengthM":513.6,"gradientPct":0.0,"greenLane":true},"geometry":{"type":"LineString","coordinates":[[114.13000000000001,22.512999999999998],[114.135,22.512999999999998]]}},{"type":"Feature","properties":{"id":"northern-metropolis:n0017->n0018:lane","kind":"lane","lengthM":513.6,"gradientPct":0.0,"greenLane":true},"geometry":{"type":"LineString","coordinates":[[114.135,22.512999999999998],[114.14,22.512999999999998]]}},{"type":"Feature","properties":{"id":"northern-metropolis:n0018->n0019:lane","kind":"lane","lengthM":513.6,"gradientPct":0.0,"greenLane":true},"geometry":{"type":"LineString","coordinates":[[114.14,22.512999999999998],[114.14500000000001,22.512999999999998]]}},{"type":"Feature","properties":{"id":"northern-metropolis:n0019->n0020:lane","kind":"lane","lengthM":513.6,"gradientPct":0.0,"greenLane":true},"geometry":{"type":"LineString","coordinates":[[114.14500000000001,22.512999999999998],[114.15,22.512999999999998]]}},{"type":"Feature","properties":{"id":"northern-metropolis:n0021->n0022:street","kind":"street","lengthM":513.6,"gradientPct":0.0},"geometry":{"type":"LineString","coordinates":[[114.12,22.517],[114.125,22.517]]}},{"type":"Feature","properties":{"id":"northern-metropolis:n0022->n0023:street","kind":"street","lengthM":513.6,"gradientPct":0.0},"geometry":{"type":"LineString","coordinates":[[114.125,22.517],[114.13000000000001,22.517]]}},{"type":"Feature","properties":{"id":"northern-metropolis:n0023->n0024:street","kind":"street","lengthM":513.6,"gradientPct":0.0},"geometry":{"type":"LineString","coordinates":[[114.13000000000001,22.517],[114.135,22.517]]}},{"type":"Feature","properties":{"id":"northern-metropolis:n0024->n0025:street","kind":"street","lengthM":513.6,"gradientPct":0.0},"geometry":{"type":"LineString","coordinates":[[114.135,22.517],[114.14,22.517]]}},{"type":"Feature","properties":{"id":"northern-metropolis:n0025->n0026:street","kind":"street","lengthM":513.6,"gradientPct":0.0},"geometry":{"type":"LineString","coordinates":[[114.14,22.517],[114.14500000000001,22.517]]}},{"type":"Feature","properties":{"id":"northern-metropolis:n0026->n0027:street","kind":"street","lengthM":513.6,"gradientPct":0.0},"geometry":{"type":"LineString","coordinates":[[114.14500000000001,22.517],[114.15,22.517]]}},{"type":"Feature","properties":{"id":"northern-metropolis:n0028->n0029:street","kind":"street","lengthM":513.6,"gradientPct":0.0},"geometry":{"type":"LineString","coordinates":[[114.12,22.520999999999997],[114.125,22.520999999999997]]}},{"type":"Feature","properties":{"id":"northern-metropolis:n0029->n0030:street","kind":"street","lengthM":513.6,"gradientPct":0.0},"geometry":{"type":"LineString","coordinates":[[114.125,22.520999999999997],[114.13000000000001,22.520999999999997]]}},{"type":"Feature","properties":{"id":"northern-metropolis:n0030->n0031:street","kind":"street","lengthM":513.6,"gradientPct":0.0},"geometry":{"type":"LineString","coordinates":[[114.13000000000001,22.520999999999997],[114.135,22.520999999999997]]}},{"type":"Feature","properties":{"id":"northern-metropolis:n0031->n0032:street","kind":"street","lengthM":513.6,"gradientPct":0.0},"geometry":{"type":"LineString","coordinates":[[114.135,22.520999999999997],[114.14,22.520999999999997]]}},{"type":"Feature","properties":{"id":"northern-metropolis:n0032->n0033:street","kind":"street","lengthM":513.6,"gradientPct":0.0},"geometry":{"type":"LineString","coordinates":[[114.14,22.520999999999997],[114.14500000000001,22.520999999999997]]}},{"type":"Feature","properties":{"id":"northern-metropolis:n0033->n0034:street","kind":"street","lengthM":513.6,"gradientPct":0.0},"geometry":{"type":"LineString","coordinates":[[114.14500000000001,22.520999999999997],[114.15,22.520999999999997]]}},{"type":"Feature","properties":{"id":"northern-metropolis:n0035->n0036:avenue","kind":"avenue","lengthM":513.6,"gradientPct":0.0},"geometry":{"type":"LineString","coordinates":[[114.12,22.525],[114.125,22.525]]}},{"type":"Feature","properties":{"id":"northern-metropolis:n0036->n0037:avenue","kind":"avenue","lengthM":513.6,"gradientPct":0.0},"geometry":{"type":"LineString","coordinates":[[114.125,22.525],[114.13000000000001,22.525]]}},{"type":"Feature","properties":{"id":"northern-metropolis:n0037->n0038:avenue","kind":"avenue","lengthM":513.6,"gradientPct":0.0},"geometry":{"type":"LineString","coordinates":[[114.13000000000001,22.525],[114.135,22.525]]}},{"type":"Feature","properties":{"id":"northern-metropolis:n0038->n0039:avenue","kind":"avenue","lengthM":513.6,"gradientPct":0.0},"geometry":{"type":"LineString","coordinates":[[114.135,22.525],[114.14,22.525]]}},{"type":"Feature","properties":{"id":"northern-metropolis:n0039->n0040:avenue","kind":"avenue","lengthM":513.6,"gradientPct":0.0},"geometry":{"type":"LineString","coordinates":[[114.14,22.525],[114.14500000000001,22.525]]}},{"type":"Feature","properties":{"id":"northern-metropolis:n0040->n0041:avenue","kind":"avenue","lengthM":513.6,"gradientPct":0.0},"geometry":{"type":"LineString","coordinates":[[114.14500000000001,22.525],[114.15,22.525]]}},{"type":"Feature","properties":{"id":"northern-metropolis:n0000->n0007:avenue","kind":"avenue","lengthM":444.8,"gradientPct":0.0},"geometry":{"type":"LineString","coordinates":[[114.12,22.505],[114.12,22.509]]}},{"type":"Feature","properties":{"id":"northern-metropolis:n0007->n0014:avenue","kind":"avenue","lengthM":444.8,"gradientPct":0.0},"geometry":{"type":"LineString","coordinates":[[114.12,22.509],[114.12,22.512999999999998]]}},{"type":"Feature","properties":{"id":"northern-metropolis:n0014->n0021:avenue","kind":"avenue","lengthM":444.8,"gradientPct":0.0},"geometry":{"type":"LineString","coordinates":[[114.12,22.512999999999998],[114.12,22.517]]}},{"type":"Feature","properties":{"id":"northern-metropolis:n0021->n0028:avenue","kind":"avenue","lengthM":444.8,"gradientPct":0.0},"geometry":{"type":"LineString","coordinates":[[114.12,22.517],[114.12,22.520999999999997]]}},{"type":"Feature","properties":{"id":"northern-metropolis:n0028->n0035:avenue","kind":"avenue","lengthM":444.8,"gradientPct":0.0},"geometry":{"type":"LineString","coordinates":[[114.12,22.520999999999997],[114.12,22.525]]}},{"type":"Feature","properties":{"id":"northern-metropolis:n0001->n0008:street","kind":"street","lengthM":444.8,"gradientPct":0.0},"geometry":{"type":"LineString","coordinates":[[114.125,22.505],[114.125,22.509]]}},{"type":"Feature","properties":{"id":"northern-metropolis:n0008->n0015:street","kind":"street","lengthM":444.8,"gradientPct":0.0},"geometry":{"type":"LineString","coordinates":[[114.125,22.509],[114.125,22.512999999999998]]}},{"type":"Feature","properties":{"id":"northern-metropolis:n0015->n0022:street","kind":"street","lengthM":444.8,"gradientPct":0.0},"geometry":{"type":"LineString","coordinates":[[114.125,22.512999999999998],[114.125,22.517]]}},{"type":"Feature","properties":{"id":"northern-metropolis:n0022->n0029:street","kind":"street","lengthM":444.8,"gradientPct":0.0},"geometry":{"type":"LineString","coordinates":[[114.125,22.517],[114.125,22.520999999999997]]}},{"type":"Feature","properties":{"id":"northern-metropolis:n0029->n0036:street","kind":"street","lengthM":444.8,"gradientPct":0.0},"geometry":{"type":"LineString","coordinates":[[114.125,22.520999999999997],[114.125,22.525]]}},{"type":"Feature","properties":{"id":"northern-metropolis:n0002->n0009:street","kind":"street","lengthM":444.8,"gradientPct":0.0},"geometry":{"type":"LineString","coordinates":[[114.13000000000001,22.505],[114.13000000000001,22.509]]}},{"type":"Feature","properties":{"id":"northern-metropolis:n0009->n0016:street","kind":"street","lengthM":444.8,"gradientPct":0.0},"geometry":{"type":"LineString","coordinates":[[114.13000000000001,22.509],[114.13000000000001,22.512999999999998]]}},{"type":"Feature","properties":{"id":"northern-metropolis:n0016->n0023:street","kind":"street","lengthM":444.8,"gradientPct":0.0},"geometry":{"type":"LineString","coordinates":[[114.13000000000001,22.512999999999998],[114.13000000000001,22.517]]}},{"type":"Feature","properties":{"id":"northern-metropolis:n0023->n0030:street","kind":"street","lengthM":444.8,"gradientPct":0.0},"geometry":{"type":"LineString","coordinates":[[114.13000000000001,22.517],[114.13000000000001,22.520999999999997]]}},{"type":"Feature","properties":{"id":"northern-metropolis:n0030->n0037:street","kind":"street","lengthM":444.8,"gradientPct":0.0},"geometry":{"type":"LineString","coordinates":[[114.13000000000001,22.520999999999997],[114.13000000000001,22.525]]}},{"type":"Feature","properties":{"id":"northern-metropolis:n0003->n0010:street","kind":"street","lengthM":444.8,"gradientPct":0.0},"geometry":{"type":"LineString","coordinates":[[114.135,22.505],[114.135,22.509]]}},{"type":"Feature","properties":{"id":"northern-metropolis:n0010->n0017:street","kind":"street","lengthM":444.8,"gradientPct":0.0},"geometry":{"type":"LineString","coordinates":[[114.135,22.509],[114.135,22.512999999999998]]}},{"type":"Feature","properties":{"id":"northern-metropolis:n0017->n0024:street","kind":"street","lengthM":444.8,"gradientPct":0.0},"geometry":{"type":"LineString","coordinates":[[114.135,22.512999999999998],[114.135,22.517]]}},{"type":"Feature","properties":{"id":"northern-metropolis:n0024->n0031:street","kind":"street","lengthM":444.8,"gradientPct":0.0},"geometry":{"type":"LineString","coordinates":[[114.135,22.517],[114.135,22.520999999999997]]}},{"type":"Feature","properties":{"id":"northern-metropolis:n0031->n0038:street","kind":"street","lengthM":444.8,"gradientPct":0.0},"geometry":{"type":"LineString","coordinates":[[114.135,22.520999999999997],[114.135,22.525]]}},{"type":"Feature","properties":{"id":"northern-metropolis:n0004->n0011:street","kind":"street","lengthM":444.8,"gradientPct":0.0},"geometry":{"type":"LineString","coordinates":[[114.14,22.505],[114.14,22.509]]}},{"type":"Feature","properties":{"id":"northern-metropolis:n0011->n0018:street","kind":"street","lengthM":444.8,"gradientPct":0.0},"geometry":{"type":"LineString","coordinates":[[114.14,22.509],[114.14,22.512999999999998]]}},{"type":"Feature","properties":{"id":"northern-metropolis:n0018->n0025:street","kind":"street","lengthM":444.8,"gradientPct":0.0},"geometry":{"type":"LineString","coordinates":[[114.14,22.512999999999998],[114.14,22.517]]}},{"type":"Feature","properties":{"id":"northern-metropolis:n0025->n0032:street","kind":"street","lengthM":444.8,"gradientPct":0.0},"geometry":{"type":"LineString","coordinates":[[114.14,22.517],[114.14,22.520999999999997]]}},{"type":"Feature","properties":{"id":"northern-metropolis:n0032->n0039:street","kind":"street","lengthM":444.8,"gradientPct":0.0},"geometry":{"type":"LineString","coordinates":[[114.14,22.520999999999997],[114.14,22.525]]}},{"type":"Feature","properties":{"id":"northern-metropolis:n0005->n0012:street","kind":"street","lengthM":444.8,"gradientPct":0.0},"geometry":{"type":"LineString","coordinates":[[114.14500000000001,22.505],[114.14500000000001,22.509]]}},{"type":"Feature","properties":{"id":"northern-metropolis:n0012->n0019:street","kind":"street","lengthM":444.8,"gradientPct":0.0},"geometry":{"type":"LineString","coordinates":[[114.14500000000001,22.509],[114.14500000000001,22.512999999999998]]}},{"type":"Feature","properties":{"id":"northern-metropolis:n0019->n0026:street","kind":"street","lengthM":444.8,"gradientPct":0.0},"geometry":{"type":"LineString","coordinates":[[114.14500000000001,22.512999999999998],[114.14500000000001,22.517]]}},{"type":"Feature","properties":{"id":"northern-metropolis:n0026->n0033:street","kind":"street","lengthM":444.8,"gradientPct":0.0},"geometry":{"type":"LineString","coordinates":[[114.14500000000001,22.517],[114.14500000000001,22.520999999999997]]}},{"type":"Feature","properties":{"id":"northern-metropolis:n0033->n0040:street","kind":"street","lengthM":444.8,"gradientPct":0.0},"geometry":{"type":"LineString","coordinates":[[114.14500000000001,22.520999999999997],[114.14500000000001,22.525]]}},{"type":"Feature","properties":{"id":"northern-metropolis:n0006->n0013:avenue","kind":"avenue","lengthM":444.8,"gradientPct":0.0},"geometry":{"type":"LineString","coordinates":[[114.15,22.505],[114.15,22.509]]}},{"type":"Feature","properties":{"id":"northern-metropolis:n0013->n0020:avenue","kind":"avenue","lengthM":444.8,"gradientPct":0.0},"geometry":{"type":"LineString","coordinates":[[114.15,22.509],[114.15,22.512999999999998]]}},{"type":"Feature","properties":{"id":"northern-metropolis:n0020->n0027:avenue","kind":"avenue","lengthM":444.8,"gradientPct":0.0},"geometry":{"type":"LineString","coordinates":[[114.15,22.512999999999998],[114.15,22.517]]}},{"type":"Feature","properties":{"id":"northern-metropolis:n0027->n0034:avenue","kind":"avenue","lengthM":444.8,"gradientPct":0.0},"geometry":{"type":"LineString","coordinates":[[114.15,22.517],[114.15,22.520999999999997]]}},{"type":"Feature","properties":{"id":"northern-metropolis:n0034->n0041:avenue","kind":"avenue","lengthM":444.8,"gradientPct":0.0},"geometry":{"type":"LineString","coordinates":[[114.15,22.520999999999997],[114.15,22.525]]}},{"type":"Feature","properties":{"id":"northern-metropolis:n0008->n0033:lane","kind":"lane","lengthM":2449.7,"gradientPct":0.0,"greenLane":true},"geometry":{"type":"LineString","coordinates":[[114.125,22.509],[114.14500000000001,22.520999999999997]]}},{"type":"Feature","properties":{"id":"northern-metropolis:n0014->n0020:proposed-corridor","kind":"proposed-corridor","lengthM":3081.6,"gradientPct":0.0,"proposedShadedCorridor":true},"geometry":{"type":"LineString","coordinates":[[114.12,22.512999999999998],[114.15,22.512999999999998]]}}]}