{"type":"FeatureCollection","features":[{"type":"Feature","properties":{"id":"nt-yuen-long:n0000->n0001:avenue","kind":"avenue","lengthM":513.9,"gradientPct":0.0},"geometry":{"type":"LineString","coordinates":[[114.018,22.432],[114.023,22.432]]}},{"type":"Feature","properties":{"id":"nt-yuen-long:n0001->n0002:avenue","kind":"avenue","lengthM":513.9,"gradientPct":0.0},"geometry":{"type":"LineString","coordinates":[[114.023,22.432],[114.028,22.432]]}},{"type":"Feature","properties":{"id":"nt-yuen-long:n0002->n0003:avenue","kind":"avenue","lengthM":513.9,"gradientPct":0.0},"geometry":{"type":"LineString","coordinates":[[114.028,22.432],[114.033,22.432]]}},{"type":"Feature","properties":{"id":"nt-yuen-long:n0003->n0004:avenue","kind":"avenue","lengthM":513.9,"gradientPct":0.0},"geometry":{"type":"LineString","coordinates":[[114.033,22.432],[114.038,22.432]]}},{"type":"Feature","properties":{"id":"nt-yuen-long:n0004->n0005:avenue","kind":"avenue","lengthM":513.9,"gradientPct":0.0},"geometry":{"type":"LineString","coordinates":[[114.038,22.432],[114.043,22.432]]}},{"type":"Feature","properties":{"id":"nt-yuen-long:n0005->n0006:avenue","kind":"avenue","lengthM":513.9,"gradientPct":0.0},"geometry":{"type":"LineString","coordinates":[[114.043,22.432],[114.048,22.432]]}},{"type":"Feature","properties":{"id":"nt-yuen-long:n0007->n0008:street","kind":"street","lengthM":513.9,"gradientPct":0.0},"geometry":{"type":"LineString","coordinates":[[114.018,22.437199999999997],[114.023,22.437199999999997]]}},{"type":"Feature","properties":{"id":"nt-yuen-long:n0008->n0009:street","kind":"street","lengthM":513.9,"gradientPct":0.0},"geometry":{"type":"LineString","coordinates":[[114.023,22.437199999999997],[114.028,22.437199999999997]]}},{"type":"Feature","properties":{"id":"nt-yuen-long:n0009->n0010:street","kind":"street","lengthM":513.9,"gradientPct":0.0},"geometry":{"type":"LineString","coordinates":[[114.028,22.437199999999997],[114.033,22.437199999999997]]}},{"type":"Feature","properties":{"id":"nt-yuen-long:n0010->n0011:street","kind":"street","lengthM":513.9,"gradientPct":0.0},"geometry":{"type":"LineString","coordinates":[[114.033,22.437199999999997],[114.038,22.437199999999997]]}},{"type":"Feature","properties":{"id":"nt-yuen-long:n0011->n0012:street","kind":"street","lengthM":513.9,"gradientPct":0.0},"geometry":{"type":"LineString","coordinates":[[114.038,22.437199999999997],[114.043,22.437199999999997]]}},{"type":"Feature","properties":{"id":"nt-yuen-long:n0012->n0013:street","kind":"street","lengthM":513.9,"gradientPct":0.0},"geometry":{"type":"LineString","coordinates":[[114.043,22.437199999999997],[114.048,22.437199999999997]]}},{"type":"Feature","properties":{"id":"nt-yuen-long:n0014->n0015:street","kind":"street","lengthM":513.9,"gradientPct":0.0},"geometry":{"type":"LineString","coordinates":[[114.018,22.4424],[114.023,22.4424]]}},{"type":"Feature","properties":{"id":"nt-yuen-long:n0015->n0016:street","kind":"street","lengthM":513.9,"gradientPct":0.0},"geometry":{"type":"LineString","coordinates":[[114.023,22.4424],[114.028,22.4424]]}},{"type":"Feature","properties":{"id":"nt-yuen-long:n0016->n0017:street","kind":"street","lengthM":513.9,"gradientPct":0.0},"geometry":{"type":"LineString","coordinates":[[114.028,22.4424],[114.033,22.4424]]}},{"type":"Feature","properties":{"id":"nt-yuen-long:n0017->n0018:street","kind":"street","lengthM":513.9,"gradientPct":0.0},"geometry":{"type":"LineString","coordinates":[[114.033,22.4424],[114.038,22.4424]]}},{"type":"Feature","properties":{"id":"nt-yuen-long:n0018->n0019:street","kind":"street","lengthM":513.9,"gradientPct":0.0},"geometry":{"type":"LineString","coordinates":[[114.038,22.4424],[114.043,22.4424]]}},{"type":"Feature","properties":{"id":"nt-yuen-long:n0019->n0020:street","kind":"street","lengthM":513.9,"gradientPct":0.0},"geometry":{"type":"LineString","coordinates":[[114.043,22.4424],[114.048,22.4424]]}},{"type":"Feature","properties":{"id":"nt-yuen-long:n0021->n0022:street","kind":"street","lengthM":513.8,"gradientPct":0.0},"geometry":{"type":"LineString","coordinates":[[114.018,22.447599999999998],[114.023,22.447599999999998]]}},{"type":"Feature","properties":{"id":"nt-yuen-long:n0022->n0023:street","kind":"street","lengthM":513.8,"gradientPct":0.0},"geometry":{"type":"LineString","coordinates":[[114.023,22.447599999999998],[114.028,22.447599999999998]]}},{"type":"Feature","properties":{"id":"nt-yuen-long:n0023->n0024:street","kind":"street","lengthM":513.8,"gradientPct":0.0},"geometry":{"type":"LineString","coordinates":[[114.028,22.447599999999998],[114.033,22.447599999999998]]}},{"type":"Feature","properties":{"id":"nt-yuen-long:n0024->n0025:street","kind":"street","lengthM":513.8,"gradientPct":0.0},"geometry":{"type":"LineString","coordinates":[[114.033,22.447599999999998],[114.038,22.447599999999998]]}},{"type":"Feature","properties":{"id":"nt-yuen-long:n0025->n0026:street","kind":"street","lengthM":513.8,"gradientPct":0.0},"geometry":{"type":"LineString","coordinates":[[114.038,22.447599999999998],[114.043,22.447599999999998]]}},{"type":"Feature","properties":{"id":"nt-yuen-long:n0026->n0027:street","kind":"street","lengthM":513.8,"gradientPct":0.0},"geometry":{"type":"LineString","coordinates":[[114.043,22.447599999999998],[114.048,22.447599999999998]]}},{"type":"Feature","properties":{"id":"nt-yuen-long:n0028->n0029:street","kind":"street","lengthM":513.8,"gradientPct":0.0},"geometry":{"type":"LineString","coordinates":[[114.018,22.4528],[114.023,22.4528]]}},{"type":"Feature","properties":{"id":"nt-yuen-long:n0029->n0030:street","kind":"street","lengthM":513.8,"gradientPct":0.0},"geometry":{"type":"LineString","coordinates":[[114.023,22.4528],[114.028,22.4528]]}},{"type":"Feature","properties":{"id":"nt-yuen-long:n0030->n0031:street","kind":"street","lengthM":513.8,"gradientPct":0.0},"geometry":{"type":"LineString","coordinates":[[114.028,22.4528],[114.033,22.4528]]}},{"type":"Feature","properties":{"id":"nt-yuen-long:n0031->n0032:street","kind":"street","lengthM":513.8,"gradientPct":0.0},"geometry":{"type":"LineString","coordinates":[[114.033,22.4528],[114.038,22.4528]]}},{"type":"Feature","properties":{"id":"nt-yuen-long:n0032->n0033:street","kind":"street","lengthM":513.8,"gradientPct":0.0},"geometry":{"type":"LineString","coordinates":[[114.038,22.4528],[114.043,22.4528]]}},{"type":"Feature","properties":{"id":"nt-yuen-long:n0033->n0034:street","kind":"street","lengthM":513.8,"gradientPct":0.0},"geometry":{"type":"LineString","coordinates":[[114.043,22.4528],[114.048,22.4528]]}},{"type":"Feature","properties":{"id":"nt-yuen-long:n0035->n0036:avenue","kind":"avenue","lengthM":513.8,"gradientPct":0.0},"geometry":{"type":"LineString","coordinates":[[114.018,22.458],[114.023,22.458]]}},{"type":"Feature","properties":{"id":"nt-yuen-long:n0036->n0037:avenue","kind":"avenue","lengthM":513.8,"gradientPct":0.0},"geometry":{"type":"LineString","coordinates":[[114.023,22.458],[114.028,22.458]]}},{"type":"Feature","properties":{"id":"nt-yuen-long:n0037->n0038:avenue","kind":"avenue","lengthM":513.8,"gradientPct":0.0},"geometry":{"type":"LineString","coordinates":[[114.028,22.458],[114.033,22.458]]}},{"type":"Feature","properties":{"id":"nt-yuen-long:n0038->n0039:avenue","kind":"avenue","lengthM":513.8,"gradientPct":0.0},"geometry":{"type":"LineString","coordinates":[[114.033,22.458],[114.038,22.458]]}},{"type":"Feature","properties":{"id":"nt-yuen-long:n0039->n0040:avenue","kind":"avenue","lengthM":513.8,"gradientPct":0.0},"geometry":{"type":"LineString","coordinates":[[114.038,22.458],[114.043,22.458]]}},{"type":"Feature","properties":{"id":"nt-yuen-long:n0040->n0041:avenue","kind":"avenue","lengthM":513.8,"gradientPct":0.0},"geometry":{"type":"LineString","coordinates":[[114.043,22.458],[114.048,22.458]]}},{"type":"Feature","properties":{"id":"nt-yuen-long:n0000->n0007:avenue","kind":"avenue","lengthM":578.2,"gradientPct":0.0},"geometry":{"type":"LineString","coordinates":[[114.018,22.432],[114.018,22.437199999999997]]}},{"type":"Feature","properties":{"id":"nt-yuen-long:n0007->n0014:avenue","kind":"avenue","lengthM":578.2,"gradientPct":0.0},"geometry":{"type":"LineString","coordinates":[[114.018,22.437199999999997],[114.018,22.4424]]}},{"type":"Feature","properties":{"id":"nt-yuen-long:n0014->n0021:avenue","kind":"avenue","lengthM":578.2,"gradientPct":0.0},"geometry":{"type":"LineString","coordinates":[[114.018,22.4424],[114.018,22.447599999999998]]}},{"type":"Feature","properties":{"id":"nt-yuen-long:n0021->n0028:avenue","kind":"avenue","lengthM":578.2,"gradientPct":0.0},"geometry":{"type":"LineString","coordinates":[[114.018,22.447599999999998],[114.018,22.4528]]}},{"type":"Feature","properties":{"id":"nt-yuen-long:n0028->n0035:avenue","kind":"avenue","lengthM":578.2,"gradientPct":0.0},"geometry":{"type":"LineString","coordinates":[[114.018,22.4528],[114.018,22.458]]}},{"type":"Feature","properties":{"id":"nt-yuen-long:n0001->n0008:street","kind":"street","lengthM":578.2,"gradientPct":0.0},"geometry":{"type":"LineString","coordinates":[[114.023,22.432],[114.023,22.437199999999997]]}},{"type":"Feature","properties":{"id":"nt-yuen-long:n0008->n0015:street","kind":"street","lengthM":578.2,"gradientPct":0.0},"geometry":{"type":"LineString","coordinates":[[114.023,22.437199999999997],[114.023,22.4424]]}},{"type":"Feature","properties":{"id":"nt-yuen-long:n0015->n0022:street","kind":"street","lengthM":578.2,"gradientPct":0.0},"geometry":{"type":"LineString","coordinates":[[114.023,22.4424],[114.023,22.447599999999998]]}},{"type":"Feature","properties":{"id":"nt-yuen-long:n0022->n0029:street","kind":"street","lengthM":578.2,"gradientPct":0.0},"geometry":{"type":"LineString","coordinates":[[114.023,22.447599999999998],[114.023,22.4528]]}},{"type":"Feature","properties":{"id":"nt-yuen-long:n0029->n0036:street","kind":"street","lengthM":578.2,"gradientPct":0.0},"geometry":{"type":"LineString","coordinates":[[114.023,22.4528],[114.023,22.458]]}},{"type":"Feature","properties":{"id":"nt-yuen-long:n0002->n0009:street","kind":"street","lengthM":578.2,"gradientPct":0.0},"geometry":{"type":"LineString","coordinates":[[114.028,22.432],[114.028,22.437199999999997]]}},{"type":"Feature","properties":{"id":"nt-yuen-long:n0009->n0016:street","kind":"street","lengthM":578.2,"gradientPct":0.0},"geometry":{"type":"LineString","coordinates":[[114.028,22.437199999999997],[114.028,22.4424]]}},{"type":"Feature","properties":{"id":"nt-yuen-long:n0016->n0023:street","kind":"street","lengthM":578.2,"gradientPct":0.0},"geometry":{"type":"LineString","coordinates":[[114.028,22.4424],[114.028,22.447599999999998]]}},{"type":"Feature","properties":{"id":"nt-yuen-long:n0023->n0030:street","kind":"street","lengthM":578.2,"gradientPct":0.0},"geometry":{"type":"LineString","coordinates":[[114.028,22.447599999999998],[114.028,22.4528]]}},{"type":"Feature","properties":{"id":"nt-yuen-long:n0030->n0037:street","kind":"street","lengthM":578.2,"gradientPct":0.0},"geometry":{"type":"LineString","coordinates":[[114.028,22.4528],[114.028,22.458]]}},{"type":"Feature","properties":{"id":"nt-yuen-long:n0003->n0010:street","kind":"street","lengthM":578.2,"gradientPct":0.0},"geometry":{"type":"LineString","coordinates":[[114.033,22.432],[114.033,22.437199999999997]]}},{"type":"Feature","properties":{"id":"nt-yuen-long:n0010->n0017:street","kind":"street","lengthM":578.2,"gradientPct":0.0},"geometry":{"type":"LineString","coordinates":[[114.033,22.437199999999997],[114.033,22.4424]]}},{"type":"Feature","properties":{"id":"nt-yuen-long:n0017->n0024:street","kind":"street","lengthM":578.2,"gradientPct":0.0},"geometry":{"type":"LineString","coordinates":[[114.033,22.4424],[114.033,22.447599999999998]]}},{"type":"Feature","properties":{"id":"nt-yuen-long:n0024->n0031:street","kind":"street","lengthM":578.2,"gradientPct":0.0},"geometry":{"type":"LineString","coordinates":[[114.033,22.447599999999998],[114.033,22.4528]]}},{"type":"Feature","properties":{"id":"nt-yuen-long:n0031->n0038:street","kind":"street","lengthM":578.2,"gradientPct":0.0},"geometry":{"type":"LineString","coordinates":[[114.033,22.4528],[114.033,22.458]]}},{"type":"Feature","properties":{"id":"nt-yuen-long:n0004->n0011:street","kind":"street","lengthM":578.2,"gradientPct":0.0},"geometry":{"type":"LineString","coordinates":[[114.038,22.432],[114.038,22.437199999999997]]}},{"type":"Feature","properties":{"id":"nt-yuen-long:n0011->n0018:street","kind":"street","lengthM":578.2,"gradientPct":0.0},"geometry":{"type":"LineString","coordinates":[[114.038,22.437199999999997],[114.038,22.4424]]}},{"type":"Feature","properties":{"id":"nt-yuen-long:n0018->n0025:street","kind":"street","lengthM":578.2,"gradientPct":0.0},"geometry":{"type":"LineString","coordinates":[[114.038,22.4424],[114.038,22.447599999999998]]}},{"type":"Feature","properties":{"id":"nt-yuen-long:n0025->n0032:street","kind":"street","lengthM":578.2,"gradientPct":0.0},"geometry":{"type":"LineString","coordinates":[[114.038,22.447599999999998],[114.038,22.4528]]}},{"type":"Feature","properties":{"id":"nt-yuen-long:n0032->n0039:street","kind":"street","lengthM":578.2,"gradientPct":0.0},"geometry":{"type":"LineString","coordinates":[[114.038,22.4528],[114.038,22.458]]}},{"type":"Feature","properties":{"id":"nt-yuen-long:n0005->n0012:street","kind":"street","lengthM":578.2,"gradientPct":0.0},"geometry":{"type":"LineString","coordinates":[[114.043,22.432],[114.043,22.437199999999997]]}},{"type":"Feature","properties":{"id":"nt-yuen-long:n0012->n0019:street","kind":"street","lengthM":578.2,"gradientPct":0.0},"geometry":{"type":"LineString","coordinates":[[114.043,22.437199999999997],[114.043,22.4424]]}},{"type":"Feature","properties":{"id":"nt-yuen-long:n0019->n0026:street","kind":"street","lengthM":578.2,"gradientPct":0.0},"geometry":{"type":"LineString","coordinates":[[114.043,22.4424],[114.043,22.447599999999998]]}},{"type":"Feature","properties":{"id":"nt-yuen-long:n0026->n0033:street","kind":"street","lengthM":578.2,"gradientPct":0.0},"geometry":{"type":"LineString","coordinates":[[114.043,22.447599999999998],[114.043,22.4528]]}},{"type":"Feature","properties":{"id":"nt-yuen-long:n0033->n0040:street","kind":"street","lengthM":578.2,"gradientPct":0.0},"geometry":{"type":"LineString","coordinates":[[114.043,22.4528],[114.043,22.458]]}},{"type":"Feature","properties":{"id":"nt-yuen-long:n0006->n0013:avenue","kind":"avenue","lengthM":578.2,"gradientPct":0.0},"geometry":{"type":"LineString","coordinates":[[114.048,22.432],[114.048,22.437199999999997]]}},{"type":"Feature","properties":{"id":"nt-yuen-long:n0013->n0020:avenue","kind":"avenue","lengthM":578.2,"gradientPct":0.0},"geometry":{"type":"LineString","coordinates":[[114.048,22.437199999999997],[114.048,22.4424]]}},{"type":"Feature","properties":{"id":"nt-yuen-long:n0020->n0027:avenue","kind":"avenue","lengthM":578.2,"gradientPct":0.0},"geometry":{"type":"LineString","coordinates":[[114.048,22.4424],[114.048,22.447599999999998]]}},{"type":"Feature","properties":{"id":"nt-yuen-long:n0027->n0034:avenue","kind":"avenue","lengthM":578.2,"gradientPct":0.0},"geometry":{"type":"LineString","coordinates":[[114.048,22.447599999999998],[114.048,22.4528]]}},{"type":"Feature","properties":{"id":"nt-yuen-long:n0034->n0041:avenue","kind":"avenue","lengthM":578.2,"gradientPct":0.0},"geometry":{"type":"LineString","coordinates":[[114.048,22.4528],[114.048,22.458]]}}]}