{"type":"FeatureCollection","features":[{"type":"Feature","properties":{"id":"southern:n0000->n0001:avenue","kind":"avenue","lengthM":1973.1,"gradientPct":0.0},"geometry":{"type":"LineString","coordinates":[[114.15,22.21],[114.16916666666667,22.21]]}},{"type":"Feature","properties":{"id":"southern:n0001->n0002:avenue","kind":"avenue","lengthM":1973.1,"gradientPct":0.0},"geometry":{"type":"LineString","coordinates":[[114.16916666666667,22.21],[114.18833333333333,22.21]]}},{"type":"Feature","properties":{"id":"southern:n0002->n0003:avenue","kind":"avenue","lengthM":1973.1,"gradientPct":0.0},"geometry":{"type":"LineString","coordinates":[[114.18833333333333,22.21],[114.20750000000001,22.21]]}},{"type":"Feature","properties":{"id":"southern:n0003->n0004:avenue","kind":"avenue","lengthM":1973.1,"gradientPct":0.0},"geometry":{"type":"LineString","coordinates":[[114.20750000000001,22.21],[114.22666666666667,22.21]]}},{"type":"Feature","properties":{"id":"southern:n0004->n0005:avenue","kind":"avenue","lengthM":1973.1,"gradientPct":0.0},"geometry":{"type":"LineString","coordinates":[[114.22666666666667,22.21],[114.24583333333334,22.21]]}},{"type":"Feature","properties":{"id":"southern:n0005->n0006:avenue","kind":"avenue","lengthM":1973.1,"gradientPct":0.0},"geometry":{"type":"LineString","coordinates":[[114.24583333333334,22.21],[114.265,22.21]]}},{"type":"Feature","properties":{"id":"southern:n0007->n0008:street","kind":"street","lengthM":1973.0,"gradientPct":0.0},"geometry":{"type":"LineString","coordinates":[[114.15,22.221],[114.16916666666667,22.221]]}},{"type":"Feature","properties":{"id":"southern:n0008->n0009:street","kind":"street","lengthM":1973.0,"gradientPct":0.0},"geometry":{"type":"LineString","coordinates":[[114.16916666666667,22.221],[114.18833333333333,22.221]]}},{"type":"Feature","properties":{"id":"southern:n0009->n0010:street","kind":"street","lengthM":1973.0,"gradientPct":0.0},"geometry":{"type":"LineString","coordinates":[[114.18833333333333,22.221],[114.20750000000001,22.221]]}},{"type":"Feature","properties":{"id":"southern:n0010->n0011:street","kind":"street","lengthM":1973.0,"gradientPct":0.0},"geometry":{"type":"LineString","coordinates":[[114.20750000000001,22.221],[114.22666666666667,22.221]]}},{"type":"Feature","properties":{"id":"southern:n0011->n0012:street","kind":"street","lengthM":1973.0,"gradientPct":0.0},"geometry":{"type":"LineString","coordinates":[[114.22666666666667,22.221],[114.24583333333334,22.221]]}},{"type":"Feature","properties":{"id":"southern:n0012->n0013:street","kind":"street","lengthM":1973.0,"gradientPct":0.0},"geometry":{"type":"LineString","coordinates":[[114.24583333333334,22.221],[114.265,22.221]]}},{"type":"Feature","properties":{"id":"southern:n0014->n0015:street","kind":"street","lengthM":1972.8,"gradientPct":0.0},"geometry":{"type":"LineString","coordinates":[[114.15,22.232],[114.16916666666667,22.232]]}},{"type":"Feature","properties":{"id":"southern:n0015->n0016:street","kind":"street","lengthM":1972.8,"gradientPct":0.0},"geometry":{"type":"LineString","coordinates":[[114.16916666666667,22.232],[114.18833333333333,22.232]]}},{"type":"Feature","properties":{"id":"southern:n0016->n0017:street","kind":"street","lengthM":1972.8,"gradientPct":0.0},"geometry":{"type":"LineString","coordinates":[[114.18833333333333,22.232],[114.20750000000001,22.232]]}},{"type":"Feature","properties":{"id":"southern:n0017->n0018:street","kind":"street","lengthM":1972.8,"gradientPct":0.0},"geometry":{"type":"LineString","coordinates":[[114.20750000000001,22.232],[114.22666666666667,22.232]]}},{"type":"Feature","properties":{"id":"southern:n0018->n0019:street","kind":"street","lengthM":1972.8,"gradientPct":0.0},"geometry":{"type":"LineString","coordinates":[[114.22666666666667,22.232],[114.24583333333334,22.232]]}},{"type":"Feature","properties":{"id":"southern:n0019->n0020:street","kind":"street","lengthM":1972.8,"gradientPct":0.0},"geometry":{"type":"LineString","coordinates":[[114.24583333333334,22.232],[114.265,22.232]]}},{"type":"Feature","properties":{"id":"southern:n0021->n0022:street","kind":"street","lengthM":1972.6,"gradientPct":0.0},"geometry":{"type":"LineString","coordinates":[[114.15,22.243000000000002],[114.16916666666667,22.243000000000002]]}},{"type":"Feature","properties":{"id":"southern:n0022->n0023:street","kind":"street","lengthM":1972.6,"gradientPct":0.0},"geometry":{"type":"LineString","coordinates":[[114.16916666666667,22.243000000000002],[114.18833333333333,22.243000000000002]]}},{"type":"Feature","properties":{"id":"southern:n0023->n0024:street","kind":"street","lengthM":1972.6,"gradientPct":0.0},"geometry":{"type":"LineString","coordinates":[[114.18833333333333,22.243000000000002],[114.20750000000001,22.243000000000002]]}},{"type":"Feature","properties":{"id":"southern:n0024->n0025:street","kind":"street","lengthM":1972.6,"gradientPct":0.0},"geometry":{"type":"LineString","coordinates":[[114.20750000000001,22.243000000000002],[114.22666666666667,22.243000000000002]]}},{"type":"Feature","properties":{"id":"southern:n0025->n0026:street","kind":"street","lengthM":1972.6,"gradientPct":0.0},"geometry":{"type":"LineString","coordinates":[[114.22666666666667,22.243000000000002],[114.24583333333334,22.243000000000002]]}},{"type":"Feature","properties":{"id":"southern:n0026->n0027:street","kind":"street","lengthM":1972.6,"gradientPct":0.0},"geometry":{"type":"LineString","coordinates":[[114.24583333333334,22.243000000000002],[114.265,22.243000000000002]]}},{"type":"Feature","properties":{"id":"southern:n0028->n0029:street","kind":"street","lengthM":1972.5,"gradientPct":0.0},"geometry":{"type":"LineString","coordinates":[[114.15,22.254],[114.16916666666667,22.254]]}},{"type":"Feature","properties":{"id":"southern:n0029->n0030:street","kind":"street","lengthM":1972.5,"gradientPct":0.0},"geometry":{"type":"LineString","coordinates":[[114.16916666666667,22.254],[114.18833333333333,22.254]]}},{"type":"Feature","properties":{"id":"southern:n0030->n0031:street","kind":"street","lengthM":1972.5,"gradientPct":0.0},"geometry":{"type":"LineString","coordinates":[[114.18833333333333,22.254],[114.20750000000001,22.254]]}},{"type":"Feature","properties":{"id":"southern:n0031->n0032:street","kind":"street","lengthM":1972.5,"gradientPct":0.0},"geometry":{"type":"LineString","coordinates":[[114.20750000000001,22.254],[114.22666666666667,22.254]]}},{"type":"Feature","properties":{"id":"southern:n0032->n0033:street","kind":"street","lengthM":1972.5,"gradientPct":0.0},"geometry":{"type":"LineString","coordinates":[[114.22666666666667,22.254],[114.24583333333334,22.254]]}},{"type":"Feature","properties":{"id":"southern:n0033->n0034:street","kind":"street","lengthM":1972.5,"gradientPct":0.0},"geometry":{"type":"LineString","coordinates":[[114.24583333333334,22.254],[114.265,22.254]]}},{"type":"Feature","properties":{"id":"southern:n0035->n0036:avenue","kind":"avenue","lengthM":1972.3,"gradientPct":0.0},"geometry":{"type":"LineString","coordinates":[[114.15,22.265],[114.16916666666667,22.265]]}},{"type":"Feature","properties":{"id":"southern:n0036->n0037:avenue","kind":"avenue","lengthM":1972.3,"gradientPct":0.0},"geometry":{"type":"LineString","coordinates":[[114.16916666666667,22.265],[114.18833333333333,22.265]]}},{"type":"Feature","properties":{"id":"southern:n0037->n0038:avenue","kind":"avenue","lengthM":1972.3,"gradientPct":0.0},"geometry":{"type":"LineString","coordinates":[[114.18833333333333,22.265],[114.20750000000001,22.265]]}},{"type":"Feature","properties":{"id":"southern:n0038->n0039:avenue","kind":"avenue","lengthM":1972.3,"gradientPct":0.0},"geometry":{"type":"LineString","coordinates":[[114.20750000000001,22.265],[114.22666666666667,22.265]]}},{"type":"Feature","properties":{"id":"southern:n0039->n0040:avenue","kind":"avenue","lengthM":1972.3,"gradientPct":0.0},"geometry":{"type":"LineString","coordinates":[[114.22666666666667,22.265],[114.24583333333334,22.265]]}},{"type":"Feature","properties":{"id":"southern:n0040->n0041:avenue","kind":"avenue","lengthM":1972.3,"gradientPct":0.0},"geometry":{"type":"LineString","coordinates":[[114.24583333333334,22.265],[114.265,22.265]]}},{"type":"Feature","properties":{"id":"southern:n0000->n0007:avenue","kind":"avenue","lengthM":1223.1,"gradientPct":0.0},"geometry":{"type":"LineString","coordinates":[[114.15,22.21],[114.15,22.221]]}},{"type":"Feature","properties":{"id":"southern:n0007->n0014:avenue","kind":"avenue","lengthM":1223.1,"gradientPct":0.0},"geometry":{"type":"LineString","coordinates":[[114.15,22.221],[114.15,22.232]]}},{"type":"Feature","properties":{"id":"southern:n0014->n0021:avenue","kind":"avenue","lengthM":1223.1,"gradientPct":0.0},"geometry":{"type":"LineString","coordinates":[[114.15,22.232],[114.15,22.243000000000002]]}},{"type":"Feature","properties":{"id":"southern:n0021->n0028:avenue","kind":"avenue","lengthM":1223.1,"gradientPct":0.0},"geometry":{"type":"LineString","coordinates":[[114.15,22.243000000000002],[114.15,22.254]]}},{"type":"Feature","properties":{"id":"southern:n0028->n0035:avenue","kind":"avenue","lengthM":1223.1,"gradientPct":0.0},"geometry":{"type":"LineString","coordinates":[[114.15,22.254],[114.15,22.265]]}},{"type":"Feature","properties":{"id":"southern:n0001->n0008:street","kind":"street","lengthM":1223.1,"gradientPct":0.0},"geometry":{"type":"LineString","coordinates":[[114.16916666666667,22.21],[114.16916666666667,22.221]]}},{"type":"Feature","properties":{"id":"southern:n0008->n0015:street","kind":"street","lengthM":1223.1,"gradientPct":0.0},"geometry":{"type":"LineString","coordinates":[[114.16916666666667,22.221],[114.16916666666667,22.232]]}},{"type":"Feature","properties":{"id":"southern:n0015->n0022:street","kind":"street","lengthM":1223.1,"gradientPct":0.0},"geometry":{"type":"LineString","coordinates":[[114.16916666666667,22.232],[114.16916666666667,22.243000000000002]]}},{"type":"Feature","properties":{"id":"southern:n0022->n0029:street","kind":"street","lengthM":1223.1,"gradientPct":0.0},"geometry":{"type":"LineString","coordinates":[[114.16916666666667,22.243000000000002],[114.16916666666667,22.254]]}},{"type":"Feature","properties":{"id":"southern:n0029->n0036:street","kind":"street","lengthM":1223.1,"gradientPct":0.0},"geometry":{"type":"LineString","coordinates":[[114.16916666666667,22.254],[114.16916666666667,22.265]]}},{"type":"Feature","properties":{"id":"southern:n0002->n0009:street","kind":"street","lengthM":1223.1,"gradientPct":0.0},"geometry":{"type":"LineString","coordinates":[[114.18833333333333,22.21],[114.18833333333333,22.221]]}},{"type":"Feature","properties":{"id":"southern:n0009->n0016:street","kind":"street","lengthM":1223.1,"gradientPct":0.0},"geometry":{"type":"LineString","coordinates":[[114.18833333333333,22.221],[114.18833333333333,22.232]]}},{"type":"Feature","properties":{"id":"southern:n0016->n0023:street","kind":"street","lengthM":1223.1,"gradientPct":0.0},"geometry":{"type":"LineString","coordinates":[[114.18833333333333,22.232],[114.18833333333333,22.243000000000002]]}},{"type":"Feature","properties":{"id":"southern:n0023->n0030:street","kind":"street","lengthM":1223.1,"gradientPct":0.0},"geometry":{"type":"LineString","coordinates":[[114.18833333333333,22.243000000000002],[114.18833333333333,22.254]]}},{"type":"Feature","properties":{"id":"southern:n0030->n0037:street","kind":"street","lengthM":1223.1,"gradientPct":0.0},"geometry":{"type":"LineString","coordinates":[[114.18833333333333,22.254],[114.18833333333333,22.265]]}},{"type":"Feature","properties":{"id":"southern:n0003->n0010:street","kind":"street","lengthM":1223.1,"gradientPct":0.0},"geometry":{"type":"LineString","coordinates":[[114.20750000000001,22.21],[114.20750000000001,22.221]]}},{"type":"Feature","properties":{"id":"southern:n0010->n0017:street","kind":"street","lengthM":1223.1,"gradientPct":0.0},"geometry":{"type":"LineString","coordinates":[[114.20750000000001,22.221],[114.20750000000001,22.232]]}},{"type":"Feature","properties":{"id":"southern:n0017->n0024:street","kind":"street","lengthM":1223.1,"gradientPct":0.0},"geometry":{"type":"LineString","coordinates":[[114.20750000000001,22.232],[114.20750000000001,22.243000000000002]]}},{"type":"Feature","properties":{"id":"southern:n0024->n0031:street","kind":"street","lengthM":1223.1,"gradientPct":0.0},"geometry":{"type":"LineString","coordinates":[[114.20750000000001,22.243000000000002],[114.20750000000001,22.254]]}},{"type":"Feature","properties":{"id":"southern:n0031->n0038:street","kind":"street","lengthM":1223.1,"gradientPct":0.0},"geometry":{"type":"LineString","coordinates":[[114.20750000000001,22.254],[114.20750000000001,22.265]]}},{"type":"Feature","properties":{"id":"southern:n0004->n0011:street","kind":"street","lengthM":1223.1,"gradientPct":0.0},"geometry":{"type":"LineString","coordinates":[[114.22666666666667,22.21],[114.22666666666667,22.221]]}},{"type":"Feature","properties":{"id":"southern:n0011->n0018:street","kind":"street","lengthM":1223.1,"gradientPct":0.0},"geometry":{"type":"LineString","coordinates":[[114.22666666666667,22.221],[114.22666666666667,22.232]]}},{"type":"Feature","properties":{"id":"southern:n0018->n0025:street","kind":"street","lengthM":1223.1,"gradientPct":0.0},"geometry":{"type":"LineString","coordinates":[[114.22666666666667,22.232],[114.22666666666667,22.243000000000002]]}},{"type":"Feature","properties":{"id":"southern:n0025->n0032:street","kind":"street","lengthM":1223.1,"gradientPct":0.0},"geometry":{"type":"LineString","coordinates":[[114.22666666666667,22.243000000000002],[114.22666666666667,22.254]]}},{"type":"Feature","properties":{"id":"southern:n0032->n0039:street","kind":"street","lengthM":1223.1,"gradientPct":0.0},"geometry":{"type":"LineString","coordinates":[[114.22666666666667,22.254],[114.22666666666667,22.265]]}},{"type":"Feature","properties":{"id":"southern:n0005->n0012:street","kind":"street","lengthM":1223.1,"gradientPct":0.0},"geometry":{"type":"LineString","coordinates":[[114.24583333333334,22.21],[114.24583333333334,22.221]]}},{"type":"Feature","properties":{"id":"southern:n0012->n0019:street","kind":"street","lengthM":1223.1,"gradientPct":0.0},"geometry":{"type":"LineString","coordinates":[[114.24583333333334,22.221],[114.24583333333334,22.232]]}},{"type":"Feature","properties":{"id":"southern:n0019->n0026:street","kind":"street","lengthM":1223.1,"gradientPct":0.0},"geometry":{"type":"LineString","coordinates":[[114.24583333333334,22.232],[114.24583333333334,22.243000000000002]]}},{"type":"Feature","properties":{"id":"southern:n0026->n0033:street","kind":"street","lengthM":1223.1,"gradientPct":0.0},"geometry":{"type":"LineString","coordinates":[[114.24583333333334,22.243000000000002],[114.24583333333334,22.254]]}},{"type":"Feature","properties":{"id":"southern:n0033->n0040:street","kind":"street","lengthM":1223.1,"gradientPct":0.0},"geometry":{"type":"LineString","coordinates":[[114.24583333333334,22.254],[114.24583333333334,22.265]]}},{"type":"Feature","properties":{"id":"southern:n0006->n0013:avenue","kind":"avenue","lengthM":1223.1,"gradientPct":0.0},"geometry":{"type":"LineString","coordinates":[[114.265,22.21],[114.265,22.221]]}},{"type":"Feature","properties":{"id":"southern:n0013->n0020:avenue","kind":"avenue","lengthM":1223.1,"gradientPct":0.0},"geometry":{"type":"LineString","coordinates":[[114.265,22.221],[114.265,22.232]]}},{"type":"Feature","properties":{"id":"southern:n0020->n0027:avenue","kind":"avenue","lengthM":1223.1,"gradientPct":0.0},"geometry":{"type":"LineString","coordinates":[[114.265,22.232],[114.265,22.243000000000002]]}},{"type":"Feature","properties":{"id":"southern:n0027->n0034:avenue","kind":"avenue","lengthM":1223.1,"gradientPct":0.0},"geometry":{"type":"LineString","coordinates":[[114.265,22.243000000000002],[114.265,22.254]]}},{"type":"Feature","properties":{"id":"southern:n0034->n0041:avenue","kind":"avenue","lengthM":1223.1,"gradientPct":0.0},"geometry":{"type":"LineString","coordinates":[[114.265,22.254],[114.265,22.265]]}}]}