{"type":"FeatureCollection","features":[{"type":"Feature","properties":{"id":"kowloon-tsuen-wan:n0000->n0001:avenue","kind":"avenue","lengthM":582.7,"gradientPct":0.0},"geometry":{"type":"LineString","coordinates":[[114.108,22.36],[114.11366666666667,22.36]]}},{"type":"Feature","properties":{"id":"kowloon-tsuen-wan:n0001->n0002:avenue","kind":"avenue","lengthM":582.7,"gradientPct":0.0},"geometry":{"type":"LineString","coordinates":[[114.11366666666667,22.36],[114.11933333333333,22.36]]}},{"type":"Feature","properties":{"id":"kowloon-tsuen-wan:n0002->n0003:avenue","kind":"avenue","lengthM":582.7,"gradientPct":0.0},"geometry":{"type":"LineString","coordinates":[[114.11933333333333,22.36],[114.125,22.36]]}},{"type":"Feature","properties":{"id":"kowloon-tsuen-wan:n0003->n0004:avenue","kind":"avenue","lengthM":582.7,"gradientPct":0.0},"geometry":{"type":"LineString","coordinates":[[114.125,22.36],[114.13066666666667,22.36]]}},{"type":"Feature","properties":{"id":"kowloon-tsuen-wan:n0004->n0005:avenue","kind":"avenue","lengthM":582.7,"gradientPct":0.0},"geometry":{"type":"LineString","coordinates":[[114.13066666666667,22.36],[114.13633333333333,22.36]]}},{"type":"Feature","properties":{"id":"kowloon-tsuen-wan:n0005->n0006:avenue","kind":"avenue","lengthM":582.7,"gradientPct":0.0},"geometry":{"type":"LineString","coordinates":[[114.13633333333333,22.36],[114.142,22.36]]}},{"type":"Feature","properties":{"id":"kowloon-tsuen-wan:n0007->n0008:street","kind":"street","lengthM":582.7,"gradientPct":0.0},"geometry":{"type":"LineString","coordinates":[[114.108,22.3644],[114.11366666666667,22.3644]]}},{"type":"Feature","properties":{"id":"kowloon-tsuen-wan:n0008->n0009:street","kind":"street","lengthM":582.7,"gradientPct":0.0},"geometry":{"type":"LineString","coordinates":[[114.11366666666667,22.3644],[114.11933333333333,22.3644]]}},{"type":"Feature","properties":{"id":"kowloon-tsuen-wan:n0009->n0010:street","kind":"street","lengthM":582.7,"gradientPct":0.0},"geometry":{"type":"LineString","coordinates":[[114.11933333333333,22.3644],[114.125,22.3644]]}},{"type":"Feature","properties":{"id":"kowloon-tsuen-wan:n0010->n0011:street","kind":"street","lengthM":582.7,"gradientPct":0.0},"geometry":{"type":"LineString","coordinates":[[114.125,22.3644],[114.13066666666667,22.3644]]}},{"type":"Feature","properties":{"id":"kowloon-tsuen-wan:n0011->n0012:street","kind":"street","lengthM":582.7,"gradientPct":0.0},"geometry":{"type":"LineString","coordinates":[[114.13066666666667,22.3644],[114.13633333333333,22.3644]]}},{"type":"Feature","properties":{"id":"kowloon-tsuen-wan:n0012->n0013:street","kind":"street","lengthM":582.7,"gradientPct":0.0},"geometry":{"type":"LineString","coordinates":[[114.13633333333333,22.3644],[114.142,22.3644]]}},{"type":"Feature","properties":{"id":"kowloon-tsuen-wan:n0014->n0015:street","kind":"street","lengthM":582.7,"gradientPct":0.0},"geometry":{"type":"LineString","coordinates":[[114.108,22.3688],[114.11366666666667,22.3688]]}},{"type":"Feature","properties":{"id":"kowloon-tsuen-wan:n0015->n0016:street","kind":"street","lengthM":582.7,"gradientPct":0.0},"geometry":{"type":"LineString","coordinates":[[114.11366666666667,22.3688],[114.11933333333333,22.3688]]}},{"type":"Feature","properties":{"id":"kowloon-tsuen-wan:n0016->n0017:street","kind":"street","lengthM":582.7,"gradientPct":0.0},"geometry":{"type":"LineString","coordinates":[[114.11933333333333,22.3688],[114.125,22.3688]]}},{"type":"Feature","properties":{"id":"kowloon-tsuen-wan:n0017->n0018:street","kind":"street","lengthM":582.7,"gradientPct":0.0},"geometry":{"type":"LineString","coordinates":[[114.125,22.3688],[114.13066666666667,22.3688]]}},{"type":"Feature","properties":{"id":"kowloon-tsuen-wan:n0018->n0019:street","kind":"street","lengthM":582.7,"gradientPct":0.0},"geometry":{"type":"LineString","coordinates":[[114.13066666666667,22.3688],[114.13633333333333,22.3688]]}},{"type":"Feature","properties":{"id":"kowloon-tsuen-wan:n0019->n0020:street","kind":"street","lengthM":582.7,"gradientPct":0.0},"geometry":{"type":"LineString","coordinates":[[114.13633333333333,22.3688],[114.142,22.3688]]}},{"type":"Feature","properties":{"id":"kowloon-tsuen-wan:n0021->n0022:street","kind":"street","lengthM":582.7,"gradientPct":0.0},"geometry":{"type":"LineString","coordinates":[[114.108,22.3732],[114.11366666666667,22.3732]]}},{"type":"Feature","properties":{"id":"kowloon-tsuen-wan:n0022->n0023:street","kind":"street","lengthM":582.7,"gradientPct":0.0},"geometry":{"type":"LineString","coordinates":[[114.11366666666667,22.3732],[114.11933333333333,22.3732]]}},{"type":"Feature","properties":{"id":"kowloon-tsuen-wan:n0023->n0024:street","kind":"street","lengthM":582.7,"gradientPct":0.0},"geometry":{"type":"LineString","coordinates":[[114.11933333333333,22.3732],[114.125,22.3732]]}},{"type":"Feature","properties":{"id":"kowloon-tsuen-wan:n0024->n0025:street","kind":"street","lengthM":582.7,"gradientPct":0.0},"geometry":{"type":"LineString","coordinates":[[114.125,22.3732],[114.13066666666667,22.3732]]}},{"type":"Feature","properties":{"id":"kowloon-tsuen-wan:n0025->n0026:street","kind":"street","lengthM":582.7,"gradientPct":0.0},"geometry":{"type":"LineString","coordinates":[[114.13066666666667,22.3732],[114.13633333333333,22.3732]]}},{"type":"Feature","properties":{"id":"kowloon-tsuen-wan:n0026->n0027:street","kind":"street","lengthM":582.7,"gradientPct":0.0},"geometry":{"type":"LineString","coordinates":[[114.13633333333333,22.3732],[114.142,22.3732]]}},{"type":"Feature","properties":{"id":"kowloon-tsuen-wan:n0028->n0029:street","kind":"street","lengthM":582.7,"gradientPct":0.0},"geometry":{"type":"LineString","coordinates":[[114.108,22.3776],[114.11366666666667,22.3776]]}},{"type":"Feature","properties":{"id":"kowloon-tsuen-wan:n0029->n0030:street","kind":"street","lengthM":582.7,"gradientPct":0.0},"geometry":{"type":"LineString","coordinates":[[114.11366666666667,22.3776],[114.11933333333333,22.3776]]}},{"type":"Feature","properties":{"id":"kowloon-tsuen-wan:n0030->n0031:street","kind":"street","lengthM":582.7,"gradientPct":0.0},"geometry":{"type":"LineString","coordinates":[[114.11933333333333,22.3776],[114.125,22.3776]]}},{"type":"Feature","properties":{"id":"kowloon-tsuen-wan:n0031->n0032:street","kind":"street","lengthM":582.7,"gradientPct":0.0},"geometry":{"type":"LineString","coordinates":[[114.125,22.3776],[114.13066666666667,22.3776]]}},{"type":"Feature","properties":{"id":"kowloon-tsuen-wan:n0032->n0033:street","kind":"street","lengthM":582.7,"gradientPct":0.0},"geometry":{"type":"LineString","coordinates":[[114.13066666666667,22.3776],[114.13633333333333,22.3776]]}},{"type":"Feature","properties":{"id":"kowloon-tsuen-wan:n0033->n0034:street","kind":"street","lengthM":582.7,"gradientPct":0.0},"geometry":{"type":"LineString","coordinates":[[114.13633333333333,22.3776],[114.142,22.3776]]}},{"type":"Feature","properties":{"id":"kowloon-tsuen-wan:n0035->n0036:avenue","kind":"avenue","lengthM":582.6,"gradientPct":0.0},"geometry":{"type":"LineString","coordinates":[[114.108,22.382],[114.11366666666667,22.382]]}},{"type":"Feature","properties":{"id":"kowloon-tsuen-wan:n0036->n0037:avenue","kind":"avenue","lengthM":582.6,"gradientPct":0.0},"geometry":{"type":"LineString","coordinates":[[114.11366666666667,22.382],[114.11933333333333,22.382]]}},{"type":"Feature","properties":{"id":"kowloon-tsuen-wan:n0037->n0038:avenue","kind":"avenue","lengthM":582.6,"gradientPct":0.0},"geometry":{"type":"LineString","coordinates":[[114.11933333333333,22.382],[114.125,22.382]]}},{"type":"Feature","properties":{"id":"kowloon-tsuen-wan:n0038->n0039:avenue","kind":"avenue","lengthM":582.6,"gradientPct":0.0},"geometry":{"type":"LineString","coordinates":[[114.125,22.382],[114.13066666666667,22.382]]}},{"type":"Feature","properties":{"id":"kowloon-tsuen-wan:n0039->n0040:avenue","kind":"avenue","lengthM":582.6,"gradientPct":0.0},"geometry":{"type":"LineString","coordinates":[[114.13066666666667,22.382],[114.13633333333333,22.382]]}},{"type":"Feature","properties":{"id":"kowloon-tsuen-wan:n0040->n0041:avenue","kind":"avenue","lengthM":582.6,"gradientPct":0.0},"geometry":{"type":"LineString","coordinates":[[114.13633333333333,22.382],[114.142,22.382]]}},{"type":"Feature","properties":{"id":"kowloon-tsuen-wan:n0000->n0007:avenue","kind":"avenue","lengthM":489.3,"gradientPct":0.0},"geometry":{"type":"LineString","coordinates":[[114.108,22.36],[114.108,22.3644]]}},{"type":"Feature","properties":{"id":"kowloon-tsuen-wan:n0007->n0014:avenue","kind":"avenue","lengthM":489.3,"gradientPct":0.0},"geometry":{"type":"LineString","coordinates":[[114.108,22.3644],[114.108,22.3688]]}},{"type":"Feature","properties":{"id":"kowloon-tsuen-wan:n0014->n0021:avenue","kind":"avenue","lengthM":489.3,"gradientPct":0.0},"geometry":{"type":"LineString","coordinates":[[114.108,22.3688],[114.108,22.3732]]}},{"type":"Feature","properties":{"id":"kowloon-tsuen-wan:n0021->n0028:avenue","kind":"avenue","lengthM":489.3,"gradientPct":0.0},"geometry":{"type":"LineString","coordinates":[[114.108,22.3732],[114.108,22.3776]]}},{"type":"Feature","properties":{"id":"kowloon-tsuen-wan:n0028->n0035:avenue","kind":"avenue","lengthM":489.3,"gradientPct":0.0},"geometry":{"type":"LineString","coordinates":[[114.108,22.3776],[114.108,22.382]]}},{"type":"Feature","properties":{"id":"kowloon-tsuen-wan:n0001->n0008:street","kind":"street","lengthM":489.3,"gradientPct":0.0},"geometry":{"type":"LineString","coordinates":[[114.11366666666667,22.36],[114.11366666666667,22.3644]]}},{"type":"Feature","properties":{"id":"kowloon-tsuen-wan:n0008->n0015:street","kind":"street","lengthM":489.3,"gradientPct":0.0},"geometry":{"type":"LineString","coordinates":[[114.11366666666667,22.3644],[114.11366666666667,22.3688]]}},{"type":"Feature","properties":{"id":"kowloon-tsuen-wan:n0015->n0022:street","kind":"street","lengthM":489.3,"gradientPct":0.0},"geometry":{"type":"LineString","coordinates":[[114.11366666666667,22.3688],[114.11366666666667,22.3732]]}},{"type":"Feature","properties":{"id":"kowloon-tsuen-wan:n0022->n0029:street","kind":"street","lengthM":489.3,"gradientPct":0.0},"geometry":{"type":"LineString","coordinates":[[114.11366666666667,22.3732],[114.11366666666667,22.3776]]}},{"type":"Feature","properties":{"id":"kowloon-tsuen-wan:n0029->n0036:street","kind":"street","lengthM":489.3,"gradientPct":0.0},"geometry":{"type":"LineString","coordinates":[[114.11366666666667,22.3776],[114.11366666666667,22.382]]}},{"type":"Feature","properties":{"id":"kowloon-tsuen-wan:n0002->n0009:street","kind":"street","lengthM":489.3,"gradientPct":0.0},"geometry":{"type":"LineString","coordinates":[[114.11933333333333,22.36],[114.11933333333333,22.3644]]}},{"type":"Feature","properties":{"id":"kowloon-tsuen-wan:n0009->n0016:street","kind":"street","lengthM":489.3,"gradientPct":0.0},"geometry":{"type":"LineString","coordinates":[[114.11933333333333,22.3644],[114.11933333333333,22.3688]]}},{"type":"Feature","properties":{"id":"kowloon-tsuen-wan:n0016->n0023:street","kind":"street","lengthM":489.3,"gradientPct":0.0},"geometry":{"type":"LineString","coordinates":[[114.11933333333333,22.3688],[114.11933333333333,22.3732]]}},{"type":"Feature","properties":{"id":"kowloon-tsuen-wan:n0023->n0030:street","kind":"street","lengthM":489.3,"gradientPct":0.0},"geometry":{"type":"LineString","coordinates":[[114.11933333333333,22.3732],[114.11933333333333,22.3776]]}},{"type":"Feature","properties":{"id":"kowloon-tsuen-wan:n0030->n0037:street","kind":"street","lengthM":489.3,"gradientPct":0.0},"geometry":{"type":"LineString","coordinates":[[114.11933333333333,22.3776],[114.11933333333333,22.382]]}},{"type":"Feature","properties":{"id":"kowloon-tsuen-wan:n0003->n0010:street","kind":"street","lengthM":489.3,"gradientPct":0.0},"geometry":{"type":"LineString","coordinates":[[114.125,22.36],[114.125,22.3644]]}},{"type":"Feature","properties":{"id":"kowloon-tsuen-wan:n0010->n0017:street","kind":"street","lengthM":489.3,"gradientPct":0.0},"geometry":{"type":"LineString","coordinates":[[114.125,22.3644],[114.125,22.3688]]}},{"type":"Feature","properties":{"id":"kowloon-tsuen-wan:n0017->n0024:street","kind":"street","lengthM":489.3,"gradientPct":0.0},"geometry":{"type":"LineString","coordinates":[[114.125,22.3688],[114.125,22.3732]]}},{"type":"Feature","properties":{"id":"kowloon-tsuen-wan:n0024->n0031:street","kind":"street","lengthM":489.3,"gradientPct":0.0},"geometry":{"type":"LineString","coordinates":[[114.125,22.3732],[114.125,22.3776]]}},{"type":"Feature","properties":{"id":"kowloon-tsuen-wan:n0031->n0038:street","kind":"street","lengthM":489.3,"gradientPct":0.0},"geometry":{"type":"LineString","coordinates":[[114.125,22.3776],[114.125,22.382]]}},{"type":"Feature","properties":{"id":"kowloon-tsuen-wan:n0004->n0011:street","kind":"street","lengthM":489.3,"gradientPct":0.0},"geometry":{"type":"LineString","coordinates":[[114.13066666666667,22.36],[114.13066666666667,22.3644]]}},{"type":"Feature","properties":{"id":"kowloon-tsuen-wan:n0011->n0018:street","kind":"street","lengthM":489.3,"gradientPct":0.0},"geometry":{"type":"LineString","coordinates":[[114.13066666666667,22.3644],[114.13066666666667,22.3688]]}},{"type":"Feature","properties":{"id":"kowloon-tsuen-wan:n0018->n0025:street","kind":"street","lengthM":489.3,"gradientPct":0.0},"geometry":{"type":"LineString","coordinates":[[114.13066666666667,22.3688],[114.13066666666667,22.3732]]}},{"type":"Feature","properties":{"id":"kowloon-tsuen-wan:n0025->n0032:street","kind":"street","lengthM":489.3,"gradientPct":0.0},"geometry":{"type":"LineString","coordinates":[[114.13066666666667,22.3732],[114.13066666666667,22.3776]]}},{"type":"Feature","properties":{"id":"kowloon-tsuen-wan:n0032->n0039:street","kind":"street","lengthM":489.3,"gradientPct":0.0},"geometry":{"type":"LineString","coordinates":[[114.13066666666667,22.3776],[114.13066666666667,22.382]]}},{"type":"Feature","properties":{"id":"kowloon-tsuen-wan:n0005->n0012:street","kind":"street","lengthM":489.3,"gradientPct":0.0},"geometry":{"type":"LineString","coordinates":[[114.13633333333333,22.36],[114.13633333333333,22.3644]]}},{"type":"Feature","properties":{"id":"kowloon-tsuen-wan:n0012->n0019:street","kind":"street","lengthM":489.3,"gradientPct":0.0},"geometry":{"type":"LineString","coordinates":[[114.13633333333333,22.3644],[114.13633333333333,22.3688]]}},{"type":"Feature","properties":{"id":"kowloon-tsuen-wan:n0019->n0026:street","kind":"street","lengthM":489.3,"gradientPct":0.0},"geometry":{"type":"LineString","coordinates":[[114.13633333333333,22.3688],[114.13633333333333,22.3732]]}},{"type":"Feature","properties":{"id":"kowloon-tsuen-wan:n0026->n0033:street","kind":"street","lengthM":489.3,"gradientPct":0.0},"geometry":{"type":"LineString","coordinates":[[114.13633333333333,22.3732],[114.13633333333333,22.3776]]}},{"type":"Feature","properties":{"id":"kowloon-tsuen-wan:n0033->n0040:street","kind":"street","lengthM":489.3,"gradientPct":0.0},"geometry":{"type":"LineString","coordinates":[[114.13633333333333,22.3776],[114.13633333333333,22.382]]}},{"type":"Feature","properties":{"id":"kowloon-tsuen-wan:n0006->n0013:avenue","kind":"avenue","lengthM":489.3,"gradientPct":0.0},"geometry":{"type":"LineString","coordinates":[[114.142,22.36],[114.142,22.3644]]}},{"type":"Feature","properties":{"id":"kowloon-tsuen-wan:n0013->n0020:avenue","kind":"avenue","lengthM":489.3,"gradientPct":0.0},"geometry":{"type":"LineString","coordinates":[[114.142,22.3644],[114.142,22.3688]]}},{"type":"Feature","properties":{"id":"kowloon-tsuen-wan:n0020->n0027:avenue","kind":"avenue","lengthM":489.3,"gradientPct":0.0},"geometry":{"type":"LineString","coordinates":[[114.142,22.3688],[114.142,22.3732]]}},{"type":"Feature","properties":{"id":"kowloon-tsuen-wan:n0027->n0034:avenue","kind":"avenue","lengthM":489.3,"gradientPct":0.0},"geometry":{"type":"LineString","coordinates":[[114.142,22.3732],[114.142,22.3776]]}},{"type":"Feature","properties":{"id":"kowloon-tsuen-wan:n0034->n0041:avenue","kind":"avenue","lengthM":489.3,"gradientPct":0.0},"geometry":{"type":"LineString","coordinates":[[114.142,22.3776],[114.142,22.382]]}}]}